DeviceLogId,DownloadDate,DeviceId,UserId,LogDate,Direction,AttDirection,C1,C2,C3,C4,C5,C6,C7,WorkCode,UpdateFlag,IsApproved,EmployeeImage,FileName,Longitude,Latitude,CreatedDate,LastModifiedDate,LocationAddress,BodyTemperature,IsMaskOn
82584,12/01/2020 12:30:28,19,HR/EN/0992,11/30/2020 20:18:53,,NULL,in,NULL,NULL,0,15,NULL,NULL,,0,-1,NULL,NULL,NULL,NULL,12/01/2020 12:30:28,NULL,NULL,0,0
82583,12/01/2020 12:30:28,19,HR/EN/1746,11/30/2020 19:57:02,,NULL,in,NULL,NULL,0,15,NULL,NULL,,0,-1,NULL,NULL,NULL,NULL,12/01/2020 12:30:28,NULL,NULL,0,0
82582,12/01/2020 12:30:28,19,HR/EN/1746,11/30/2020 19:56:47,,NULL,in,NULL,NULL,0,15,NULL,NULL,,0,-1,NULL,NULL,NULL,NULL,12/01/2020 12:30:28,NULL,NULL,0,0
82688,12/01/2020 16:49:36,14,41,11/30/2020 19:55:03,,NULL,out,NULL,NULL,1,0,NULL,NULL,0,0,-1,NULL,NULL,NULL,NULL,12/01/2020 16:49:36,NULL,NULL,0,0
82687,12/01/2020 16:49:36,14,41,11/30/2020 19:55:01,,NULL,out,NULL,NULL,1,0,NULL,NULL,0,0,-1,NULL,NULL,NULL,NULL,12/01/2020 16:49:36,NULL,NULL,0,0
16577,12/01/2020 10:46:01,37,HR/EN/1134,11/30/2020 19:43:44,,NULL,out,NULL,NULL,4,15,NULL,NULL,,0,-1,NULL,NULL,NULL,NULL,12/01/2020 10:46:01,NULL,NULL,0,0
82581,12/01/2020 12:30:28,19,HR/EN/1099,11/30/2020 19:33:52,,NULL,in,NULL,NULL,0,15,NULL,NULL,,0,-1,NULL,NULL,NULL,NULL,12/01/2020 12:30:28,NULL,NULL,0,0
82580,12/01/2020 12:30:28,19,HR/EN/1099,11/30/2020 19:33:45,,NULL,in,NULL,NULL,0,15,NULL,NULL,,0,-1,NULL,NULL,NULL,NULL,12/01/2020 12:30:28,NULL,NULL,0,0
82579,12/01/2020 12:30:28,19,HR/EN/0269,11/30/2020 19:33:16,,NULL,in,NULL,NULL,0,15,NULL,NULL,,0,-1,NULL,NULL,NULL,NULL,12/01/2020 12:30:28,NULL,NULL,0,0
82578,12/01/2020 12:30:28,19,HR/EN/0269,11/30/2020 19:33:09,,NULL,in,NULL,NULL,0,15,NULL,NULL,,0,-1,NULL,NULL,NULL,NULL,12/01/2020 12:30:28,NULL,NULL,0,0
82577,12/01/2020 12:30:28,19,HR/EN/1308,11/30/2020 19:33:00,,NULL,in,NULL,NULL,0,15,NULL,NULL,,0,-1,NULL,NULL,NULL,NULL,12/01/2020 12:30:28,NULL,NULL,0,0
82576,12/01/2020 12:30:28,19,HR/EN/1308,11/30/2020 19:32:56,,NULL,in,NULL,NULL,0,15,NULL,NULL,,0,-1,NULL,NULL,NULL,NULL,12/01/2020 12:30:28,NULL,NULL,0,0
82575,12/01/2020 12:30:28,19,HR/EN/1309,11/30/2020 19:32:49,,NULL,in,NULL,NULL,0,15,NULL,NULL,,0,-1,NULL,NULL,NULL,NULL,12/01/2020 12:30:28,NULL,NULL,0,0
82574,12/01/2020 12:30:28,19,HR/EN/1309,11/30/2020 19:32:44,,NULL,in,NULL,NULL,0,15,NULL,NULL,,0,-1,NULL,NULL,NULL,NULL,12/01/2020 12:30:28,NULL,NULL,0,0
82573,12/01/2020 12:30:28,19,HR/EN/1311,11/30/2020 19:32:30,,NULL,in,NULL,NULL,0,15,NULL,NULL,,0,-1,NULL,NULL,NULL,NULL,12/01/2020 12:30:28,NULL,NULL,0,0
82572,12/01/2020 12:30:28,19,HR/EN/1311,11/30/2020 19:32:25,,NULL,in,NULL,NULL,0,15,NULL,NULL,,0,-1,NULL,NULL,NULL,NULL,12/01/2020 12:30:28,NULL,NULL,0,0
82571,12/01/2020 12:30:28,19,HR/EN/0085,11/30/2020 19:32:14,,NULL,in,NULL,NULL,0,15,NULL,NULL,,0,-1,NULL,NULL,NULL,NULL,12/01/2020 12:30:28,NULL,NULL,0,0
82570,12/01/2020 12:30:28,19,HR/EN/0085,11/30/2020 19:32:06,,NULL,in,NULL,NULL,0,15,NULL,NULL,,0,-1,NULL,NULL,NULL,NULL,12/01/2020 12:30:28,NULL,NULL,0,0
82569,12/01/2020 12:30:28,19,HR/EN/1310,11/30/2020 19:31:54,,NULL,in,NULL,NULL,0,15,NULL,NULL,,0,-1,NULL,NULL,NULL,NULL,12/01/2020 12:30:28,NULL,NULL,0,0
82568,12/01/2020 12:30:28,19,HR/EN/1310,11/30/2020 19:31:48,,NULL,in,NULL,NULL,0,15,NULL,NULL,,0,-1,NULL,NULL,NULL,NULL,12/01/2020 12:30:28,NULL,NULL,0,0
82567,12/01/2020 12:30:28,19,HR/EN/0877,11/30/2020 19:31:32,,NULL,in,NULL,NULL,0,15,NULL,NULL,,0,-1,NULL,NULL,NULL,NULL,12/01/2020 12:30:28,NULL,NULL,0,0
82566,12/01/2020 12:30:28,19,HR/EN/0877,11/30/2020 19:31:28,,NULL,in,NULL,NULL,0,15,NULL,NULL,,0,-1,NULL,NULL,NULL,NULL,12/01/2020 12:30:28,NULL,NULL,0,0
82565,12/01/2020 12:30:28,19,HR/EN/1553,11/30/2020 19:31:16,,NULL,in,NULL,NULL,0,15,NULL,NULL,,0,-1,NULL,NULL,NULL,NULL,12/01/2020 12:30:28,NULL,NULL,0,0
82564,12/01/2020 12:30:28,19,HR/EN/1553,11/30/2020 19:31:10,,NULL,in,NULL,NULL,0,15,NULL,NULL,,0,-1,NULL,NULL,NULL,NULL,12/01/2020 12:30:28,NULL,NULL,0,0
82563,12/01/2020 12:30:28,19,HR/EN/1083,11/30/2020 19:30:28,,NULL,in,NULL,NULL,0,15,NULL,NULL,,0,-1,NULL,NULL,NULL,NULL,12/01/2020 12:30:28,NULL,NULL,0,0
82562,12/01/2020 12:30:28,19,HR/EN/1083,11/30/2020 19:30:23,,NULL,in,NULL,NULL,0,15,NULL,NULL,,0,-1,NULL,NULL,NULL,NULL,12/01/2020 12:30:28,NULL,NULL,0,0
82561,12/01/2020 12:30:28,19,HR/EN/1147,11/30/2020 19:30:16,,NULL,in,NULL,NULL,0,15,NULL,NULL,,0,-1,NULL,NULL,NULL,NULL,12/01/2020 12:30:28,NULL,NULL,0,0
82560,12/01/2020 12:30:28,19,HR/EN/1147,11/30/2020 19:30:12,,NULL,in,NULL,NULL,0,15,NULL,NULL,,0,-1,NULL,NULL,NULL,NULL,12/01/2020 12:30:28,NULL,NULL,0,0
82559,12/01/2020 12:30:28,19,HR/EN/0672,11/30/2020 19:28:20,,NULL,in,NULL,NULL,0,15,NULL,NULL,,0,-1,NULL,NULL,NULL,NULL,12/01/2020 12:30:28,NULL,NULL,0,0
82558,12/01/2020 12:30:28,19,HR/EN/0672,11/30/2020 19:28:16,,NULL,in,NULL,NULL,0,15,NULL,NULL,,0,-1,NULL,NULL,NULL,NULL,12/01/2020 12:30:28,NULL,NULL,0,0
82557,12/01/2020 12:30:28,19,HR/EN/1482,11/30/2020 19:22:42,,NULL,in,NULL,NULL,0,15,NULL,NULL,,0,-1,NULL,NULL,NULL,NULL,12/01/2020 12:30:28,NULL,NULL,0,0
82556,12/01/2020 12:30:28,19,HR/EN/1482,11/30/2020 19:22:35,,NULL,in,NULL,NULL,0,15,NULL,NULL,,0,-1,NULL,NULL,NULL,NULL,12/01/2020 12:30:28,NULL,NULL,0,0
82555,12/01/2020 12:30:28,19,HR/EN/0741,11/30/2020 19:22:01,,NULL,in,NULL,NULL,0,15,NULL,NULL,,0,-1,NULL,NULL,NULL,NULL,12/01/2020 12:30:28,NULL,NULL,0,0
82554,12/01/2020 12:30:28,19,HR/EN/0741,11/30/2020 19:21:56,,NULL,in,NULL,NULL,0,15,NULL,NULL,,0,-1,NULL,NULL,NULL,NULL,12/01/2020 12:30:28,NULL,NULL,0,0
82553,12/01/2020 12:30:25,19,HR/EN/1312,11/30/2020 19:18:43,,NULL,in,NULL,NULL,0,15,NULL,NULL,,0,-1,NULL,NULL,NULL,NULL,12/01/2020 12:30:25,NULL,NULL,0,0
82552,12/01/2020 12:30:25,19,HR/EN/1312,11/30/2020 19:18:39,,NULL,in,NULL,NULL,0,15,NULL,NULL,,0,-1,NULL,NULL,NULL,NULL,12/01/2020 12:30:25,NULL,NULL,0,0
82551,12/01/2020 12:30:25,19,HR/EN/1484,11/30/2020 19:18:29,,NULL,in,NULL,NULL,0,15,NULL,NULL,,0,-1,NULL,NULL,NULL,NULL,12/01/2020 12:30:25,NULL,NULL,0,0
82550,12/01/2020 12:30:25,19,HR/EN/1484,11/30/2020 19:18:20,,NULL,in,NULL,NULL,0,15,NULL,NULL,,0,-1,NULL,NULL,NULL,NULL,12/01/2020 12:30:25,NULL,NULL,0,0
82549,12/01/2020 12:30:25,19,HR/EN/0078,11/30/2020 19:11:09,,NULL,in,NULL,NULL,0,15,NULL,NULL,,0,-1,NULL,NULL,NULL,NULL,12/01/2020 12:30:25,NULL,NULL,0,0
82548,12/01/2020 12:30:25,19,HR/EN/0245,11/30/2020 19:06:11,,NULL,in,NULL,NULL,0,15,NULL,NULL,,0,-1,NULL,NULL,NULL,NULL,12/01/2020 12:30:25,NULL,NULL,0,0
82547,12/01/2020 12:30:25,19,HR/EN/0245,11/30/2020 19:06:06,,NULL,in,NULL,NULL,0,15,NULL,NULL,,0,-1,NULL,NULL,NULL,NULL,12/01/2020 12:30:25,NULL,NULL,0,0
82546,12/01/2020 12:30:25,19,HR/EN/1444,11/30/2020 19:05:58,,NULL,in,NULL,NULL,0,15,NULL,NULL,,0,-1,NULL,NULL,NULL,NULL,12/01/2020 12:30:25,NULL,NULL,0,0
82545,12/01/2020 12:30:25,19,HR/EN/1444,11/30/2020 19:05:49,,NULL,in,NULL,NULL,0,15,NULL,NULL,,0,-1,NULL,NULL,NULL,NULL,12/01/2020 12:30:25,NULL,NULL,0,0
82544,12/01/2020 12:30:24,19,HR/EN/1681,11/30/2020 19:05:40,,NULL,in,NULL,NULL,0,15,NULL,NULL,,0,-1,NULL,NULL,NULL,NULL,12/01/2020 12:30:24,NULL,NULL,0,0
82543,12/01/2020 12:30:24,19,HR/EN/1681,11/30/2020 19:05:36,,NULL,in,NULL,NULL,0,15,NULL,NULL,,0,-1,NULL,NULL,NULL,NULL,12/01/2020 12:30:24,NULL,NULL,0,0
82542,12/01/2020 12:30:24,19,HR/EN/0157,11/30/2020 19:05:24,,NULL,in,NULL,NULL,0,15,NULL,NULL,,0,-1,NULL,NULL,NULL,NULL,12/01/2020 12:30:24,NULL,NULL,0,0
17775,12/01/2020 10:49:06,27,HR/EN/1421,11/30/2020 18:51:19,,NULL,in,NULL,NULL,0,15,NULL,NULL,,0,-1,NULL,NULL,NULL,NULL,12/01/2020 10:49:06,NULL,NULL,0,0
82541,12/01/2020 12:30:24,19,7000,11/30/2020 18:51:09,,NULL,in,NULL,NULL,0,15,NULL,NULL,,0,-1,NULL,NULL,NULL,NULL,12/01/2020 12:30:24,NULL,NULL,0,0
82540,12/01/2020 12:30:24,19,HR/EN/1161,11/30/2020 18:44:46,,NULL,in,NULL,NULL,0,15,NULL,NULL,,0,-1,NULL,NULL,NULL,NULL,12/01/2020 12:30:24,NULL,NULL,0,0
82539,12/01/2020 12:30:24,19,HR/EN/1161,11/30/2020 18:44:41,,NULL,in,NULL,NULL,0,15,NULL,NULL,,0,-1,NULL,NULL,NULL,NULL,12/01/2020 12:30:24,NULL,NULL,0,0
82538,12/01/2020 12:30:24,19,HR/EN/1161,11/30/2020 18:44:33,,NULL,in,NULL,NULL,0,15,NULL,NULL,,0,-1,NULL,NULL,NULL,NULL,12/01/2020 12:30:24,NULL,NULL,0,0
82537,12/01/2020 12:30:24,19,7004,11/30/2020 18:30:39,,NULL,in,NULL,NULL,0,15,NULL,NULL,,0,-1,NULL,NULL,NULL,NULL,12/01/2020 12:30:24,NULL,NULL,0,0
82536,12/01/2020 12:30:24,19,7004,11/30/2020 18:30:34,,NULL,in,NULL,NULL,0,15,NULL,NULL,,0,-1,NULL,NULL,NULL,NULL,12/01/2020 12:30:24,NULL,NULL,0,0
82535,12/01/2020 12:30:24,19,HR/EN/5037,11/30/2020 18:28:34,,NULL,in,NULL,NULL,0,15,NULL,NULL,,0,-1,NULL,NULL,NULL,NULL,12/01/2020 12:30:24,NULL,NULL,0,0
82534,12/01/2020 12:30:24,19,HR/EN/5037,11/30/2020 18:28:30,,NULL,in,NULL,NULL,0,15,NULL,NULL,,0,-1,NULL,NULL,NULL,NULL,12/01/2020 12:30:24,NULL,NULL,0,0
82533,12/01/2020 12:30:24,19,HR/EN/5037,11/30/2020 18:28:26,,NULL,in,NULL,NULL,0,15,NULL,NULL,,0,-1,NULL,NULL,NULL,NULL,12/01/2020 12:30:24,NULL,NULL,0,0
82532,12/01/2020 12:30:24,19,HR/EN/5037,11/30/2020 18:28:20,,NULL,in,NULL,NULL,0,15,NULL,NULL,,0,-1,NULL,NULL,NULL,NULL,12/01/2020 12:30:24,NULL,NULL,0,0
82531,12/01/2020 12:30:24,19,HR/EN/0001,11/30/2020 18:25:59,,NULL,in,NULL,NULL,0,15,NULL,NULL,,0,-1,NULL,NULL,NULL,NULL,12/01/2020 12:30:24,NULL,NULL,0,0
82530,12/01/2020 12:30:24,19,HR/EN/0001,11/30/2020 18:25:55,,NULL,in,NULL,NULL,0,15,NULL,NULL,,0,-1,NULL,NULL,NULL,NULL,12/01/2020 12:30:24,NULL,NULL,0,0
82529,12/01/2020 12:30:24,19,HR/EN/0001,11/30/2020 18:25:48,,NULL,in,NULL,NULL,0,15,NULL,NULL,,0,-1,NULL,NULL,NULL,NULL,12/01/2020 12:30:24,NULL,NULL,0,0
82528,12/01/2020 12:30:24,19,HR/EN/1754,11/30/2020 18:23:12,,NULL,in,NULL,NULL,0,15,NULL,NULL,,0,-1,NULL,NULL,NULL,NULL,12/01/2020 12:30:24,NULL,NULL,0,0
82527,12/01/2020 12:30:24,19,HR/EN/1754,11/30/2020 18:23:06,,NULL,in,NULL,NULL,0,15,NULL,NULL,,0,-1,NULL,NULL,NULL,NULL,12/01/2020 12:30:24,NULL,NULL,0,0
82526,12/01/2020 12:30:24,19,HR/EN/0018,11/30/2020 18:22:47,,NULL,in,NULL,NULL,0,15,NULL,NULL,,0,-1,NULL,NULL,NULL,NULL,12/01/2020 12:30:24,NULL,NULL,0,0
82525,12/01/2020 12:30:24,19,HR/EN/0018,11/30/2020 18:22:42,,NULL,in,NULL,NULL,0,15,NULL,NULL,,0,-1,NULL,NULL,NULL,NULL,12/01/2020 12:30:24,NULL,NULL,0,0
82524,12/01/2020 12:30:24,19,HR/EN/1687,11/30/2020 18:22:35,,NULL,in,NULL,NULL,0,15,NULL,NULL,,0,-1,NULL,NULL,NULL,NULL,12/01/2020 12:30:24,NULL,NULL,0,0
82523,12/01/2020 12:30:24,19,HR/EN/1687,11/30/2020 18:22:30,,NULL,in,NULL,NULL,0,15,NULL,NULL,,0,-1,NULL,NULL,NULL,NULL,12/01/2020 12:30:24,NULL,NULL,0,0
82522,12/01/2020 12:30:24,19,HR/EN/1581,11/30/2020 18:20:23,,NULL,in,NULL,NULL,0,15,NULL,NULL,,0,-1,NULL,NULL,NULL,NULL,12/01/2020 12:30:24,NULL,NULL,0,0
82521,12/01/2020 12:30:24,19,HR/EN/0999,11/30/2020 18:18:06,,NULL,in,NULL,NULL,0,15,NULL,NULL,,0,-1,NULL,NULL,NULL,NULL,12/01/2020 12:30:24,NULL,NULL,0,0
82520,12/01/2020 12:30:24,19,HR/EN/0999,11/30/2020 18:18:00,,NULL,in,NULL,NULL,0,15,NULL,NULL,,0,-1,NULL,NULL,NULL,NULL,12/01/2020 12:30:24,NULL,NULL,0,0
17774,12/01/2020 10:49:06,27,HR/EN/1421,11/30/2020 18:15:29,,NULL,in,NULL,NULL,0,15,NULL,NULL,,0,-1,NULL,NULL,NULL,NULL,12/01/2020 10:49:06,NULL,NULL,0,0
17773,12/01/2020 10:49:06,27,HR/EN/1421,11/30/2020 18:15:26,,NULL,in,NULL,NULL,0,15,NULL,NULL,,0,-1,NULL,NULL,NULL,NULL,12/01/2020 10:49:06,NULL,NULL,0,0
82519,12/01/2020 12:30:24,19,HR/EN/1582,11/30/2020 18:12:20,,NULL,in,NULL,NULL,0,15,NULL,NULL,,0,-1,NULL,NULL,NULL,NULL,12/01/2020 12:30:24,NULL,NULL,0,0
16576,12/01/2020 10:46:01,37,HR/EN/0089,11/30/2020 18:10:10,,NULL,out,NULL,NULL,4,15,NULL,NULL,,0,-1,NULL,NULL,NULL,NULL,12/01/2020 10:46:01,NULL,NULL,0,0
82518,12/01/2020 12:30:24,19,HR/EN/1148,11/30/2020 18:09:53,,NULL,in,NULL,NULL,0,15,NULL,NULL,,0,-1,NULL,NULL,NULL,NULL,12/01/2020 12:30:24,NULL,NULL,0,0
82517,12/01/2020 12:30:24,19,HR/EN/1148,11/30/2020 18:09:35,,NULL,in,NULL,NULL,0,15,NULL,NULL,,0,-1,NULL,NULL,NULL,NULL,12/01/2020 12:30:24,NULL,NULL,0,0
82516,12/01/2020 12:30:24,19,HR/EN/1148,11/30/2020 18:08:37,,NULL,in,NULL,NULL,0,15,NULL,NULL,,0,-1,NULL,NULL,NULL,NULL,12/01/2020 12:30:24,NULL,NULL,0,0
82515,12/01/2020 12:30:24,19,HR/EN/1546,11/30/2020 18:07:25,,NULL,in,NULL,NULL,0,15,NULL,NULL,,0,-1,NULL,NULL,NULL,NULL,12/01/2020 12:30:24,NULL,NULL,0,0
82514,12/01/2020 12:30:24,19,HR/EN/1546,11/30/2020 18:07:21,,NULL,in,NULL,NULL,0,15,NULL,NULL,,0,-1,NULL,NULL,NULL,NULL,12/01/2020 12:30:24,NULL,NULL,0,0
82513,12/01/2020 12:30:24,19,HR/EN/0471,11/30/2020 18:03:30,,NULL,in,NULL,NULL,0,15,NULL,NULL,,0,-1,NULL,NULL,NULL,NULL,12/01/2020 12:30:24,NULL,NULL,0,0
82512,12/01/2020 12:30:21,19,HR/EN/0471,11/30/2020 18:03:24,,NULL,in,NULL,NULL,0,15,NULL,NULL,,0,-1,NULL,NULL,NULL,NULL,12/01/2020 12:30:21,NULL,NULL,0,0
82511,12/01/2020 12:30:21,19,HR/EN/1522,11/30/2020 18:02:37,,NULL,in,NULL,NULL,0,15,NULL,NULL,,0,-1,NULL,NULL,NULL,NULL,12/01/2020 12:30:21,NULL,NULL,0,0
82510,12/01/2020 12:30:21,19,HR/EN/1662,11/30/2020 18:02:24,,NULL,in,NULL,NULL,0,15,NULL,NULL,,0,-1,NULL,NULL,NULL,NULL,12/01/2020 12:30:21,NULL,NULL,0,0
82509,12/01/2020 12:30:21,19,HR/EN/1662,11/30/2020 18:02:20,,NULL,in,NULL,NULL,0,15,NULL,NULL,,0,-1,NULL,NULL,NULL,NULL,12/01/2020 12:30:21,NULL,NULL,0,0
16575,12/01/2020 10:46:01,37,HR/EN/1135,11/30/2020 18:01:26,,NULL,out,NULL,NULL,4,15,NULL,NULL,,0,-1,NULL,NULL,NULL,NULL,12/01/2020 10:46:01,NULL,NULL,0,0
16574,12/01/2020 10:46:01,37,HR/EN/1135,11/30/2020 18:01:24,,NULL,out,NULL,NULL,4,15,NULL,NULL,,0,-1,NULL,NULL,NULL,NULL,12/01/2020 10:46:01,NULL,NULL,0,0
82508,12/01/2020 12:30:21,19,HR/EN/0505,11/30/2020 18:01:14,,NULL,in,NULL,NULL,0,15,NULL,NULL,,0,-1,NULL,NULL,NULL,NULL,12/01/2020 12:30:21,NULL,NULL,0,0
82507,12/01/2020 12:30:21,19,HR/EN/0131,11/30/2020 18:00:59,,NULL,in,NULL,NULL,0,15,NULL,NULL,,0,-1,NULL,NULL,NULL,NULL,12/01/2020 12:30:21,NULL,NULL,0,0
82506,12/01/2020 12:30:21,19,HR/EN/0131,11/30/2020 18:00:50,,NULL,in,NULL,NULL,0,15,NULL,NULL,,0,-1,NULL,NULL,NULL,NULL,12/01/2020 12:30:21,NULL,NULL,0,0
82505,12/01/2020 12:30:21,19,HR/EN/0033,11/30/2020 18:00:41,,NULL,in,NULL,NULL,0,15,NULL,NULL,,0,-1,NULL,NULL,NULL,NULL,12/01/2020 12:30:21,NULL,NULL,0,0
82504,12/01/2020 12:30:21,19,HR/EN/0033,11/30/2020 18:00:36,,NULL,in,NULL,NULL,0,15,NULL,NULL,,0,-1,NULL,NULL,NULL,NULL,12/01/2020 12:30:21,NULL,NULL,0,0
82503,12/01/2020 12:30:21,19,HR/EN/1414,11/30/2020 18:00:25,,NULL,in,NULL,NULL,0,15,NULL,NULL,,0,-1,NULL,NULL,NULL,NULL,12/01/2020 12:30:21,NULL,NULL,0,0
82502,12/01/2020 12:30:21,19,HR/EN/1414,11/30/2020 18:00:19,,NULL,in,NULL,NULL,0,15,NULL,NULL,,0,-1,NULL,NULL,NULL,NULL,12/01/2020 12:30:21,NULL,NULL,0,0
82501,12/01/2020 12:30:21,19,HR/EN/1677,11/30/2020 18:00:13,,NULL,in,NULL,NULL,0,15,NULL,NULL,,0,-1,NULL,NULL,NULL,NULL,12/01/2020 12:30:21,NULL,NULL,0,0
82500,12/01/2020 12:30:21,19,HR/EN/1677,11/30/2020 18:00:09,,NULL,in,NULL,NULL,0,15,NULL,NULL,,0,-1,NULL,NULL,NULL,NULL,12/01/2020 12:30:21,NULL,NULL,0,0
82499,12/01/2020 12:30:21,19,HR/EN/1552,11/30/2020 17:59:56,,NULL,in,NULL,NULL,0,15,NULL,NULL,,0,-1,NULL,NULL,NULL,NULL,12/01/2020 12:30:21,NULL,NULL,0,0
16573,12/01/2020 10:46:01,37,HR/EN/1652,11/30/2020 17:42:01,,NULL,out,NULL,NULL,4,15,NULL,NULL,,0,-1,NULL,NULL,NULL,NULL,12/01/2020 10:46:01,NULL,NULL,0,0
16572,12/01/2020 10:46:01,37,HR/EN/1652,11/30/2020 17:41:59,,NULL,out,NULL,NULL,4,15,NULL,NULL,,0,-1,NULL,NULL,NULL,NULL,12/01/2020 10:46:01,NULL,NULL,0,0
82498,12/01/2020 12:30:21,19,HR/EN/1397,11/30/2020 17:37:18,,NULL,in,NULL,NULL,0,15,NULL,NULL,,0,-1,NULL,NULL,NULL,NULL,12/01/2020 12:30:21,NULL,NULL,0,0
82497,12/01/2020 12:30:20,19,HR/EN/1397,11/30/2020 17:37:13,,NULL,in,NULL,NULL,0,15,NULL,NULL,,0,-1,NULL,NULL,NULL,NULL,12/01/2020 12:30:20,NULL,NULL,0,0
82496,12/01/2020 12:30:20,19,HR/EN/0130,11/30/2020 17:36:27,,NULL,in,NULL,NULL,0,15,NULL,NULL,,0,-1,NULL,NULL,NULL,NULL,12/01/2020 12:30:20,NULL,NULL,0,0
82495,12/01/2020 12:30:20,19,HR/EN/0130,11/30/2020 17:36:22,,NULL,in,NULL,NULL,0,15,NULL,NULL,,0,-1,NULL,NULL,NULL,NULL,12/01/2020 12:30:20,NULL,NULL,0,0
82494,12/01/2020 12:30:20,19,HR/EN/1744,11/30/2020 17:30:08,,NULL,in,NULL,NULL,0,15,NULL,NULL,,0,-1,NULL,NULL,NULL,NULL,12/01/2020 12:30:20,NULL,NULL,0,0
82493,12/01/2020 12:30:20,19,HR/EN/1745,11/30/2020 17:29:40,,NULL,in,NULL,NULL,0,15,NULL,NULL,,0,-1,NULL,NULL,NULL,NULL,12/01/2020 12:30:20,NULL,NULL,0,0
82492,12/01/2020 12:30:20,19,HR/EN/1745,11/30/2020 17:29:33,,NULL,in,NULL,NULL,0,15,NULL,NULL,,0,-1,NULL,NULL,NULL,NULL,12/01/2020 12:30:20,NULL,NULL,0,0
21967,12/01/2020 10:53:35,38,HR/EN/0105,11/30/2020 17:28:34,,NULL,in,NULL,NULL,0,15,NULL,NULL,,0,-1,NULL,NULL,NULL,NULL,12/01/2020 10:53:35,NULL,NULL,0,0
21966,12/01/2020 10:53:35,38,HR/EN/0105,11/30/2020 17:28:09,,NULL,in,NULL,NULL,0,15,NULL,NULL,,0,-1,NULL,NULL,NULL,NULL,12/01/2020 10:53:35,NULL,NULL,0,0
21965,12/01/2020 10:53:35,38,HR/EN/0105,11/30/2020 17:28:07,,NULL,in,NULL,NULL,0,15,NULL,NULL,,0,-1,NULL,NULL,NULL,NULL,12/01/2020 10:53:35,NULL,NULL,0,0
21964,12/01/2020 10:53:35,38,HR/EN/0105,11/30/2020 17:28:05,,NULL,in,NULL,NULL,0,15,NULL,NULL,,0,-1,NULL,NULL,NULL,NULL,12/01/2020 10:53:35,NULL,NULL,0,0
21963,12/01/2020 10:53:35,38,HR/EN/0105,11/30/2020 17:27:53,,NULL,in,NULL,NULL,0,15,NULL,NULL,,0,-1,NULL,NULL,NULL,NULL,12/01/2020 10:53:35,NULL,NULL,0,0
43817,12/01/2020 11:27:06,23,HR/EN/1535,11/30/2020 17:19:11,,NULL,in,NULL,NULL,0,15,NULL,NULL,,0,-1,NULL,NULL,NULL,NULL,12/01/2020 11:27:06,NULL,NULL,0,0
43816,12/01/2020 11:27:06,23,HR/EN/1535,11/30/2020 17:19:06,,NULL,in,NULL,NULL,0,15,NULL,NULL,,0,-1,NULL,NULL,NULL,NULL,12/01/2020 11:27:06,NULL,NULL,0,0
43815,12/01/2020 11:27:06,23,HR/EN/1535,11/30/2020 17:18:58,,NULL,in,NULL,NULL,0,15,NULL,NULL,,0,-1,NULL,NULL,NULL,NULL,12/01/2020 11:27:06,NULL,NULL,0,0
82491,12/01/2020 12:30:20,19,HR/EN/0799,11/30/2020 17:10:28,,NULL,in,NULL,NULL,0,15,NULL,NULL,,0,-1,NULL,NULL,NULL,NULL,12/01/2020 12:30:20,NULL,NULL,0,0
82490,12/01/2020 12:30:20,19,HR/EN/0799,11/30/2020 17:10:21,,NULL,in,NULL,NULL,0,15,NULL,NULL,,0,-1,NULL,NULL,NULL,NULL,12/01/2020 12:30:20,NULL,NULL,0,0
82489,12/01/2020 12:30:20,19,HR/EN/0799,11/30/2020 17:10:15,,NULL,in,NULL,NULL,0,15,NULL,NULL,,0,-1,NULL,NULL,NULL,NULL,12/01/2020 12:30:20,NULL,NULL,0,0
82488,12/01/2020 12:30:20,19,HR/EN/0799,11/30/2020 17:10:11,,NULL,in,NULL,NULL,0,15,NULL,NULL,,0,-1,NULL,NULL,NULL,NULL,12/01/2020 12:30:20,NULL,NULL,0,0
29485,12/01/2020 11:05:54,21,HR/EN/1334,11/30/2020 17:09:50,,NULL,in,NULL,NULL,0,15,NULL,NULL,,0,-1,NULL,NULL,NULL,NULL,12/01/2020 11:05:54,NULL,NULL,0,0
43814,12/01/2020 11:27:06,23,HR/EN/0039,11/30/2020 17:08:31,,NULL,in,NULL,NULL,0,15,NULL,NULL,,0,-1,NULL,NULL,NULL,NULL,12/01/2020 11:27:06,NULL,NULL,0,0
43813,12/01/2020 11:27:06,23,HR/EN/0039,11/30/2020 17:08:24,,NULL,in,NULL,NULL,0,15,NULL,NULL,,0,-1,NULL,NULL,NULL,NULL,12/01/2020 11:27:06,NULL,NULL,0,0
43812,12/01/2020 11:27:06,23,HR/EN/0039,11/30/2020 17:08:19,,NULL,in,NULL,NULL,0,15,NULL,NULL,,0,-1,NULL,NULL,NULL,NULL,12/01/2020 11:27:06,NULL,NULL,0,0
43811,12/01/2020 11:27:06,23,HR/EN/0039,11/30/2020 17:08:13,,NULL,in,NULL,NULL,0,15,NULL,NULL,,0,-1,NULL,NULL,NULL,NULL,12/01/2020 11:27:06,NULL,NULL,0,0
82487,12/01/2020 12:30:20,19,HR/EN/0017,11/30/2020 17:07:31,,NULL,in,NULL,NULL,0,15,NULL,NULL,,0,-1,NULL,NULL,NULL,NULL,12/01/2020 12:30:20,NULL,NULL,0,0
82486,12/01/2020 12:30:20,19,HR/EN/0017,11/30/2020 17:07:26,,NULL,in,NULL,NULL,0,15,NULL,NULL,,0,-1,NULL,NULL,NULL,NULL,12/01/2020 12:30:20,NULL,NULL,0,0
43810,12/01/2020 11:27:06,23,HR/EN/0070,11/30/2020 17:07:17,,NULL,in,NULL,NULL,0,15,NULL,NULL,,0,-1,NULL,NULL,NULL,NULL,12/01/2020 11:27:06,NULL,NULL,0,0
43809,12/01/2020 11:27:06,23,HR/EN/0070,11/30/2020 17:07:13,,NULL,in,NULL,NULL,0,15,NULL,NULL,,0,-1,NULL,NULL,NULL,NULL,12/01/2020 11:27:06,NULL,NULL,0,0
43808,12/01/2020 11:27:06,23,HR/EN/1724,11/30/2020 17:05:20,,NULL,in,NULL,NULL,0,15,NULL,NULL,,0,-1,NULL,NULL,NULL,NULL,12/01/2020 11:27:06,NULL,NULL,0,0
29484,12/01/2020 11:05:54,21,HR/EN/1445,11/30/2020 17:05:19,,NULL,in,NULL,NULL,0,15,NULL,NULL,,0,-1,NULL,NULL,NULL,NULL,12/01/2020 11:05:54,NULL,NULL,0,0
29483,12/01/2020 11:05:54,21,HR/EN/1445,11/30/2020 17:05:15,,NULL,in,NULL,NULL,0,15,NULL,NULL,,0,-1,NULL,NULL,NULL,NULL,12/01/2020 11:05:54,NULL,NULL,0,0
43807,12/01/2020 11:27:06,23,HR/EN/1724,11/30/2020 17:05:14,,NULL,in,NULL,NULL,0,15,NULL,NULL,,0,-1,NULL,NULL,NULL,NULL,12/01/2020 11:27:06,NULL,NULL,0,0
29482,12/01/2020 11:05:54,21,HR/EN/1445,11/30/2020 17:05:13,,NULL,in,NULL,NULL,0,15,NULL,NULL,,0,-1,NULL,NULL,NULL,NULL,12/01/2020 11:05:54,NULL,NULL,0,0
43806,12/01/2020 11:27:06,23,HR/EN/1724,11/30/2020 17:05:09,,NULL,in,NULL,NULL,0,15,NULL,NULL,,0,-1,NULL,NULL,NULL,NULL,12/01/2020 11:27:06,NULL,NULL,0,0
29481,12/01/2020 11:05:54,21,HR/EN/1445,11/30/2020 17:05:02,,NULL,in,NULL,NULL,0,15,NULL,NULL,,0,-1,NULL,NULL,NULL,NULL,12/01/2020 11:05:54,NULL,NULL,0,0
82485,12/01/2020 12:30:20,19,HR/EN/0086,11/30/2020 17:02:40,,NULL,in,NULL,NULL,0,15,NULL,NULL,,0,-1,NULL,NULL,NULL,NULL,12/01/2020 12:30:20,NULL,NULL,0,0
29480,12/01/2020 11:05:54,21,HR/EN/0464,11/30/2020 17:02:36,,NULL,in,NULL,NULL,0,15,NULL,NULL,,0,-1,NULL,NULL,NULL,NULL,12/01/2020 11:05:54,NULL,NULL,0,0
82484,12/01/2020 12:30:20,19,HR/EN/0086,11/30/2020 17:02:35,,NULL,in,NULL,NULL,0,15,NULL,NULL,,0,-1,NULL,NULL,NULL,NULL,12/01/2020 12:30:20,NULL,NULL,0,0
29479,12/01/2020 11:05:54,21,HR/EN/0464,11/30/2020 17:02:33,,NULL,in,NULL,NULL,0,15,NULL,NULL,,0,-1,NULL,NULL,NULL,NULL,12/01/2020 11:05:54,NULL,NULL,0,0
82483,12/01/2020 12:30:20,19,HR/EN/0086,11/30/2020 17:02:32,,NULL,in,NULL,NULL,0,15,NULL,NULL,,0,-1,NULL,NULL,NULL,NULL,12/01/2020 12:30:20,NULL,NULL,0,0
29478,12/01/2020 11:05:54,21,HR/EN/0464,11/30/2020 17:02:31,,NULL,in,NULL,NULL,0,15,NULL,NULL,,0,-1,NULL,NULL,NULL,NULL,12/01/2020 11:05:54,NULL,NULL,0,0
82482,12/01/2020 12:30:20,19,HR/EN/0554,11/30/2020 17:02:12,,NULL,in,NULL,NULL,0,15,NULL,NULL,,0,-1,NULL,NULL,NULL,NULL,12/01/2020 12:30:20,NULL,NULL,0,0
82481,12/01/2020 12:30:20,19,HR/EN/0554,11/30/2020 17:02:09,,NULL,in,NULL,NULL,0,15,NULL,NULL,,0,-1,NULL,NULL,NULL,NULL,12/01/2020 12:30:20,NULL,NULL,0,0
82480,12/01/2020 12:30:20,19,HR/EN/0554,11/30/2020 17:02:06,,NULL,in,NULL,NULL,0,15,NULL,NULL,,0,-1,NULL,NULL,NULL,NULL,12/01/2020 12:30:20,NULL,NULL,0,0
18537,12/01/2020 10:50:15,31,HR/EN/0080,11/30/2020 17:01:13,,NULL,in,NULL,NULL,0,15,NULL,NULL,,0,-1,NULL,NULL,NULL,NULL,12/01/2020 10:50:15,NULL,NULL,0,0
18536,12/01/2020 10:50:15,31,HR/EN/0080,11/30/2020 17:01:11,,NULL,in,NULL,NULL,0,15,NULL,NULL,,0,-1,NULL,NULL,NULL,NULL,12/01/2020 10:50:15,NULL,NULL,0,0
18535,12/01/2020 10:50:15,31,HR/EN/0080,11/30/2020 17:01:09,,NULL,in,NULL,NULL,0,15,NULL,NULL,,0,-1,NULL,NULL,NULL,NULL,12/01/2020 10:50:15,NULL,NULL,0,0
18534,12/01/2020 10:50:15,31,HR/EN/0080,11/30/2020 17:01:04,,NULL,in,NULL,NULL,0,15,NULL,NULL,,0,-1,NULL,NULL,NULL,NULL,12/01/2020 10:50:15,NULL,NULL,0,0
31548,12/01/2020 11:07:41,36,HR/EN/0510,11/30/2020 17:01:01,,NULL,in,NULL,NULL,0,15,NULL,NULL,,0,-1,NULL,NULL,NULL,NULL,12/01/2020 11:07:41,NULL,NULL,0,0
31547,12/01/2020 11:07:41,36,HR/EN/0510,11/30/2020 17:00:59,,NULL,in,NULL,NULL,0,15,NULL,NULL,,0,-1,NULL,NULL,NULL,NULL,12/01/2020 11:07:41,NULL,NULL,0,0
31546,12/01/2020 11:07:41,36,HR/EN/0510,11/30/2020 17:00:56,,NULL,in,NULL,NULL,0,15,NULL,NULL,,0,-1,NULL,NULL,NULL,NULL,12/01/2020 11:07:41,NULL,NULL,0,0
31545,12/01/2020 11:07:41,36,HR/EN/0510,11/30/2020 17:00:54,,NULL,in,NULL,NULL,0,15,NULL,NULL,,0,-1,NULL,NULL,NULL,NULL,12/01/2020 11:07:41,NULL,NULL,0,0
82479,12/01/2020 12:30:20,19,HR/EN/1721,11/30/2020 17:00:22,,NULL,in,NULL,NULL,0,15,NULL,NULL,,0,-1,NULL,NULL,NULL,NULL,12/01/2020 12:30:20,NULL,NULL,0,0
31544,12/01/2020 11:07:41,36,HR/EN/0013,11/30/2020 17:00:22,,NULL,in,NULL,NULL,0,15,NULL,NULL,,0,-1,NULL,NULL,NULL,NULL,12/01/2020 11:07:41,NULL,NULL,0,0
31543,12/01/2020 11:07:41,36,HR/EN/0013,11/30/2020 17:00:20,,NULL,in,NULL,NULL,0,15,NULL,NULL,,0,-1,NULL,NULL,NULL,NULL,12/01/2020 11:07:41,NULL,NULL,0,0
31542,12/01/2020 11:07:41,36,HR/EN/0013,11/30/2020 17:00:18,,NULL,in,NULL,NULL,0,15,NULL,NULL,,0,-1,NULL,NULL,NULL,NULL,12/01/2020 11:07:41,NULL,NULL,0,0
18533,12/01/2020 10:50:15,31,HR/EN/0080,11/30/2020 17:00:10,,NULL,in,NULL,NULL,0,15,NULL,NULL,,0,-1,NULL,NULL,NULL,NULL,12/01/2020 10:50:15,NULL,NULL,0,0
18532,12/01/2020 10:50:15,31,HR/EN/0080,11/30/2020 17:00:08,,NULL,in,NULL,NULL,0,15,NULL,NULL,,0,-1,NULL,NULL,NULL,NULL,12/01/2020 10:50:15,NULL,NULL,0,0
17772,12/01/2020 10:49:06,27,HR/EN/1980,11/30/2020 16:56:08,,NULL,in,NULL,NULL,0,4,NULL,NULL,,0,-1,NULL,NULL,NULL,NULL,12/01/2020 10:49:06,NULL,NULL,0,0
17771,12/01/2020 10:49:06,27,HR/EN/1980,11/30/2020 16:56:07,,NULL,in,NULL,NULL,0,4,NULL,NULL,,0,-1,NULL,NULL,NULL,NULL,12/01/2020 10:49:06,NULL,NULL,0,0
17770,12/01/2020 10:49:06,27,HR/EN/1980,11/30/2020 16:56:02,,NULL,in,NULL,NULL,0,4,NULL,NULL,,0,-1,NULL,NULL,NULL,NULL,12/01/2020 10:49:06,NULL,NULL,0,0
37166,12/01/2020 11:20:09,25,HR/EN/1598,11/30/2020 16:54:13,,NULL,in,NULL,NULL,0,15,NULL,NULL,,0,-1,NULL,NULL,NULL,NULL,12/01/2020 11:20:09,NULL,NULL,0,0
37165,12/01/2020 11:20:09,25,HR/EN/1598,11/30/2020 16:54:11,,NULL,in,NULL,NULL,0,15,NULL,NULL,,0,-1,NULL,NULL,NULL,NULL,12/01/2020 11:20:09,NULL,NULL,0,0
37164,12/01/2020 11:20:09,25,HR/EN/1598,11/30/2020 16:54:03,,NULL,in,NULL,NULL,0,15,NULL,NULL,,0,-1,NULL,NULL,NULL,NULL,12/01/2020 11:20:09,NULL,NULL,0,0
82478,12/01/2020 12:30:20,19,PUC65,11/30/2020 16:53:32,,NULL,in,NULL,NULL,0,15,NULL,NULL,,0,-1,NULL,NULL,NULL,NULL,12/01/2020 12:30:20,NULL,NULL,0,0
37163,12/01/2020 11:20:09,25,HR/EN/1598,11/30/2020 16:53:27,,NULL,in,NULL,NULL,0,15,NULL,NULL,,0,-1,NULL,NULL,NULL,NULL,12/01/2020 11:20:09,NULL,NULL,0,0
37076,12/01/2020 11:19:50,25,HR/EN/1598,11/30/2020 16:53:24,,NULL,in,NULL,NULL,0,15,NULL,NULL,,0,-1,NULL,NULL,NULL,NULL,12/01/2020 11:19:50,NULL,NULL,0,0
82477,12/01/2020 12:30:20,19,PUC65,11/30/2020 16:53:22,,NULL,in,NULL,NULL,0,15,NULL,NULL,,0,-1,NULL,NULL,NULL,NULL,12/01/2020 12:30:20,NULL,NULL,0,0
37075,12/01/2020 11:19:50,25,HR/EN/1598,11/30/2020 16:53:20,,NULL,in,NULL,NULL,0,15,NULL,NULL,,0,-1,NULL,NULL,NULL,NULL,12/01/2020 11:19:50,NULL,NULL,0,0
37074,12/01/2020 11:19:50,25,HR/EN/1598,11/30/2020 16:53:15,,NULL,in,NULL,NULL,0,15,NULL,NULL,,0,-1,NULL,NULL,NULL,NULL,12/01/2020 11:19:50,NULL,NULL,0,0
82476,12/01/2020 12:30:20,19,HR/EN/1047,11/30/2020 16:51:59,,NULL,in,NULL,NULL,0,15,NULL,NULL,,0,-1,NULL,NULL,NULL,NULL,12/01/2020 12:30:20,NULL,NULL,0,0
82475,12/01/2020 12:30:20,19,HR/EN/1047,11/30/2020 16:51:56,,NULL,in,NULL,NULL,0,15,NULL,NULL,,0,-1,NULL,NULL,NULL,NULL,12/01/2020 12:30:20,NULL,NULL,0,0
82474,12/01/2020 12:30:20,19,HR/EN/1047,11/30/2020 16:51:53,,NULL,in,NULL,NULL,0,15,NULL,NULL,,0,-1,NULL,NULL,NULL,NULL,12/01/2020 12:30:20,NULL,NULL,0,0
82473,12/01/2020 12:30:20,19,7001,11/30/2020 16:51:39,,NULL,in,NULL,NULL,0,15,NULL,NULL,,0,-1,NULL,NULL,NULL,NULL,12/01/2020 12:30:20,NULL,NULL,0,0
32420,12/01/2020 11:09:22,22,HR/EN/0056,11/30/2020 16:50:54,,NULL,in,NULL,NULL,0,15,NULL,NULL,,0,-1,NULL,NULL,NULL,NULL,12/01/2020 11:09:22,NULL,NULL,0,0
32419,12/01/2020 11:09:22,22,HR/EN/0056,11/30/2020 16:50:51,,NULL,in,NULL,NULL,0,15,NULL,NULL,,0,-1,NULL,NULL,NULL,NULL,12/01/2020 11:09:22,NULL,NULL,0,0
20573,12/01/2020 10:52:11,30,1679,11/30/2020 16:49:21,,NULL,out,NULL,NULL,4,15,NULL,NULL,,0,-1,NULL,NULL,NULL,NULL,12/01/2020 10:52:11,NULL,NULL,0,0
20572,12/01/2020 10:52:11,30,1679,11/30/2020 16:49:19,,NULL,out,NULL,NULL,4,15,NULL,NULL,,0,-1,NULL,NULL,NULL,NULL,12/01/2020 10:52:11,NULL,NULL,0,0
20571,12/01/2020 10:52:11,30,1679,11/30/2020 16:49:17,,NULL,out,NULL,NULL,4,15,NULL,NULL,,0,-1,NULL,NULL,NULL,NULL,12/01/2020 10:52:11,NULL,NULL,0,0
32418,12/01/2020 11:09:22,22,HR/EN/0002,11/30/2020 16:48:18,,NULL,in,NULL,NULL,0,15,NULL,NULL,,0,-1,NULL,NULL,NULL,NULL,12/01/2020 11:09:22,NULL,NULL,0,0
32417,12/01/2020 11:09:22,22,HR/EN/0002,11/30/2020 16:48:12,,NULL,in,NULL,NULL,0,15,NULL,NULL,,0,-1,NULL,NULL,NULL,NULL,12/01/2020 11:09:22,NULL,NULL,0,0
82472,12/01/2020 12:30:20,19,HR/EN/1573,11/30/2020 16:48:12,,NULL,in,NULL,NULL,0,15,NULL,NULL,,0,-1,NULL,NULL,NULL,NULL,12/01/2020 12:30:20,NULL,NULL,0,0
82471,12/01/2020 12:30:17,19,HR/EN/1573,11/30/2020 16:48:09,,NULL,in,NULL,NULL,0,15,NULL,NULL,,0,-1,NULL,NULL,NULL,NULL,12/01/2020 12:30:17,NULL,NULL,0,0
32416,12/01/2020 11:09:22,22,HR/EN/0002,11/30/2020 16:48:01,,NULL,in,NULL,NULL,0,15,NULL,NULL,,0,-1,NULL,NULL,NULL,NULL,12/01/2020 11:09:22,NULL,NULL,0,0
32415,12/01/2020 11:09:22,22,HR/EN/1247,11/30/2020 16:46:14,,NULL,in,NULL,NULL,0,15,NULL,NULL,,0,-1,NULL,NULL,NULL,NULL,12/01/2020 11:09:22,NULL,NULL,0,0
31541,12/01/2020 11:07:41,36,HR/EN/1325,11/30/2020 16:45:23,,NULL,in,NULL,NULL,0,15,NULL,NULL,,0,-1,NULL,NULL,NULL,NULL,12/01/2020 11:07:41,NULL,NULL,0,0
31540,12/01/2020 11:07:41,36,HR/EN/1325,11/30/2020 16:45:21,,NULL,in,NULL,NULL,0,15,NULL,NULL,,0,-1,NULL,NULL,NULL,NULL,12/01/2020 11:07:41,NULL,NULL,0,0
31539,12/01/2020 11:07:41,36,HR/EN/1325,11/30/2020 16:45:19,,NULL,in,NULL,NULL,0,15,NULL,NULL,,0,-1,NULL,NULL,NULL,NULL,12/01/2020 11:07:41,NULL,NULL,0,0
37073,12/01/2020 11:19:50,25,HR/EN/1574,11/30/2020 16:43:08,,NULL,in,NULL,NULL,0,15,NULL,NULL,,0,-1,NULL,NULL,NULL,NULL,12/01/2020 11:19:50,NULL,NULL,0,0
37072,12/01/2020 11:19:50,25,HR/EN/1574,11/30/2020 16:43:05,,NULL,in,NULL,NULL,0,15,NULL,NULL,,0,-1,NULL,NULL,NULL,NULL,12/01/2020 11:19:50,NULL,NULL,0,0
37071,12/01/2020 11:19:50,25,HR/EN/1574,11/30/2020 16:42:43,,NULL,in,NULL,NULL,0,15,NULL,NULL,,0,-1,NULL,NULL,NULL,NULL,12/01/2020 11:19:50,NULL,NULL,0,0
37070,12/01/2020 11:19:50,25,HR/EN/1574,11/30/2020 16:42:41,,NULL,in,NULL,NULL,0,15,NULL,NULL,,0,-1,NULL,NULL,NULL,NULL,12/01/2020 11:19:50,NULL,NULL,0,0
82470,12/01/2020 12:30:17,19,HR/EN/1737,11/30/2020 16:42:12,,NULL,in,NULL,NULL,0,15,NULL,NULL,,0,-1,NULL,NULL,NULL,NULL,12/01/2020 12:30:17,NULL,NULL,0,0
29477,12/01/2020 11:05:54,21,HR/EN/1480,11/30/2020 16:42:11,,NULL,in,NULL,NULL,0,15,NULL,NULL,,0,-1,NULL,NULL,NULL,NULL,12/01/2020 11:05:54,NULL,NULL,0,0
82469,12/01/2020 12:30:17,19,HR/EN/1737,11/30/2020 16:42:09,,NULL,in,NULL,NULL,0,15,NULL,NULL,,0,-1,NULL,NULL,NULL,NULL,12/01/2020 12:30:17,NULL,NULL,0,0
37069,12/01/2020 11:19:50,25,HR/EN/1373,11/30/2020 16:42:01,,NULL,in,NULL,NULL,0,15,NULL,NULL,,0,-1,NULL,NULL,NULL,NULL,12/01/2020 11:19:50,NULL,NULL,0,0
29476,12/01/2020 11:05:54,21,HR/EN/1480,11/30/2020 16:42:00,,NULL,in,NULL,NULL,0,15,NULL,NULL,,0,-1,NULL,NULL,NULL,NULL,12/01/2020 11:05:54,NULL,NULL,0,0
37068,12/01/2020 11:19:50,25,HR/EN/1373,11/30/2020 16:41:58,,NULL,in,NULL,NULL,0,15,NULL,NULL,,0,-1,NULL,NULL,NULL,NULL,12/01/2020 11:19:50,NULL,NULL,0,0
37067,12/01/2020 11:19:50,25,HR/EN/1253,11/30/2020 16:41:49,,NULL,in,NULL,NULL,0,15,NULL,NULL,,0,-1,NULL,NULL,NULL,NULL,12/01/2020 11:19:50,NULL,NULL,0,0
37066,12/01/2020 11:19:50,25,HR/EN/1253,11/30/2020 16:41:47,,NULL,in,NULL,NULL,0,15,NULL,NULL,,0,-1,NULL,NULL,NULL,NULL,12/01/2020 11:19:50,NULL,NULL,0,0
37065,12/01/2020 11:19:50,25,HR/EN/1253,11/30/2020 16:41:45,,NULL,in,NULL,NULL,0,15,NULL,NULL,,0,-1,NULL,NULL,NULL,NULL,12/01/2020 11:19:50,NULL,NULL,0,0
82468,12/01/2020 12:30:17,19,HR/EN/1218,11/30/2020 16:40:51,,NULL,in,NULL,NULL,0,15,NULL,NULL,,0,-1,NULL,NULL,NULL,NULL,12/01/2020 12:30:17,NULL,NULL,0,0
82467,12/01/2020 12:30:17,19,HR/EN/1218,11/30/2020 16:40:48,,NULL,in,NULL,NULL,0,15,NULL,NULL,,0,-1,NULL,NULL,NULL,NULL,12/01/2020 12:30:17,NULL,NULL,0,0
82466,12/01/2020 12:30:17,19,HR/EN/1218,11/30/2020 16:40:44,,NULL,in,NULL,NULL,0,15,NULL,NULL,,0,-1,NULL,NULL,NULL,NULL,12/01/2020 12:30:17,NULL,NULL,0,0
32414,12/01/2020 11:09:22,22,HR/EN/1493,11/30/2020 16:39:13,,NULL,in,NULL,NULL,0,15,NULL,NULL,,0,-1,NULL,NULL,NULL,NULL,12/01/2020 11:09:22,NULL,NULL,0,0
32413,12/01/2020 11:09:22,22,HR/EN/1493,11/30/2020 16:39:11,,NULL,in,NULL,NULL,0,15,NULL,NULL,,0,-1,NULL,NULL,NULL,NULL,12/01/2020 11:09:22,NULL,NULL,0,0
30674,12/01/2020 11:06:48,24,HR/EN/0323,11/30/2020 16:38:56,,NULL,in,NULL,NULL,0,15,NULL,NULL,,0,-1,NULL,NULL,NULL,NULL,12/01/2020 11:06:48,NULL,NULL,0,0
30673,12/01/2020 11:06:48,24,HR/EN/0323,11/30/2020 16:38:54,,NULL,in,NULL,NULL,0,15,NULL,NULL,,0,-1,NULL,NULL,NULL,NULL,12/01/2020 11:06:48,NULL,NULL,0,0
30672,12/01/2020 11:06:48,24,HR/EN/0323,11/30/2020 16:38:52,,NULL,in,NULL,NULL,0,15,NULL,NULL,,0,-1,NULL,NULL,NULL,NULL,12/01/2020 11:06:48,NULL,NULL,0,0
43805,12/01/2020 11:27:06,23,HR/EN/1734,11/30/2020 16:38:15,,NULL,in,NULL,NULL,0,15,NULL,NULL,,0,-1,NULL,NULL,NULL,NULL,12/01/2020 11:27:06,NULL,NULL,0,0
43804,12/01/2020 11:27:06,23,HR/EN/1734,11/30/2020 16:38:12,,NULL,in,NULL,NULL,0,15,NULL,NULL,,0,-1,NULL,NULL,NULL,NULL,12/01/2020 11:27:06,NULL,NULL,0,0
82465,12/01/2020 12:30:17,19,PUC77,11/30/2020 16:37:47,,NULL,in,NULL,NULL,0,15,NULL,NULL,,0,-1,NULL,NULL,NULL,NULL,12/01/2020 12:30:17,NULL,NULL,0,0
82464,12/01/2020 12:30:17,19,PUC77,11/30/2020 16:37:44,,NULL,in,NULL,NULL,0,15,NULL,NULL,,0,-1,NULL,NULL,NULL,NULL,12/01/2020 12:30:17,NULL,NULL,0,0
43803,12/01/2020 11:27:06,23,HR/EN/0979,11/30/2020 16:36:45,,NULL,in,NULL,NULL,0,15,NULL,NULL,,0,-1,NULL,NULL,NULL,NULL,12/01/2020 11:27:06,NULL,NULL,0,0
43802,12/01/2020 11:27:06,23,HR/EN/0979,11/30/2020 16:36:43,,NULL,in,NULL,NULL,0,15,NULL,NULL,,0,-1,NULL,NULL,NULL,NULL,12/01/2020 11:27:06,NULL,NULL,0,0
43801,12/01/2020 11:27:06,23,HR/EN/0979,11/30/2020 16:36:41,,NULL,in,NULL,NULL,0,15,NULL,NULL,,0,-1,NULL,NULL,NULL,NULL,12/01/2020 11:27:06,NULL,NULL,0,0
43800,12/01/2020 11:27:06,23,HR/EN/0979,11/30/2020 16:36:36,,NULL,in,NULL,NULL,0,15,NULL,NULL,,0,-1,NULL,NULL,NULL,NULL,12/01/2020 11:27:06,NULL,NULL,0,0
43799,12/01/2020 11:27:06,23,HR/EN/0979,11/30/2020 16:36:34,,NULL,in,NULL,NULL,0,15,NULL,NULL,,0,-1,NULL,NULL,NULL,NULL,12/01/2020 11:27:06,NULL,NULL,0,0
43798,12/01/2020 11:27:06,23,HR/EN/0979,11/30/2020 16:36:32,,NULL,in,NULL,NULL,0,15,NULL,NULL,,0,-1,NULL,NULL,NULL,NULL,12/01/2020 11:27:06,NULL,NULL,0,0
43797,12/01/2020 11:27:06,23,HR/EN/0979,11/30/2020 16:36:30,,NULL,in,NULL,NULL,0,15,NULL,NULL,,0,-1,NULL,NULL,NULL,NULL,12/01/2020 11:27:06,NULL,NULL,0,0
43796,12/01/2020 11:27:06,23,HR/EN/0979,11/30/2020 16:36:27,,NULL,in,NULL,NULL,0,15,NULL,NULL,,0,-1,NULL,NULL,NULL,NULL,12/01/2020 11:27:06,NULL,NULL,0,0
43795,12/01/2020 11:27:06,23,HR/EN/0979,11/30/2020 16:36:25,,NULL,in,NULL,NULL,0,15,NULL,NULL,,0,-1,NULL,NULL,NULL,NULL,12/01/2020 11:27:06,NULL,NULL,0,0
30671,12/01/2020 11:06:48,24,HR/EN/1731,11/30/2020 16:34:06,,NULL,in,NULL,NULL,0,15,NULL,NULL,,0,-1,NULL,NULL,NULL,NULL,12/01/2020 11:06:48,NULL,NULL,0,0
30670,12/01/2020 11:06:48,24,HR/EN/1731,11/30/2020 16:34:04,,NULL,in,NULL,NULL,0,15,NULL,NULL,,0,-1,NULL,NULL,NULL,NULL,12/01/2020 11:06:48,NULL,NULL,0,0
32412,12/01/2020 11:09:22,22,HR/EN/1493,11/30/2020 16:33:51,,NULL,in,NULL,NULL,0,15,NULL,NULL,,0,-1,NULL,NULL,NULL,NULL,12/01/2020 11:09:22,NULL,NULL,0,0
32411,12/01/2020 11:09:22,22,HR/EN/1493,11/30/2020 16:33:48,,NULL,in,NULL,NULL,0,15,NULL,NULL,,0,-1,NULL,NULL,NULL,NULL,12/01/2020 11:09:22,NULL,NULL,0,0
32410,12/01/2020 11:09:22,22,HR/EN/1493,11/30/2020 16:33:46,,NULL,in,NULL,NULL,0,15,NULL,NULL,,0,-1,NULL,NULL,NULL,NULL,12/01/2020 11:09:22,NULL,NULL,0,0
32409,12/01/2020 11:09:22,22,HR/EN/1493,11/30/2020 16:33:44,,NULL,in,NULL,NULL,0,15,NULL,NULL,,0,-1,NULL,NULL,NULL,NULL,12/01/2020 11:09:22,NULL,NULL,0,0
82463,12/01/2020 12:30:17,19,PUC69,11/30/2020 16:33:02,,NULL,in,NULL,NULL,0,15,NULL,NULL,,0,-1,NULL,NULL,NULL,NULL,12/01/2020 12:30:17,NULL,NULL,0,0
82462,12/01/2020 12:30:17,19,PUC69,11/30/2020 16:32:58,,NULL,in,NULL,NULL,0,15,NULL,NULL,,0,-1,NULL,NULL,NULL,NULL,12/01/2020 12:30:17,NULL,NULL,0,0
30669,12/01/2020 11:06:48,24,HR/EN/1731,11/30/2020 16:32:49,,NULL,in,NULL,NULL,0,15,NULL,NULL,,0,-1,NULL,NULL,NULL,NULL,12/01/2020 11:06:48,NULL,NULL,0,0
30668,12/01/2020 11:06:48,24,HR/EN/1731,11/30/2020 16:32:47,,NULL,in,NULL,NULL,0,15,NULL,NULL,,0,-1,NULL,NULL,NULL,NULL,12/01/2020 11:06:48,NULL,NULL,0,0
82461,12/01/2020 12:30:17,19,HR/EN/0029,11/30/2020 16:32:23,,NULL,in,NULL,NULL,0,15,NULL,NULL,,0,-1,NULL,NULL,NULL,NULL,12/01/2020 12:30:17,NULL,NULL,0,0
82460,12/01/2020 12:30:17,19,HR/EN/0029,11/30/2020 16:32:20,,NULL,in,NULL,NULL,0,15,NULL,NULL,,0,-1,NULL,NULL,NULL,NULL,12/01/2020 12:30:17,NULL,NULL,0,0
32408,12/01/2020 11:09:22,22,HR/EN/1014,11/30/2020 16:32:15,,NULL,in,NULL,NULL,0,15,NULL,NULL,,0,-1,NULL,NULL,NULL,NULL,12/01/2020 11:09:22,NULL,NULL,0,0
32407,12/01/2020 11:09:22,22,HR/EN/1014,11/30/2020 16:32:13,,NULL,in,NULL,NULL,0,15,NULL,NULL,,0,-1,NULL,NULL,NULL,NULL,12/01/2020 11:09:22,NULL,NULL,0,0
32406,12/01/2020 11:09:22,22,HR/EN/1014,11/30/2020 16:32:11,,NULL,in,NULL,NULL,0,15,NULL,NULL,,0,-1,NULL,NULL,NULL,NULL,12/01/2020 11:09:22,NULL,NULL,0,0
32405,12/01/2020 11:09:22,22,HR/EN/1014,11/30/2020 16:32:09,,NULL,in,NULL,NULL,0,15,NULL,NULL,,0,-1,NULL,NULL,NULL,NULL,12/01/2020 11:09:22,NULL,NULL,0,0
32404,12/01/2020 11:09:22,22,HR/EN/1014,11/30/2020 16:32:07,,NULL,in,NULL,NULL,0,15,NULL,NULL,,0,-1,NULL,NULL,NULL,NULL,12/01/2020 11:09:22,NULL,NULL,0,0
31538,12/01/2020 11:07:41,36,HR/EN/1596,11/30/2020 16:30:49,,NULL,in,NULL,NULL,0,15,NULL,NULL,,0,-1,NULL,NULL,NULL,NULL,12/01/2020 11:07:41,NULL,NULL,0,0
43794,12/01/2020 11:27:06,23,HR/EN/1673,11/30/2020 16:30:28,,NULL,in,NULL,NULL,0,15,NULL,NULL,,0,-1,NULL,NULL,NULL,NULL,12/01/2020 11:27:06,NULL,NULL,0,0
43793,12/01/2020 11:27:06,23,HR/EN/1673,11/30/2020 16:30:18,,NULL,in,NULL,NULL,0,15,NULL,NULL,,0,-1,NULL,NULL,NULL,NULL,12/01/2020 11:27:06,NULL,NULL,0,0
30582,12/01/2020 11:06:44,24,HR/EN/1510,11/30/2020 16:30:00,,NULL,in,NULL,NULL,0,15,NULL,NULL,,0,-1,NULL,NULL,NULL,NULL,12/01/2020 11:06:44,NULL,NULL,0,0
30581,12/01/2020 11:06:44,24,HR/EN/1510,11/30/2020 16:29:58,,NULL,in,NULL,NULL,0,15,NULL,NULL,,0,-1,NULL,NULL,NULL,NULL,12/01/2020 11:06:44,NULL,NULL,0,0
30580,12/01/2020 11:06:44,24,HR/EN/1510,11/30/2020 16:29:56,,NULL,in,NULL,NULL,0,15,NULL,NULL,,0,-1,NULL,NULL,NULL,NULL,12/01/2020 11:06:44,NULL,NULL,0,0
30579,12/01/2020 11:06:44,24,HR/EN/1500,11/30/2020 16:29:29,,NULL,in,NULL,NULL,0,15,NULL,NULL,,0,-1,NULL,NULL,NULL,NULL,12/01/2020 11:06:44,NULL,NULL,0,0
30578,12/01/2020 11:06:44,24,HR/EN/1500,11/30/2020 16:29:27,,NULL,in,NULL,NULL,0,15,NULL,NULL,,0,-1,NULL,NULL,NULL,NULL,12/01/2020 11:06:44,NULL,NULL,0,0
30577,12/01/2020 11:06:44,24,HR/EN/1500,11/30/2020 16:29:26,,NULL,in,NULL,NULL,0,15,NULL,NULL,,0,-1,NULL,NULL,NULL,NULL,12/01/2020 11:06:44,NULL,NULL,0,0
30576,12/01/2020 11:06:44,24,HR/EN/1500,11/30/2020 16:29:24,,NULL,in,NULL,NULL,0,15,NULL,NULL,,0,-1,NULL,NULL,NULL,NULL,12/01/2020 11:06:44,NULL,NULL,0,0
30575,12/01/2020 11:06:44,24,HR/EN/1500,11/30/2020 16:29:22,,NULL,in,NULL,NULL,0,15,NULL,NULL,,0,-1,NULL,NULL,NULL,NULL,12/01/2020 11:06:44,NULL,NULL,0,0
82459,12/01/2020 12:30:17,19,PUC63,11/30/2020 16:29:19,,NULL,in,NULL,NULL,0,15,NULL,NULL,,0,-1,NULL,NULL,NULL,NULL,12/01/2020 12:30:17,NULL,NULL,0,0
82458,12/01/2020 12:30:17,19,PUC63,11/30/2020 16:29:15,,NULL,in,NULL,NULL,0,15,NULL,NULL,,0,-1,NULL,NULL,NULL,NULL,12/01/2020 12:30:17,NULL,NULL,0,0
82457,12/01/2020 12:30:17,19,PUC85,11/30/2020 16:29:04,,NULL,in,NULL,NULL,0,15,NULL,NULL,,0,-1,NULL,NULL,NULL,NULL,12/01/2020 12:30:17,NULL,NULL,0,0
82456,12/01/2020 12:30:17,19,PUC85,11/30/2020 16:28:57,,NULL,in,NULL,NULL,0,15,NULL,NULL,,0,-1,NULL,NULL,NULL,NULL,12/01/2020 12:30:17,NULL,NULL,0,0
82455,12/01/2020 12:30:17,19,HR/EN/1060,11/30/2020 16:28:43,,NULL,in,NULL,NULL,0,15,NULL,NULL,,0,-1,NULL,NULL,NULL,NULL,12/01/2020 12:30:17,NULL,NULL,0,0
82454,12/01/2020 12:30:17,19,HR/EN/1060,11/30/2020 16:28:40,,NULL,in,NULL,NULL,0,15,NULL,NULL,,0,-1,NULL,NULL,NULL,NULL,12/01/2020 12:30:17,NULL,NULL,0,0
29475,12/01/2020 11:05:54,21,HR/EN/0977,11/30/2020 16:27:05,,NULL,in,NULL,NULL,0,15,NULL,NULL,,0,-1,NULL,NULL,NULL,NULL,12/01/2020 11:05:54,NULL,NULL,0,0
29474,12/01/2020 11:05:54,21,HR/EN/0977,11/30/2020 16:27:03,,NULL,in,NULL,NULL,0,15,NULL,NULL,,0,-1,NULL,NULL,NULL,NULL,12/01/2020 11:05:54,NULL,NULL,0,0
29431,12/01/2020 11:05:51,21,HR/EN/0977,11/30/2020 16:27:01,,NULL,in,NULL,NULL,0,15,NULL,NULL,,0,-1,NULL,NULL,NULL,NULL,12/01/2020 11:05:51,NULL,NULL,0,0
29430,12/01/2020 11:05:51,21,HR/EN/0977,11/30/2020 16:26:59,,NULL,in,NULL,NULL,0,15,NULL,NULL,,0,-1,NULL,NULL,NULL,NULL,12/01/2020 11:05:51,NULL,NULL,0,0
29429,12/01/2020 11:05:51,21,HR/EN/0977,11/30/2020 16:26:57,,NULL,in,NULL,NULL,0,15,NULL,NULL,,0,-1,NULL,NULL,NULL,NULL,12/01/2020 11:05:51,NULL,NULL,0,0
29428,12/01/2020 11:05:51,21,HR/EN/0977,11/30/2020 16:26:55,,NULL,in,NULL,NULL,0,15,NULL,NULL,,0,-1,NULL,NULL,NULL,NULL,12/01/2020 11:05:51,NULL,NULL,0,0
31537,12/01/2020 11:07:41,36,HR/EN/1147,11/30/2020 16:26:54,,NULL,in,NULL,NULL,0,15,NULL,NULL,,0,-1,NULL,NULL,NULL,NULL,12/01/2020 11:07:41,NULL,NULL,0,0
29427,12/01/2020 11:05:51,21,HR/EN/0977,11/30/2020 16:26:53,,NULL,in,NULL,NULL,0,15,NULL,NULL,,0,-1,NULL,NULL,NULL,NULL,12/01/2020 11:05:51,NULL,NULL,0,0
31536,12/01/2020 11:07:41,36,HR/EN/1147,11/30/2020 16:26:52,,NULL,in,NULL,NULL,0,15,NULL,NULL,,0,-1,NULL,NULL,NULL,NULL,12/01/2020 11:07:41,NULL,NULL,0,0
31535,12/01/2020 11:07:41,36,HR/EN/1147,11/30/2020 16:26:50,,NULL,in,NULL,NULL,0,15,NULL,NULL,,0,-1,NULL,NULL,NULL,NULL,12/01/2020 11:07:41,NULL,NULL,0,0
31534,12/01/2020 11:07:41,36,HR/EN/1755,11/30/2020 16:26:29,,NULL,in,NULL,NULL,0,15,NULL,NULL,,0,-1,NULL,NULL,NULL,NULL,12/01/2020 11:07:41,NULL,NULL,0,0
31533,12/01/2020 11:07:41,36,HR/EN/1755,11/30/2020 16:26:27,,NULL,in,NULL,NULL,0,15,NULL,NULL,,0,-1,NULL,NULL,NULL,NULL,12/01/2020 11:07:41,NULL,NULL,0,0
82453,12/01/2020 12:30:17,19,HR/EN/1587,11/30/2020 16:26:02,,NULL,in,NULL,NULL,0,15,NULL,NULL,,0,-1,NULL,NULL,NULL,NULL,12/01/2020 12:30:17,NULL,NULL,0,0
82452,12/01/2020 12:30:17,19,HR/EN/1587,11/30/2020 16:25:56,,NULL,in,NULL,NULL,0,15,NULL,NULL,,0,-1,NULL,NULL,NULL,NULL,12/01/2020 12:30:17,NULL,NULL,0,0
29426,12/01/2020 11:05:51,21,HR/EN/0977,11/30/2020 16:25:51,,NULL,in,NULL,NULL,0,15,NULL,NULL,,0,-1,NULL,NULL,NULL,NULL,12/01/2020 11:05:51,NULL,NULL,0,0
29425,12/01/2020 11:05:51,21,HR/EN/0977,11/30/2020 16:25:49,,NULL,in,NULL,NULL,0,15,NULL,NULL,,0,-1,NULL,NULL,NULL,NULL,12/01/2020 11:05:51,NULL,NULL,0,0
29424,12/01/2020 11:05:51,21,HR/EN/0977,11/30/2020 16:25:47,,NULL,in,NULL,NULL,0,15,NULL,NULL,,0,-1,NULL,NULL,NULL,NULL,12/01/2020 11:05:51,NULL,NULL,0,0
31532,12/01/2020 11:07:41,36,HR/EN/1115,11/30/2020 16:25:44,,NULL,in,NULL,NULL,0,15,NULL,NULL,,0,-1,NULL,NULL,NULL,NULL,12/01/2020 11:07:41,NULL,NULL,0,0
31531,12/01/2020 11:07:41,36,HR/EN/1115,11/30/2020 16:25:42,,NULL,in,NULL,NULL,0,15,NULL,NULL,,0,-1,NULL,NULL,NULL,NULL,12/01/2020 11:07:41,NULL,NULL,0,0
31530,12/01/2020 11:07:41,36,HR/EN/1115,11/30/2020 16:25:40,,NULL,in,NULL,NULL,0,15,NULL,NULL,,0,-1,NULL,NULL,NULL,NULL,12/01/2020 11:07:41,NULL,NULL,0,0
32403,12/01/2020 11:09:22,22,HR/EN/1624,11/30/2020 16:25:04,,NULL,in,NULL,NULL,0,15,NULL,NULL,,0,-1,NULL,NULL,NULL,NULL,12/01/2020 11:09:22,NULL,NULL,0,0
31529,12/01/2020 11:07:41,36,HR/EN/1712,11/30/2020 16:23:48,,NULL,in,NULL,NULL,0,15,NULL,NULL,,0,-1,NULL,NULL,NULL,NULL,12/01/2020 11:07:41,NULL,NULL,0,0
31528,12/01/2020 11:07:41,36,HR/EN/1712,11/30/2020 16:23:43,,NULL,in,NULL,NULL,0,15,NULL,NULL,,0,-1,NULL,NULL,NULL,NULL,12/01/2020 11:07:41,NULL,NULL,0,0
31527,12/01/2020 11:07:41,36,HR/EN/1712,11/30/2020 16:23:39,,NULL,in,NULL,NULL,0,15,NULL,NULL,,0,-1,NULL,NULL,NULL,NULL,12/01/2020 11:07:41,NULL,NULL,0,0
31526,12/01/2020 11:07:41,36,HR/EN/1712,11/30/2020 16:23:38,,NULL,in,NULL,NULL,0,15,NULL,NULL,,0,-1,NULL,NULL,NULL,NULL,12/01/2020 11:07:41,NULL,NULL,0,0
32402,12/01/2020 11:09:21,22,HR/EN/1624,11/30/2020 16:22:51,,NULL,in,NULL,NULL,0,15,NULL,NULL,,0,-1,NULL,NULL,NULL,NULL,12/01/2020 11:09:22,NULL,NULL,0,0
32401,12/01/2020 11:09:21,22,HR/EN/1624,11/30/2020 16:22:50,,NULL,in,NULL,NULL,0,15,NULL,NULL,,0,-1,NULL,NULL,NULL,NULL,12/01/2020 11:09:21,NULL,NULL,0,0
32400,12/01/2020 11:09:18,22,HR/EN/1624,11/30/2020 16:22:48,,NULL,in,NULL,NULL,0,15,NULL,NULL,,0,-1,NULL,NULL,NULL,NULL,12/01/2020 11:09:18,NULL,NULL,0,0
32399,12/01/2020 11:09:18,22,HR/EN/1698,11/30/2020 16:22:34,,NULL,in,NULL,NULL,0,15,NULL,NULL,,0,-1,NULL,NULL,NULL,NULL,12/01/2020 11:09:18,NULL,NULL,0,0
32398,12/01/2020 11:09:18,22,HR/EN/1698,11/30/2020 16:22:32,,NULL,in,NULL,NULL,0,15,NULL,NULL,,0,-1,NULL,NULL,NULL,NULL,12/01/2020 11:09:18,NULL,NULL,0,0
82451,12/01/2020 12:30:17,19,HR/EN/1204,11/30/2020 16:22:32,,NULL,in,NULL,NULL,0,15,NULL,NULL,,0,-1,NULL,NULL,NULL,NULL,12/01/2020 12:30:17,NULL,NULL,0,0
32397,12/01/2020 11:09:18,22,HR/EN/1698,11/30/2020 16:22:31,,NULL,in,NULL,NULL,0,15,NULL,NULL,,0,-1,NULL,NULL,NULL,NULL,12/01/2020 11:09:18,NULL,NULL,0,0
82450,12/01/2020 12:30:17,19,HR/EN/1204,11/30/2020 16:22:30,,NULL,in,NULL,NULL,0,15,NULL,NULL,,0,-1,NULL,NULL,NULL,NULL,12/01/2020 12:30:17,NULL,NULL,0,0
32396,12/01/2020 11:09:18,22,HR/EN/1698,11/30/2020 16:22:23,,NULL,in,NULL,NULL,0,15,NULL,NULL,,0,-1,NULL,NULL,NULL,NULL,12/01/2020 11:09:18,NULL,NULL,0,0
32395,12/01/2020 11:09:18,22,HR/EN/1698,11/30/2020 16:22:22,,NULL,in,NULL,NULL,0,15,NULL,NULL,,0,-1,NULL,NULL,NULL,NULL,12/01/2020 11:09:18,NULL,NULL,0,0
32394,12/01/2020 11:09:18,22,HR/EN/1216,11/30/2020 16:21:51,,NULL,in,NULL,NULL,0,15,NULL,NULL,,0,-1,NULL,NULL,NULL,NULL,12/01/2020 11:09:18,NULL,NULL,0,0
32393,12/01/2020 11:09:18,22,HR/EN/1216,11/30/2020 16:21:49,,NULL,in,NULL,NULL,0,15,NULL,NULL,,0,-1,NULL,NULL,NULL,NULL,12/01/2020 11:09:18,NULL,NULL,0,0
37064,12/01/2020 11:19:50,25,HR/EN/1732,11/30/2020 16:20:41,,NULL,in,NULL,NULL,0,15,NULL,NULL,,0,-1,NULL,NULL,NULL,NULL,12/01/2020 11:19:50,NULL,NULL,0,0
30574,12/01/2020 11:06:44,24,HR/EN/0321,11/30/2020 16:20:38,,NULL,in,NULL,NULL,0,15,NULL,NULL,,0,-1,NULL,NULL,NULL,NULL,12/01/2020 11:06:44,NULL,NULL,0,0
37063,12/01/2020 11:19:50,25,HR/EN/1732,11/30/2020 16:20:37,,NULL,in,NULL,NULL,0,15,NULL,NULL,,0,-1,NULL,NULL,NULL,NULL,12/01/2020 11:19:50,NULL,NULL,0,0
30573,12/01/2020 11:06:44,24,HR/EN/0321,11/30/2020 16:20:36,,NULL,in,NULL,NULL,0,15,NULL,NULL,,0,-1,NULL,NULL,NULL,NULL,12/01/2020 11:06:44,NULL,NULL,0,0
37062,12/01/2020 11:19:50,25,HR/EN/1732,11/30/2020 16:20:31,,NULL,in,NULL,NULL,0,15,NULL,NULL,,0,-1,NULL,NULL,NULL,NULL,12/01/2020 11:19:50,NULL,NULL,0,0
37061,12/01/2020 11:19:50,25,HR/EN/1578,11/30/2020 16:19:53,,NULL,in,NULL,NULL,0,15,NULL,NULL,,0,-1,NULL,NULL,NULL,NULL,12/01/2020 11:19:50,NULL,NULL,0,0
37060,12/01/2020 11:19:50,25,HR/EN/1578,11/30/2020 16:19:51,,NULL,in,NULL,NULL,0,15,NULL,NULL,,0,-1,NULL,NULL,NULL,NULL,12/01/2020 11:19:50,NULL,NULL,0,0
37059,12/01/2020 11:19:50,25,HR/EN/1578,11/30/2020 16:19:49,,NULL,in,NULL,NULL,0,15,NULL,NULL,,0,-1,NULL,NULL,NULL,NULL,12/01/2020 11:19:50,NULL,NULL,0,0
31525,12/01/2020 11:07:41,36,HR/EN/1736,11/30/2020 16:19:30,,NULL,in,NULL,NULL,0,15,NULL,NULL,,0,-1,NULL,NULL,NULL,NULL,12/01/2020 11:07:41,NULL,NULL,0,0
31524,12/01/2020 11:07:41,36,HR/EN/1736,11/30/2020 16:19:28,,NULL,in,NULL,NULL,0,15,NULL,NULL,,0,-1,NULL,NULL,NULL,NULL,12/01/2020 11:07:41,NULL,NULL,0,0
31523,12/01/2020 11:07:41,36,HR/EN/1736,11/30/2020 16:19:26,,NULL,in,NULL,NULL,0,15,NULL,NULL,,0,-1,NULL,NULL,NULL,NULL,12/01/2020 11:07:41,NULL,NULL,0,0
31522,12/01/2020 11:07:41,36,HR/EN/1736,11/30/2020 16:19:24,,NULL,in,NULL,NULL,0,15,NULL,NULL,,0,-1,NULL,NULL,NULL,NULL,12/01/2020 11:07:41,NULL,NULL,0,0
31521,12/01/2020 11:07:41,36,HR/EN/1740,11/30/2020 16:17:42,,NULL,in,NULL,NULL,0,15,NULL,NULL,,0,-1,NULL,NULL,NULL,NULL,12/01/2020 11:07:41,NULL,NULL,0,0
31520,12/01/2020 11:07:41,36,HR/EN/1740,11/30/2020 16:17:40,,NULL,in,NULL,NULL,0,15,NULL,NULL,,0,-1,NULL,NULL,NULL,NULL,12/01/2020 11:07:41,NULL,NULL,0,0
31519,12/01/2020 11:07:41,36,HR/EN/1740,11/30/2020 16:17:38,,NULL,in,NULL,NULL,0,15,NULL,NULL,,0,-1,NULL,NULL,NULL,NULL,12/01/2020 11:07:41,NULL,NULL,0,0
31518,12/01/2020 11:07:41,36,HR/EN/1740,11/30/2020 16:17:36,,NULL,in,NULL,NULL,0,15,NULL,NULL,,0,-1,NULL,NULL,NULL,NULL,12/01/2020 11:07:41,NULL,NULL,0,0
31517,12/01/2020 11:07:41,36,HR/EN/1740,11/30/2020 16:17:35,,NULL,in,NULL,NULL,0,15,NULL,NULL,,0,-1,NULL,NULL,NULL,NULL,12/01/2020 11:07:41,NULL,NULL,0,0
82449,12/01/2020 12:30:17,19,HR/EN/1592,11/30/2020 16:17:31,,NULL,in,NULL,NULL,0,15,NULL,NULL,,0,-1,NULL,NULL,NULL,NULL,12/01/2020 12:30:17,NULL,NULL,0,0
82448,12/01/2020 12:30:17,19,HR/EN/1592,11/30/2020 16:17:27,,NULL,in,NULL,NULL,0,15,NULL,NULL,,0,-1,NULL,NULL,NULL,NULL,12/01/2020 12:30:17,NULL,NULL,0,0
43792,12/01/2020 11:27:06,23,HR/EN/1718,11/30/2020 16:16:50,,NULL,in,NULL,NULL,0,15,NULL,NULL,,0,-1,NULL,NULL,NULL,NULL,12/01/2020 11:27:06,NULL,NULL,0,0
43791,12/01/2020 11:26:58,23,HR/EN/1718,11/30/2020 16:16:48,,NULL,in,NULL,NULL,0,15,NULL,NULL,,0,-1,NULL,NULL,NULL,NULL,12/01/2020 11:26:58,NULL,NULL,0,0
43790,12/01/2020 11:26:58,23,HR/EN/1718,11/30/2020 16:16:46,,NULL,in,NULL,NULL,0,15,NULL,NULL,,0,-1,NULL,NULL,NULL,NULL,12/01/2020 11:26:58,NULL,NULL,0,0
32392,12/01/2020 11:09:18,22,HR/EN/0280,11/30/2020 16:16:38,,NULL,in,NULL,NULL,0,15,NULL,NULL,,0,-1,NULL,NULL,NULL,NULL,12/01/2020 11:09:18,NULL,NULL,0,0
32391,12/01/2020 11:09:18,22,HR/EN/0280,11/30/2020 16:16:37,,NULL,in,NULL,NULL,0,15,NULL,NULL,,0,-1,NULL,NULL,NULL,NULL,12/01/2020 11:09:18,NULL,NULL,0,0
32390,12/01/2020 11:09:18,22,HR/EN/0280,11/30/2020 16:16:35,,NULL,in,NULL,NULL,0,15,NULL,NULL,,0,-1,NULL,NULL,NULL,NULL,12/01/2020 11:09:18,NULL,NULL,0,0
32389,12/01/2020 11:09:18,22,HR/EN/1601,11/30/2020 16:16:27,,NULL,in,NULL,NULL,0,15,NULL,NULL,,0,-1,NULL,NULL,NULL,NULL,12/01/2020 11:09:18,NULL,NULL,0,0
32388,12/01/2020 11:09:18,22,HR/EN/1601,11/30/2020 16:16:25,,NULL,in,NULL,NULL,0,15,NULL,NULL,,0,-1,NULL,NULL,NULL,NULL,12/01/2020 11:09:18,NULL,NULL,0,0
21962,12/01/2020 10:53:35,38,HR/EN/1691,11/30/2020 16:15:36,,NULL,in,NULL,NULL,0,15,NULL,NULL,,0,-1,NULL,NULL,NULL,NULL,12/01/2020 10:53:35,NULL,NULL,0,0
21961,12/01/2020 10:53:35,38,HR/EN/1691,11/30/2020 16:15:34,,NULL,in,NULL,NULL,0,15,NULL,NULL,,0,-1,NULL,NULL,NULL,NULL,12/01/2020 10:53:35,NULL,NULL,0,0
21960,12/01/2020 10:53:35,38,HR/EN/1691,11/30/2020 16:15:32,,NULL,in,NULL,NULL,0,15,NULL,NULL,,0,-1,NULL,NULL,NULL,NULL,12/01/2020 10:53:35,NULL,NULL,0,0
31516,12/01/2020 11:07:41,36,HR/EN/1720,11/30/2020 16:15:24,,NULL,in,NULL,NULL,0,15,NULL,NULL,,0,-1,NULL,NULL,NULL,NULL,12/01/2020 11:07:41,NULL,NULL,0,0
31515,12/01/2020 11:07:41,36,HR/EN/1720,11/30/2020 16:15:22,,NULL,in,NULL,NULL,0,15,NULL,NULL,,0,-1,NULL,NULL,NULL,NULL,12/01/2020 11:07:41,NULL,NULL,0,0
31514,12/01/2020 11:07:41,36,HR/EN/1720,11/30/2020 16:15:21,,NULL,in,NULL,NULL,0,15,NULL,NULL,,0,-1,NULL,NULL,NULL,NULL,12/01/2020 11:07:41,NULL,NULL,0,0
31471,12/01/2020 11:07:37,36,HR/EN/1720,11/30/2020 16:15:19,,NULL,in,NULL,NULL,0,15,NULL,NULL,,0,-1,NULL,NULL,NULL,NULL,12/01/2020 11:07:37,NULL,NULL,0,0
31470,12/01/2020 11:07:37,36,HR/EN/1720,11/30/2020 16:15:16,,NULL,in,NULL,NULL,0,15,NULL,NULL,,0,-1,NULL,NULL,NULL,NULL,12/01/2020 11:07:37,NULL,NULL,0,0
82447,12/01/2020 12:30:17,19,HR/EN/0791,11/30/2020 16:15:10,,NULL,in,NULL,NULL,0,15,NULL,NULL,,0,-1,NULL,NULL,NULL,NULL,12/01/2020 12:30:17,NULL,NULL,0,0
30572,12/01/2020 11:06:44,24,HR/EN/1058,11/30/2020 16:15:09,,NULL,in,NULL,NULL,0,15,NULL,NULL,,0,-1,NULL,NULL,NULL,NULL,12/01/2020 11:06:44,NULL,NULL,0,0
82446,12/01/2020 12:30:17,19,HR/EN/0791,11/30/2020 16:15:07,,NULL,in,NULL,NULL,0,15,NULL,NULL,,0,-1,NULL,NULL,NULL,NULL,12/01/2020 12:30:17,NULL,NULL,0,0
30571,12/01/2020 11:06:44,24,HR/EN/1058,11/30/2020 16:15:01,,NULL,in,NULL,NULL,0,15,NULL,NULL,,0,-1,NULL,NULL,NULL,NULL,12/01/2020 11:06:44,NULL,NULL,0,0
82445,12/01/2020 12:30:17,19,HR/EN/0534,11/30/2020 16:15:01,,NULL,in,NULL,NULL,0,15,NULL,NULL,,0,-1,NULL,NULL,NULL,NULL,12/01/2020 12:30:17,NULL,NULL,0,0
30570,12/01/2020 11:06:44,24,HR/EN/1058,11/30/2020 16:14:59,,NULL,in,NULL,NULL,0,15,NULL,NULL,,0,-1,NULL,NULL,NULL,NULL,12/01/2020 11:06:44,NULL,NULL,0,0
82444,12/01/2020 12:30:17,19,HR/EN/0534,11/30/2020 16:14:58,,NULL,in,NULL,NULL,0,15,NULL,NULL,,0,-1,NULL,NULL,NULL,NULL,12/01/2020 12:30:17,NULL,NULL,0,0
30569,12/01/2020 11:06:44,24,HR/EN/1058,11/30/2020 16:14:52,,NULL,in,NULL,NULL,0,15,NULL,NULL,,0,-1,NULL,NULL,NULL,NULL,12/01/2020 11:06:44,NULL,NULL,0,0
30568,12/01/2020 11:06:44,24,HR/EN/1058,11/30/2020 16:14:48,,NULL,in,NULL,NULL,0,15,NULL,NULL,,0,-1,NULL,NULL,NULL,NULL,12/01/2020 11:06:44,NULL,NULL,0,0
37058,12/01/2020 11:19:50,25,HR/EN/1597,11/30/2020 16:14:45,,NULL,in,NULL,NULL,0,15,NULL,NULL,,0,-1,NULL,NULL,NULL,NULL,12/01/2020 11:19:50,NULL,NULL,0,0
37057,12/01/2020 11:19:50,25,HR/EN/1597,11/30/2020 16:14:43,,NULL,in,NULL,NULL,0,15,NULL,NULL,,0,-1,NULL,NULL,NULL,NULL,12/01/2020 11:19:50,NULL,NULL,0,0
37056,12/01/2020 11:19:50,25,HR/EN/1597,11/30/2020 16:14:41,,NULL,in,NULL,NULL,0,15,NULL,NULL,,0,-1,NULL,NULL,NULL,NULL,12/01/2020 11:19:50,NULL,NULL,0,0
37055,12/01/2020 11:19:50,25,HR/EN/1597,11/30/2020 16:14:39,,NULL,in,NULL,NULL,0,15,NULL,NULL,,0,-1,NULL,NULL,NULL,NULL,12/01/2020 11:19:50,NULL,NULL,0,0
30567,12/01/2020 11:06:44,24,HR/EN/1520,11/30/2020 16:14:14,,NULL,in,NULL,NULL,0,15,NULL,NULL,,0,-1,NULL,NULL,NULL,NULL,12/01/2020 11:06:44,NULL,NULL,0,0
30566,12/01/2020 11:06:44,24,HR/EN/1520,11/30/2020 16:14:12,,NULL,in,NULL,NULL,0,15,NULL,NULL,,0,-1,NULL,NULL,NULL,NULL,12/01/2020 11:06:44,NULL,NULL,0,0
30565,12/01/2020 11:06:44,24,HR/EN/1520,11/30/2020 16:14:10,,NULL,in,NULL,NULL,0,15,NULL,NULL,,0,-1,NULL,NULL,NULL,NULL,12/01/2020 11:06:44,NULL,NULL,0,0
82443,12/01/2020 12:30:17,19,HR/EN/1708,11/30/2020 16:13:43,,NULL,in,NULL,NULL,0,15,NULL,NULL,,0,-1,NULL,NULL,NULL,NULL,12/01/2020 12:30:17,NULL,NULL,0,0
82442,12/01/2020 12:30:17,19,HR/EN/1708,11/30/2020 16:13:40,,NULL,in,NULL,NULL,0,15,NULL,NULL,,0,-1,NULL,NULL,NULL,NULL,12/01/2020 12:30:17,NULL,NULL,0,0
82441,12/01/2020 12:30:17,19,HR/EN/1215,11/30/2020 16:13:27,,NULL,in,NULL,NULL,0,15,NULL,NULL,,0,-1,NULL,NULL,NULL,NULL,12/01/2020 12:30:17,NULL,NULL,0,0
82440,12/01/2020 12:30:17,19,HR/EN/1215,11/30/2020 16:13:23,,NULL,in,NULL,NULL,0,15,NULL,NULL,,0,-1,NULL,NULL,NULL,NULL,12/01/2020 12:30:17,NULL,NULL,0,0
30564,12/01/2020 11:06:44,24,HR/EN/1514,11/30/2020 16:13:20,,NULL,in,NULL,NULL,0,15,NULL,NULL,,0,-1,NULL,NULL,NULL,NULL,12/01/2020 11:06:44,NULL,NULL,0,0
30563,12/01/2020 11:06:44,24,HR/EN/1514,11/30/2020 16:13:18,,NULL,in,NULL,NULL,0,15,NULL,NULL,,0,-1,NULL,NULL,NULL,NULL,12/01/2020 11:06:44,NULL,NULL,0,0
43789,12/01/2020 11:26:58,23,HR/EN/0962,11/30/2020 16:12:57,,NULL,in,NULL,NULL,0,15,NULL,NULL,,0,-1,NULL,NULL,NULL,NULL,12/01/2020 11:26:58,NULL,NULL,0,0
43788,12/01/2020 11:26:58,23,HR/EN/0962,11/30/2020 16:12:55,,NULL,in,NULL,NULL,0,15,NULL,NULL,,0,-1,NULL,NULL,NULL,NULL,12/01/2020 11:26:58,NULL,NULL,0,0
43787,12/01/2020 11:26:58,23,HR/EN/0962,11/30/2020 16:12:50,,NULL,in,NULL,NULL,0,15,NULL,NULL,,0,-1,NULL,NULL,NULL,NULL,12/01/2020 11:26:58,NULL,NULL,0,0
43786,12/01/2020 11:26:58,23,HR/EN/0962,11/30/2020 16:12:47,,NULL,in,NULL,NULL,0,15,NULL,NULL,,0,-1,NULL,NULL,NULL,NULL,12/01/2020 11:26:58,NULL,NULL,0,0
43785,12/01/2020 11:26:58,23,HR/EN/0614,11/30/2020 16:12:25,,NULL,in,NULL,NULL,0,15,NULL,NULL,,0,-1,NULL,NULL,NULL,NULL,12/01/2020 11:26:58,NULL,NULL,0,0
43784,12/01/2020 11:26:58,23,HR/EN/0614,11/30/2020 16:12:23,,NULL,in,NULL,NULL,0,15,NULL,NULL,,0,-1,NULL,NULL,NULL,NULL,12/01/2020 11:26:58,NULL,NULL,0,0
82439,12/01/2020 12:30:17,19,PUC84,11/30/2020 16:12:23,,NULL,in,NULL,NULL,0,15,NULL,NULL,,0,-1,NULL,NULL,NULL,NULL,12/01/2020 12:30:17,NULL,NULL,0,0
43783,12/01/2020 11:26:58,23,HR/EN/0614,11/30/2020 16:12:21,,NULL,in,NULL,NULL,0,15,NULL,NULL,,0,-1,NULL,NULL,NULL,NULL,12/01/2020 11:26:58,NULL,NULL,0,0
43782,12/01/2020 11:26:58,23,HR/EN/1610,11/30/2020 16:11:59,,NULL,in,NULL,NULL,0,15,NULL,NULL,,0,-1,NULL,NULL,NULL,NULL,12/01/2020 11:26:58,NULL,NULL,0,0
43781,12/01/2020 11:26:58,23,HR/EN/1610,11/30/2020 16:11:57,,NULL,in,NULL,NULL,0,15,NULL,NULL,,0,-1,NULL,NULL,NULL,NULL,12/01/2020 11:26:58,NULL,NULL,0,0
30562,12/01/2020 11:06:44,24,HR/EN/1012,11/30/2020 16:11:55,,NULL,in,NULL,NULL,0,15,NULL,NULL,,0,-1,NULL,NULL,NULL,NULL,12/01/2020 11:06:44,NULL,NULL,0,0
82438,12/01/2020 12:30:16,19,HR/EN/1378,11/30/2020 16:11:51,,NULL,in,NULL,NULL,0,15,NULL,NULL,,0,-1,NULL,NULL,NULL,NULL,12/01/2020 12:30:16,NULL,NULL,0,0
43780,12/01/2020 11:26:58,23,HR/EN/1610,11/30/2020 16:11:50,,NULL,in,NULL,NULL,0,15,NULL,NULL,,0,-1,NULL,NULL,NULL,NULL,12/01/2020 11:26:58,NULL,NULL,0,0
82437,12/01/2020 12:30:16,19,HR/EN/1378,11/30/2020 16:11:48,,NULL,in,NULL,NULL,0,15,NULL,NULL,,0,-1,NULL,NULL,NULL,NULL,12/01/2020 12:30:16,NULL,NULL,0,0
29423,12/01/2020 11:05:51,21,HR/EN/1726,11/30/2020 16:11:43,,NULL,in,NULL,NULL,0,15,NULL,NULL,,0,-1,NULL,NULL,NULL,NULL,12/01/2020 11:05:51,NULL,NULL,0,0
82436,12/01/2020 12:30:16,19,HR/EN/1008,11/30/2020 16:11:42,,NULL,in,NULL,NULL,0,15,NULL,NULL,,0,-1,NULL,NULL,NULL,NULL,12/01/2020 12:30:16,NULL,NULL,0,0
29422,12/01/2020 11:05:51,21,HR/EN/1726,11/30/2020 16:11:41,,NULL,in,NULL,NULL,0,15,NULL,NULL,,0,-1,NULL,NULL,NULL,NULL,12/01/2020 11:05:51,NULL,NULL,0,0
43779,12/01/2020 11:26:58,23,HR/EN/0770,11/30/2020 16:11:41,,NULL,in,NULL,NULL,0,15,NULL,NULL,,0,-1,NULL,NULL,NULL,NULL,12/01/2020 11:26:58,NULL,NULL,0,0
32387,12/01/2020 11:09:18,22,HR/EN/0581,11/30/2020 16:11:41,,NULL,in,NULL,NULL,0,15,NULL,NULL,,0,-1,NULL,NULL,NULL,NULL,12/01/2020 11:09:18,NULL,NULL,0,0
29421,12/01/2020 11:05:51,21,HR/EN/1726,11/30/2020 16:11:40,,NULL,in,NULL,NULL,0,15,NULL,NULL,,0,-1,NULL,NULL,NULL,NULL,12/01/2020 11:05:51,NULL,NULL,0,0
82435,12/01/2020 12:30:16,19,HR/EN/1008,11/30/2020 16:11:39,,NULL,in,NULL,NULL,0,15,NULL,NULL,,0,-1,NULL,NULL,NULL,NULL,12/01/2020 12:30:16,NULL,NULL,0,0
32386,12/01/2020 11:09:18,22,HR/EN/0581,11/30/2020 16:11:39,,NULL,in,NULL,NULL,0,15,NULL,NULL,,0,-1,NULL,NULL,NULL,NULL,12/01/2020 11:09:18,NULL,NULL,0,0
32385,12/01/2020 11:09:18,22,HR/EN/0581,11/30/2020 16:11:37,,NULL,in,NULL,NULL,0,15,NULL,NULL,,0,-1,NULL,NULL,NULL,NULL,12/01/2020 11:09:18,NULL,NULL,0,0
82434,12/01/2020 12:30:16,19,HR/EN/1008,11/30/2020 16:11:36,,NULL,in,NULL,NULL,0,15,NULL,NULL,,0,-1,NULL,NULL,NULL,NULL,12/01/2020 12:30:16,NULL,NULL,0,0
43778,12/01/2020 11:26:57,23,HR/EN/1688,11/30/2020 16:11:34,,NULL,in,NULL,NULL,0,15,NULL,NULL,,0,-1,NULL,NULL,NULL,NULL,12/01/2020 11:26:58,NULL,NULL,0,0
30561,12/01/2020 11:06:44,24,HR/EN/1241,11/30/2020 16:11:22,,NULL,in,NULL,NULL,0,15,NULL,NULL,,0,-1,NULL,NULL,NULL,NULL,12/01/2020 11:06:44,NULL,NULL,0,0
43777,12/01/2020 11:26:57,23,HR/EN/1688,11/30/2020 16:11:15,,NULL,in,NULL,NULL,0,15,NULL,NULL,,0,-1,NULL,NULL,NULL,NULL,12/01/2020 11:26:57,NULL,NULL,0,0
30560,12/01/2020 11:06:44,24,HR/EN/1526,11/30/2020 16:11:07,,NULL,in,NULL,NULL,0,15,NULL,NULL,,0,-1,NULL,NULL,NULL,NULL,12/01/2020 11:06:44,NULL,NULL,0,0
30559,12/01/2020 11:06:44,24,HR/EN/1526,11/30/2020 16:11:05,,NULL,in,NULL,NULL,0,15,NULL,NULL,,0,-1,NULL,NULL,NULL,NULL,12/01/2020 11:06:44,NULL,NULL,0,0
30558,12/01/2020 11:06:44,24,HR/EN/1526,11/30/2020 16:11:03,,NULL,in,NULL,NULL,0,15,NULL,NULL,,0,-1,NULL,NULL,NULL,NULL,12/01/2020 11:06:44,NULL,NULL,0,0
30557,12/01/2020 11:06:44,24,HR/EN/1526,11/30/2020 16:11:01,,NULL,in,NULL,NULL,0,15,NULL,NULL,,0,-1,NULL,NULL,NULL,NULL,12/01/2020 11:06:44,NULL,NULL,0,0
32384,12/01/2020 11:09:18,22,HR/EN/0983,11/30/2020 16:10:51,,NULL,in,NULL,NULL,0,15,NULL,NULL,,0,-1,NULL,NULL,NULL,NULL,12/01/2020 11:09:18,NULL,NULL,0,0
32383,12/01/2020 11:09:18,22,HR/EN/0983,11/30/2020 16:10:50,,NULL,in,NULL,NULL,0,15,NULL,NULL,,0,-1,NULL,NULL,NULL,NULL,12/01/2020 11:09:18,NULL,NULL,0,0
32382,12/01/2020 11:09:18,22,HR/EN/0983,11/30/2020 16:10:48,,NULL,in,NULL,NULL,0,15,NULL,NULL,,0,-1,NULL,NULL,NULL,NULL,12/01/2020 11:09:18,NULL,NULL,0,0
31469,12/01/2020 11:07:37,36,HR/EN/0022,11/30/2020 16:10:44,,NULL,in,NULL,NULL,0,15,NULL,NULL,,0,-1,NULL,NULL,NULL,NULL,12/01/2020 11:07:37,NULL,NULL,0,0
31468,12/01/2020 11:07:37,36,HR/EN/0022,11/30/2020 16:10:42,,NULL,in,NULL,NULL,0,15,NULL,NULL,,0,-1,NULL,NULL,NULL,NULL,12/01/2020 11:07:37,NULL,NULL,0,0
31467,12/01/2020 11:07:37,36,HR/EN/0022,11/30/2020 16:10:38,,NULL,in,NULL,NULL,0,15,NULL,NULL,,0,-1,NULL,NULL,NULL,NULL,12/01/2020 11:07:37,NULL,NULL,0,0
31466,12/01/2020 11:07:37,36,HR/EN/0022,11/30/2020 16:10:36,,NULL,in,NULL,NULL,0,15,NULL,NULL,,0,-1,NULL,NULL,NULL,NULL,12/01/2020 11:07:37,NULL,NULL,0,0
82433,12/01/2020 12:30:16,19,HR/EN/1256,11/30/2020 16:10:30,,NULL,in,NULL,NULL,0,15,NULL,NULL,,0,-1,NULL,NULL,NULL,NULL,12/01/2020 12:30:16,NULL,NULL,0,0
31465,12/01/2020 11:07:37,36,HR/EN/1575,11/30/2020 16:10:27,,NULL,in,NULL,NULL,0,15,NULL,NULL,,0,-1,NULL,NULL,NULL,NULL,12/01/2020 11:07:37,NULL,NULL,0,0
43776,12/01/2020 11:26:57,23,HR/EN/0197,11/30/2020 16:10:26,,NULL,in,NULL,NULL,0,15,NULL,NULL,,0,-1,NULL,NULL,NULL,NULL,12/01/2020 11:26:57,NULL,NULL,0,0
82432,12/01/2020 12:30:16,19,HR/EN/1256,11/30/2020 16:10:26,,NULL,in,NULL,NULL,0,15,NULL,NULL,,0,-1,NULL,NULL,NULL,NULL,12/01/2020 12:30:16,NULL,NULL,0,0
31464,12/01/2020 11:07:37,36,HR/EN/1575,11/30/2020 16:10:25,,NULL,in,NULL,NULL,0,15,NULL,NULL,,0,-1,NULL,NULL,NULL,NULL,12/01/2020 11:07:37,NULL,NULL,0,0
43775,12/01/2020 11:26:57,23,HR/EN/0197,11/30/2020 16:10:24,,NULL,in,NULL,NULL,0,15,NULL,NULL,,0,-1,NULL,NULL,NULL,NULL,12/01/2020 11:26:57,NULL,NULL,0,0
43774,12/01/2020 11:26:57,23,HR/EN/0197,11/30/2020 16:10:22,,NULL,in,NULL,NULL,0,15,NULL,NULL,,0,-1,NULL,NULL,NULL,NULL,12/01/2020 11:26:57,NULL,NULL,0,0
82431,12/01/2020 12:30:16,19,HR/EN/1256,11/30/2020 16:10:22,,NULL,in,NULL,NULL,0,15,NULL,NULL,,0,-1,NULL,NULL,NULL,NULL,12/01/2020 12:30:16,NULL,NULL,0,0
43773,12/01/2020 11:26:57,23,HR/EN/0197,11/30/2020 16:10:21,,NULL,in,NULL,NULL,0,15,NULL,NULL,,0,-1,NULL,NULL,NULL,NULL,12/01/2020 11:26:57,NULL,NULL,0,0
82430,12/01/2020 12:30:13,19,HR/EN/1256,11/30/2020 16:10:19,,NULL,in,NULL,NULL,0,15,NULL,NULL,,0,-1,NULL,NULL,NULL,NULL,12/01/2020 12:30:13,NULL,NULL,0,0
37054,12/01/2020 11:19:50,25,HR/EN/1722,11/30/2020 16:09:55,,NULL,in,NULL,NULL,0,15,NULL,NULL,,0,-1,NULL,NULL,NULL,NULL,12/01/2020 11:19:50,NULL,NULL,0,0
37053,12/01/2020 11:19:50,25,HR/EN/1722,11/30/2020 16:09:53,,NULL,in,NULL,NULL,0,15,NULL,NULL,,0,-1,NULL,NULL,NULL,NULL,12/01/2020 11:19:50,NULL,NULL,0,0
37052,12/01/2020 11:19:50,25,HR/EN/1722,11/30/2020 16:09:51,,NULL,in,NULL,NULL,0,15,NULL,NULL,,0,-1,NULL,NULL,NULL,NULL,12/01/2020 11:19:50,NULL,NULL,0,0
37051,12/01/2020 11:19:50,25,HR/EN/1282,11/30/2020 16:09:43,,NULL,in,NULL,NULL,0,15,NULL,NULL,,0,-1,NULL,NULL,NULL,NULL,12/01/2020 11:19:50,NULL,NULL,0,0
37050,12/01/2020 11:19:50,25,HR/EN/1282,11/30/2020 16:09:41,,NULL,in,NULL,NULL,0,15,NULL,NULL,,0,-1,NULL,NULL,NULL,NULL,12/01/2020 11:19:50,NULL,NULL,0,0
37049,12/01/2020 11:19:50,25,HR/EN/1282,11/30/2020 16:09:39,,NULL,in,NULL,NULL,0,15,NULL,NULL,,0,-1,NULL,NULL,NULL,NULL,12/01/2020 11:19:50,NULL,NULL,0,0
37048,12/01/2020 11:19:50,25,HR/EN/1282,11/30/2020 16:09:36,,NULL,in,NULL,NULL,0,15,NULL,NULL,,0,-1,NULL,NULL,NULL,NULL,12/01/2020 11:19:50,NULL,NULL,0,0
37047,12/01/2020 11:19:50,25,HR/EN/1213,11/30/2020 16:09:30,,NULL,in,NULL,NULL,0,15,NULL,NULL,,0,-1,NULL,NULL,NULL,NULL,12/01/2020 11:19:50,NULL,NULL,0,0
37046,12/01/2020 11:19:50,25,HR/EN/1213,11/30/2020 16:09:08,,NULL,in,NULL,NULL,0,15,NULL,NULL,,0,-1,NULL,NULL,NULL,NULL,12/01/2020 11:19:50,NULL,NULL,0,0
16273,12/01/2020 10:42:20,39,HR/EN/1697,11/30/2020 16:08:41,,NULL,in,NULL,NULL,0,15,NULL,NULL,,0,-1,NULL,NULL,NULL,NULL,12/01/2020 10:42:20,NULL,NULL,0,0
16272,12/01/2020 10:42:19,39,HR/EN/1697,11/30/2020 16:08:39,,NULL,in,NULL,NULL,0,15,NULL,NULL,,0,-1,NULL,NULL,NULL,NULL,12/01/2020 10:42:19,NULL,NULL,0,0
29420,12/01/2020 11:05:51,21,HR/EN/1723,11/30/2020 16:08:24,,NULL,in,NULL,NULL,0,15,NULL,NULL,,0,-1,NULL,NULL,NULL,NULL,12/01/2020 11:05:51,NULL,NULL,0,0
29419,12/01/2020 11:05:51,21,HR/EN/1723,11/30/2020 16:08:22,,NULL,in,NULL,NULL,0,15,NULL,NULL,,0,-1,NULL,NULL,NULL,NULL,12/01/2020 11:05:51,NULL,NULL,0,0
29418,12/01/2020 11:05:51,21,HR/EN/1723,11/30/2020 16:08:20,,NULL,in,NULL,NULL,0,15,NULL,NULL,,0,-1,NULL,NULL,NULL,NULL,12/01/2020 11:05:51,NULL,NULL,0,0
43772,12/01/2020 11:26:57,23,HR/EN/0016,11/30/2020 16:08:20,,NULL,in,NULL,NULL,0,15,NULL,NULL,,0,-1,NULL,NULL,NULL,NULL,12/01/2020 11:26:57,NULL,NULL,0,0
82429,12/01/2020 12:30:13,19,HR/EN/1317,11/30/2020 16:08:20,,NULL,in,NULL,NULL,0,15,NULL,NULL,,0,-1,NULL,NULL,NULL,NULL,12/01/2020 12:30:13,NULL,NULL,0,0
16271,12/01/2020 10:42:19,39,HR/EN/1715,11/30/2020 16:08:18,,NULL,in,NULL,NULL,0,15,NULL,NULL,,0,-1,NULL,NULL,NULL,NULL,12/01/2020 10:42:19,NULL,NULL,0,0
43771,12/01/2020 11:26:57,23,HR/EN/0016,11/30/2020 16:08:18,,NULL,in,NULL,NULL,0,15,NULL,NULL,,0,-1,NULL,NULL,NULL,NULL,12/01/2020 11:26:57,NULL,NULL,0,0
29417,12/01/2020 11:05:51,21,HR/EN/1723,11/30/2020 16:08:18,,NULL,in,NULL,NULL,0,15,NULL,NULL,,0,-1,NULL,NULL,NULL,NULL,12/01/2020 11:05:51,NULL,NULL,0,0
82428,12/01/2020 12:30:13,19,HR/EN/1317,11/30/2020 16:08:17,,NULL,in,NULL,NULL,0,15,NULL,NULL,,0,-1,NULL,NULL,NULL,NULL,12/01/2020 12:30:13,NULL,NULL,0,0
43770,12/01/2020 11:26:57,23,HR/EN/0016,11/30/2020 16:08:16,,NULL,in,NULL,NULL,0,15,NULL,NULL,,0,-1,NULL,NULL,NULL,NULL,12/01/2020 11:26:57,NULL,NULL,0,0
16270,12/01/2020 10:42:19,39,HR/EN/1715,11/30/2020 16:08:11,,NULL,in,NULL,NULL,0,15,NULL,NULL,,0,-1,NULL,NULL,NULL,NULL,12/01/2020 10:42:19,NULL,NULL,0,0
82427,12/01/2020 12:30:13,19,HR/EN/1317,11/30/2020 16:08:09,,NULL,in,NULL,NULL,0,15,NULL,NULL,,0,-1,NULL,NULL,NULL,NULL,12/01/2020 12:30:13,NULL,NULL,0,0
82426,12/01/2020 12:30:13,19,HR/EN/0487,11/30/2020 16:07:55,,NULL,in,NULL,NULL,0,15,NULL,NULL,,0,-1,NULL,NULL,NULL,NULL,12/01/2020 12:30:13,NULL,NULL,0,0
82425,12/01/2020 12:30:13,19,HR/EN/0487,11/30/2020 16:07:52,,NULL,in,NULL,NULL,0,15,NULL,NULL,,0,-1,NULL,NULL,NULL,NULL,12/01/2020 12:30:13,NULL,NULL,0,0
82424,12/01/2020 12:30:13,19,HR/EN/0487,11/30/2020 16:07:49,,NULL,in,NULL,NULL,0,15,NULL,NULL,,0,-1,NULL,NULL,NULL,NULL,12/01/2020 12:30:13,NULL,NULL,0,0
82423,12/01/2020 12:30:13,19,HR/EN/1280,11/30/2020 16:07:40,,NULL,in,NULL,NULL,0,15,NULL,NULL,,0,-1,NULL,NULL,NULL,NULL,12/01/2020 12:30:13,NULL,NULL,0,0
82422,12/01/2020 12:30:13,19,HR/EN/1280,11/30/2020 16:07:37,,NULL,in,NULL,NULL,0,15,NULL,NULL,,0,-1,NULL,NULL,NULL,NULL,12/01/2020 12:30:13,NULL,NULL,0,0
82421,12/01/2020 12:30:13,19,HR/EN/1280,11/30/2020 16:07:33,,NULL,in,NULL,NULL,0,15,NULL,NULL,,0,-1,NULL,NULL,NULL,NULL,12/01/2020 12:30:13,NULL,NULL,0,0
37045,12/01/2020 11:19:50,25,HR/EN/1253,11/30/2020 16:07:30,,NULL,in,NULL,NULL,0,15,NULL,NULL,,0,-1,NULL,NULL,NULL,NULL,12/01/2020 11:19:50,NULL,NULL,0,0
37044,12/01/2020 11:19:50,25,HR/EN/1253,11/30/2020 16:07:28,,NULL,in,NULL,NULL,0,15,NULL,NULL,,0,-1,NULL,NULL,NULL,NULL,12/01/2020 11:19:50,NULL,NULL,0,0
37043,12/01/2020 11:19:50,25,HR/EN/1253,11/30/2020 16:07:26,,NULL,in,NULL,NULL,0,15,NULL,NULL,,0,-1,NULL,NULL,NULL,NULL,12/01/2020 11:19:50,NULL,NULL,0,0
37042,12/01/2020 11:19:50,25,HR/EN/1253,11/30/2020 16:07:24,,NULL,in,NULL,NULL,0,15,NULL,NULL,,0,-1,NULL,NULL,NULL,NULL,12/01/2020 11:19:50,NULL,NULL,0,0
37041,12/01/2020 11:19:49,25,HR/EN/1293,11/30/2020 16:07:07,,NULL,in,NULL,NULL,0,15,NULL,NULL,,0,-1,NULL,NULL,NULL,NULL,12/01/2020 11:19:49,NULL,NULL,0,0
37040,12/01/2020 11:19:49,25,HR/EN/1293,11/30/2020 16:07:05,,NULL,in,NULL,NULL,0,15,NULL,NULL,,0,-1,NULL,NULL,NULL,NULL,12/01/2020 11:19:49,NULL,NULL,0,0
37039,12/01/2020 11:19:49,25,HR/EN/1293,11/30/2020 16:07:03,,NULL,in,NULL,NULL,0,15,NULL,NULL,,0,-1,NULL,NULL,NULL,NULL,12/01/2020 11:19:49,NULL,NULL,0,0
30556,12/01/2020 11:06:44,24,HR/EN/1751,11/30/2020 16:06:49,,NULL,in,NULL,NULL,0,15,NULL,NULL,,0,-1,NULL,NULL,NULL,NULL,12/01/2020 11:06:44,NULL,NULL,0,0
30555,12/01/2020 11:06:44,24,HR/EN/1751,11/30/2020 16:06:47,,NULL,in,NULL,NULL,0,15,NULL,NULL,,0,-1,NULL,NULL,NULL,NULL,12/01/2020 11:06:44,NULL,NULL,0,0
30554,12/01/2020 11:06:44,24,HR/EN/1751,11/30/2020 16:06:39,,NULL,in,NULL,NULL,0,15,NULL,NULL,,0,-1,NULL,NULL,NULL,NULL,12/01/2020 11:06:44,NULL,NULL,0,0
21959,12/01/2020 10:53:35,38,HR/EN/1381,11/30/2020 16:06:39,,NULL,in,NULL,NULL,0,15,NULL,NULL,,0,-1,NULL,NULL,NULL,NULL,12/01/2020 10:53:35,NULL,NULL,0,0
30553,12/01/2020 11:06:44,24,HR/EN/1751,11/30/2020 16:06:37,,NULL,in,NULL,NULL,0,15,NULL,NULL,,0,-1,NULL,NULL,NULL,NULL,12/01/2020 11:06:44,NULL,NULL,0,0
29416,12/01/2020 11:05:51,21,HR/EN/0402,11/30/2020 16:06:33,,NULL,in,NULL,NULL,0,15,NULL,NULL,,0,-1,NULL,NULL,NULL,NULL,12/01/2020 11:05:51,NULL,NULL,0,0
29415,12/01/2020 11:05:51,21,HR/EN/0402,11/30/2020 16:06:31,,NULL,in,NULL,NULL,0,15,NULL,NULL,,0,-1,NULL,NULL,NULL,NULL,12/01/2020 11:05:51,NULL,NULL,0,0
21958,12/01/2020 10:53:35,38,HR/EN/0224,11/30/2020 16:06:30,,NULL,in,NULL,NULL,0,15,NULL,NULL,,0,-1,NULL,NULL,NULL,NULL,12/01/2020 10:53:35,NULL,NULL,0,0
21957,12/01/2020 10:53:35,38,HR/EN/0224,11/30/2020 16:06:28,,NULL,in,NULL,NULL,0,15,NULL,NULL,,0,-1,NULL,NULL,NULL,NULL,12/01/2020 10:53:35,NULL,NULL,0,0
82420,12/01/2020 12:30:13,19,HR/EN/0123,11/30/2020 16:06:28,,NULL,in,NULL,NULL,0,15,NULL,NULL,,0,-1,NULL,NULL,NULL,NULL,12/01/2020 12:30:13,NULL,NULL,0,0
37038,12/01/2020 11:19:49,25,HR/EN/1577,11/30/2020 16:06:28,,NULL,in,NULL,NULL,0,15,NULL,NULL,,0,-1,NULL,NULL,NULL,NULL,12/01/2020 11:19:49,NULL,NULL,0,0
31463,12/01/2020 11:07:37,36,HR/EN/1663,11/30/2020 16:06:28,,NULL,in,NULL,NULL,0,15,NULL,NULL,,0,-1,NULL,NULL,NULL,NULL,12/01/2020 11:07:37,NULL,NULL,0,0
31462,12/01/2020 11:07:37,36,HR/EN/1663,11/30/2020 16:06:26,,NULL,in,NULL,NULL,0,15,NULL,NULL,,0,-1,NULL,NULL,NULL,NULL,12/01/2020 11:07:37,NULL,NULL,0,0
37037,12/01/2020 11:19:49,25,HR/EN/1577,11/30/2020 16:06:26,,NULL,in,NULL,NULL,0,15,NULL,NULL,,0,-1,NULL,NULL,NULL,NULL,12/01/2020 11:19:49,NULL,NULL,0,0
82419,12/01/2020 12:30:13,19,HR/EN/0123,11/30/2020 16:06:25,,NULL,in,NULL,NULL,0,15,NULL,NULL,,0,-1,NULL,NULL,NULL,NULL,12/01/2020 12:30:13,NULL,NULL,0,0
21956,12/01/2020 10:53:35,38,HR/EN/0224,11/30/2020 16:06:25,,NULL,in,NULL,NULL,0,15,NULL,NULL,,0,-1,NULL,NULL,NULL,NULL,12/01/2020 10:53:35,NULL,NULL,0,0
37036,12/01/2020 11:19:49,25,HR/EN/1577,11/30/2020 16:06:24,,NULL,in,NULL,NULL,0,15,NULL,NULL,,0,-1,NULL,NULL,NULL,NULL,12/01/2020 11:19:49,NULL,NULL,0,0
31461,12/01/2020 11:07:37,36,HR/EN/1663,11/30/2020 16:06:24,,NULL,in,NULL,NULL,0,15,NULL,NULL,,0,-1,NULL,NULL,NULL,NULL,12/01/2020 11:07:37,NULL,NULL,0,0
21955,12/01/2020 10:53:35,38,HR/EN/0224,11/30/2020 16:06:23,,NULL,in,NULL,NULL,0,15,NULL,NULL,,0,-1,NULL,NULL,NULL,NULL,12/01/2020 10:53:35,NULL,NULL,0,0
37035,12/01/2020 11:19:49,25,HR/EN/1577,11/30/2020 16:06:22,,NULL,in,NULL,NULL,0,15,NULL,NULL,,0,-1,NULL,NULL,NULL,NULL,12/01/2020 11:19:49,NULL,NULL,0,0
31460,12/01/2020 11:07:37,36,HR/EN/1663,11/30/2020 16:06:22,,NULL,in,NULL,NULL,0,15,NULL,NULL,,0,-1,NULL,NULL,NULL,NULL,12/01/2020 11:07:37,NULL,NULL,0,0
36993,12/01/2020 11:19:46,25,HR/EN/1577,11/30/2020 16:06:20,,NULL,in,NULL,NULL,0,15,NULL,NULL,,0,-1,NULL,NULL,NULL,NULL,12/01/2020 11:19:46,NULL,NULL,0,0
36992,12/01/2020 11:19:46,25,HR/EN/1271,11/30/2020 16:06:13,,NULL,in,NULL,NULL,0,15,NULL,NULL,,0,-1,NULL,NULL,NULL,NULL,12/01/2020 11:19:46,NULL,NULL,0,0
21954,12/01/2020 10:53:35,38,HR/EN/1381,11/30/2020 16:06:08,,NULL,in,NULL,NULL,0,15,NULL,NULL,,0,-1,NULL,NULL,NULL,NULL,12/01/2020 10:53:35,NULL,NULL,0,0
82418,12/01/2020 12:30:13,19,HR/EN/0034,11/30/2020 16:06:06,,NULL,in,NULL,NULL,0,15,NULL,NULL,,0,-1,NULL,NULL,NULL,NULL,12/01/2020 12:30:13,NULL,NULL,0,0
36991,12/01/2020 11:19:46,25,HR/EN/1271,11/30/2020 16:06:05,,NULL,in,NULL,NULL,0,15,NULL,NULL,,0,-1,NULL,NULL,NULL,NULL,12/01/2020 11:19:46,NULL,NULL,0,0
82417,12/01/2020 12:30:13,19,HR/EN/0034,11/30/2020 16:06:03,,NULL,in,NULL,NULL,0,15,NULL,NULL,,0,-1,NULL,NULL,NULL,NULL,12/01/2020 12:30:13,NULL,NULL,0,0
36990,12/01/2020 11:19:46,25,HR/EN/1271,11/30/2020 16:06:02,,NULL,in,NULL,NULL,0,15,NULL,NULL,,0,-1,NULL,NULL,NULL,NULL,12/01/2020 11:19:46,NULL,NULL,0,0
21953,12/01/2020 10:53:35,38,HR/EN/1381,11/30/2020 16:05:58,,NULL,in,NULL,NULL,0,15,NULL,NULL,,0,-1,NULL,NULL,NULL,NULL,12/01/2020 10:53:35,NULL,NULL,0,0
43769,12/01/2020 11:26:57,23,HR/EN/0616,11/30/2020 16:05:56,,NULL,in,NULL,NULL,0,15,NULL,NULL,,0,-1,NULL,NULL,NULL,NULL,12/01/2020 11:26:57,NULL,NULL,0,0
82416,12/01/2020 12:30:13,19,HR/EN/1748,11/30/2020 16:05:55,,NULL,in,NULL,NULL,0,15,NULL,NULL,,0,-1,NULL,NULL,NULL,NULL,12/01/2020 12:30:13,NULL,NULL,0,0
43768,12/01/2020 11:26:57,23,HR/EN/0616,11/30/2020 16:05:54,,NULL,in,NULL,NULL,0,15,NULL,NULL,,0,-1,NULL,NULL,NULL,NULL,12/01/2020 11:26:57,NULL,NULL,0,0
82415,12/01/2020 12:30:13,19,HR/EN/1748,11/30/2020 16:05:52,,NULL,in,NULL,NULL,0,15,NULL,NULL,,0,-1,NULL,NULL,NULL,NULL,12/01/2020 12:30:13,NULL,NULL,0,0
43767,12/01/2020 11:26:57,23,HR/EN/0616,11/30/2020 16:05:51,,NULL,in,NULL,NULL,0,15,NULL,NULL,,0,-1,NULL,NULL,NULL,NULL,12/01/2020 11:26:57,NULL,NULL,0,0
43766,12/01/2020 11:26:57,23,HR/EN/0616,11/30/2020 16:05:49,,NULL,in,NULL,NULL,0,15,NULL,NULL,,0,-1,NULL,NULL,NULL,NULL,12/01/2020 11:26:57,NULL,NULL,0,0
29414,12/01/2020 11:05:51,21,HR/EN/1647,11/30/2020 16:05:46,,NULL,in,NULL,NULL,0,15,NULL,NULL,,0,-1,NULL,NULL,NULL,NULL,12/01/2020 11:05:51,NULL,NULL,0,0
82414,12/01/2020 12:30:13,19,HR/EN/0734,11/30/2020 16:05:45,,NULL,in,NULL,NULL,0,15,NULL,NULL,,0,-1,NULL,NULL,NULL,NULL,12/01/2020 12:30:13,NULL,NULL,0,0
29413,12/01/2020 11:05:50,21,HR/EN/1647,11/30/2020 16:05:44,,NULL,in,NULL,NULL,0,15,NULL,NULL,,0,-1,NULL,NULL,NULL,NULL,12/01/2020 11:05:50,NULL,NULL,0,0
29412,12/01/2020 11:05:50,21,HR/EN/1647,11/30/2020 16:05:42,,NULL,in,NULL,NULL,0,15,NULL,NULL,,0,-1,NULL,NULL,NULL,NULL,12/01/2020 11:05:50,NULL,NULL,0,0
82413,12/01/2020 12:30:13,19,HR/EN/0734,11/30/2020 16:05:42,,NULL,in,NULL,NULL,0,15,NULL,NULL,,0,-1,NULL,NULL,NULL,NULL,12/01/2020 12:30:13,NULL,NULL,0,0
29411,12/01/2020 11:05:50,21,HR/EN/1647,11/30/2020 16:05:40,,NULL,in,NULL,NULL,0,15,NULL,NULL,,0,-1,NULL,NULL,NULL,NULL,12/01/2020 11:05:50,NULL,NULL,0,0
82412,12/01/2020 12:30:13,19,HR/EN/0081,11/30/2020 16:05:36,,NULL,in,NULL,NULL,0,15,NULL,NULL,,0,-1,NULL,NULL,NULL,NULL,12/01/2020 12:30:13,NULL,NULL,0,0
82411,12/01/2020 12:30:13,19,HR/EN/0081,11/30/2020 16:05:32,,NULL,in,NULL,NULL,0,15,NULL,NULL,,0,-1,NULL,NULL,NULL,NULL,12/01/2020 12:30:13,NULL,NULL,0,0
82410,12/01/2020 12:30:13,19,HR/EN/0124,11/30/2020 16:05:25,,NULL,in,NULL,NULL,0,15,NULL,NULL,,0,-1,NULL,NULL,NULL,NULL,12/01/2020 12:30:13,NULL,NULL,0,0
30552,12/01/2020 11:06:44,24,HR/EN/1752,11/30/2020 16:05:22,,NULL,in,NULL,NULL,0,15,NULL,NULL,,0,-1,NULL,NULL,NULL,NULL,12/01/2020 11:06:44,NULL,NULL,0,0
82409,12/01/2020 12:30:13,19,HR/EN/0124,11/30/2020 16:05:21,,NULL,in,NULL,NULL,0,15,NULL,NULL,,0,-1,NULL,NULL,NULL,NULL,12/01/2020 12:30:13,NULL,NULL,0,0
30551,12/01/2020 11:06:44,24,HR/EN/1752,11/30/2020 16:05:20,,NULL,in,NULL,NULL,0,15,NULL,NULL,,0,-1,NULL,NULL,NULL,NULL,12/01/2020 11:06:44,NULL,NULL,0,0
36989,12/01/2020 11:19:46,25,HR/EN/1293,11/30/2020 16:05:18,,NULL,in,NULL,NULL,0,15,NULL,NULL,,0,-1,NULL,NULL,NULL,NULL,12/01/2020 11:19:46,NULL,NULL,0,0
36988,12/01/2020 11:19:46,25,HR/EN/1293,11/30/2020 16:05:16,,NULL,in,NULL,NULL,0,15,NULL,NULL,,0,-1,NULL,NULL,NULL,NULL,12/01/2020 11:19:46,NULL,NULL,0,0
30550,12/01/2020 11:06:44,24,HR/EN/1753,11/30/2020 16:05:14,,NULL,in,NULL,NULL,0,15,NULL,NULL,,0,-1,NULL,NULL,NULL,NULL,12/01/2020 11:06:44,NULL,NULL,0,0
82408,12/01/2020 12:30:13,19,HR/EN/1665,11/30/2020 16:05:13,,NULL,in,NULL,NULL,0,15,NULL,NULL,,0,-1,NULL,NULL,NULL,NULL,12/01/2020 12:30:13,NULL,NULL,0,0
30549,12/01/2020 11:06:44,24,HR/EN/1753,11/30/2020 16:05:12,,NULL,in,NULL,NULL,0,15,NULL,NULL,,0,-1,NULL,NULL,NULL,NULL,12/01/2020 11:06:44,NULL,NULL,0,0
23382,12/01/2020 10:57:03,28,HR/EN/1682,11/30/2020 16:05:12,,NULL,in,NULL,NULL,0,15,NULL,NULL,,0,-1,NULL,NULL,NULL,NULL,12/01/2020 10:57:03,NULL,NULL,0,0
30548,12/01/2020 11:06:44,24,HR/EN/1753,11/30/2020 16:05:10,,NULL,in,NULL,NULL,0,15,NULL,NULL,,0,-1,NULL,NULL,NULL,NULL,12/01/2020 11:06:44,NULL,NULL,0,0
82407,12/01/2020 12:30:13,19,HR/EN/1665,11/30/2020 16:05:10,,NULL,in,NULL,NULL,0,15,NULL,NULL,,0,-1,NULL,NULL,NULL,NULL,12/01/2020 12:30:13,NULL,NULL,0,0
23381,12/01/2020 10:57:03,28,HR/EN/1682,11/30/2020 16:05:05,,NULL,in,NULL,NULL,0,15,NULL,NULL,,0,-1,NULL,NULL,NULL,NULL,12/01/2020 10:57:03,NULL,NULL,0,0
23380,12/01/2020 10:57:03,28,HR/EN/1682,11/30/2020 16:05:04,,NULL,in,NULL,NULL,0,15,NULL,NULL,,0,-1,NULL,NULL,NULL,NULL,12/01/2020 10:57:03,NULL,NULL,0,0
30547,12/01/2020 11:06:44,24,HR/EN/1685,11/30/2020 16:05:04,,NULL,in,NULL,NULL,0,15,NULL,NULL,,0,-1,NULL,NULL,NULL,NULL,12/01/2020 11:06:44,NULL,NULL,0,0
82406,12/01/2020 12:30:13,19,HR/EN/1338,11/30/2020 16:05:04,,NULL,in,NULL,NULL,0,15,NULL,NULL,,0,-1,NULL,NULL,NULL,NULL,12/01/2020 12:30:13,NULL,NULL,0,0
30546,12/01/2020 11:06:44,24,HR/EN/1685,11/30/2020 16:05:02,,NULL,in,NULL,NULL,0,15,NULL,NULL,,0,-1,NULL,NULL,NULL,NULL,12/01/2020 11:06:44,NULL,NULL,0,0
82405,12/01/2020 12:30:13,19,HR/EN/1338,11/30/2020 16:05:01,,NULL,in,NULL,NULL,0,15,NULL,NULL,,0,-1,NULL,NULL,NULL,NULL,12/01/2020 12:30:13,NULL,NULL,0,0
82404,12/01/2020 12:30:13,19,HR/EN/0205,11/30/2020 16:04:57,,NULL,in,NULL,NULL,0,15,NULL,NULL,,0,-1,NULL,NULL,NULL,NULL,12/01/2020 12:30:13,NULL,NULL,0,0
36987,12/01/2020 11:19:46,25,HR/EN/1599,11/30/2020 16:04:56,,NULL,in,NULL,NULL,0,15,NULL,NULL,,0,-1,NULL,NULL,NULL,NULL,12/01/2020 11:19:46,NULL,NULL,0,0
36986,12/01/2020 11:19:46,25,HR/EN/1599,11/30/2020 16:04:54,,NULL,in,NULL,NULL,0,15,NULL,NULL,,0,-1,NULL,NULL,NULL,NULL,12/01/2020 11:19:46,NULL,NULL,0,0
30545,12/01/2020 11:06:44,24,HR/EN/1012,11/30/2020 16:04:54,,NULL,in,NULL,NULL,0,15,NULL,NULL,,0,-1,NULL,NULL,NULL,NULL,12/01/2020 11:06:44,NULL,NULL,0,0
82403,12/01/2020 12:30:13,19,HR/EN/0205,11/30/2020 16:04:53,,NULL,in,NULL,NULL,0,15,NULL,NULL,,0,-1,NULL,NULL,NULL,NULL,12/01/2020 12:30:13,NULL,NULL,0,0
30544,12/01/2020 11:06:44,24,HR/EN/1012,11/30/2020 16:04:52,,NULL,in,NULL,NULL,0,15,NULL,NULL,,0,-1,NULL,NULL,NULL,NULL,12/01/2020 11:06:44,NULL,NULL,0,0
82402,12/01/2020 12:30:13,19,HR/EN/1097,11/30/2020 16:04:48,,NULL,in,NULL,NULL,0,15,NULL,NULL,,0,-1,NULL,NULL,NULL,NULL,12/01/2020 12:30:13,NULL,NULL,0,0
23379,12/01/2020 10:57:03,28,HR/EN/0030,11/30/2020 16:04:46,,NULL,in,NULL,NULL,0,15,NULL,NULL,,0,-1,NULL,NULL,NULL,NULL,12/01/2020 10:57:03,NULL,NULL,0,0
23378,12/01/2020 10:57:03,28,HR/EN/0030,11/30/2020 16:04:44,,NULL,in,NULL,NULL,0,15,NULL,NULL,,0,-1,NULL,NULL,NULL,NULL,12/01/2020 10:57:03,NULL,NULL,0,0
23377,12/01/2020 10:57:03,28,HR/EN/0030,11/30/2020 16:04:42,,NULL,in,NULL,NULL,0,15,NULL,NULL,,0,-1,NULL,NULL,NULL,NULL,12/01/2020 10:57:03,NULL,NULL,0,0
82401,12/01/2020 12:30:13,19,HR/EN/1097,11/30/2020 16:04:39,,NULL,in,NULL,NULL,0,15,NULL,NULL,,0,-1,NULL,NULL,NULL,NULL,12/01/2020 12:30:13,NULL,NULL,0,0
23376,12/01/2020 10:57:02,28,HR/EN/0030,11/30/2020 16:04:36,,NULL,in,NULL,NULL,0,15,NULL,NULL,,0,-1,NULL,NULL,NULL,NULL,12/01/2020 10:57:02,NULL,NULL,0,0
17698,12/01/2020 10:48:50,32,HR/EN/0232,11/30/2020 16:04:31,,NULL,in,NULL,NULL,0,15,NULL,NULL,,0,-1,NULL,NULL,NULL,NULL,12/01/2020 10:48:50,NULL,NULL,0,0
30543,12/01/2020 11:06:44,24,HR/EN/0954,11/30/2020 16:04:29,,NULL,in,NULL,NULL,0,15,NULL,NULL,,0,-1,NULL,NULL,NULL,NULL,12/01/2020 11:06:44,NULL,NULL,0,0
82400,12/01/2020 12:30:13,19,HR/EN/1412,11/30/2020 16:04:29,,NULL,in,NULL,NULL,0,15,NULL,NULL,,0,-1,NULL,NULL,NULL,NULL,12/01/2020 12:30:13,NULL,NULL,0,0
30542,12/01/2020 11:06:44,24,HR/EN/0954,11/30/2020 16:04:26,,NULL,in,NULL,NULL,0,15,NULL,NULL,,0,-1,NULL,NULL,NULL,NULL,12/01/2020 11:06:44,NULL,NULL,0,0
82399,12/01/2020 12:30:13,19,HR/EN/1412,11/30/2020 16:04:24,,NULL,in,NULL,NULL,0,15,NULL,NULL,,0,-1,NULL,NULL,NULL,NULL,12/01/2020 12:30:13,NULL,NULL,0,0
17697,12/01/2020 10:48:50,32,HR/EN/0232,11/30/2020 16:04:23,,NULL,in,NULL,NULL,0,15,NULL,NULL,,0,-1,NULL,NULL,NULL,NULL,12/01/2020 10:48:50,NULL,NULL,0,0
82398,12/01/2020 12:30:13,19,HR/EN/1561,11/30/2020 16:04:15,,NULL,in,NULL,NULL,0,15,NULL,NULL,,0,-1,NULL,NULL,NULL,NULL,12/01/2020 12:30:13,NULL,NULL,0,0
82397,12/01/2020 12:30:13,19,HR/EN/1561,11/30/2020 16:04:10,,NULL,in,NULL,NULL,0,15,NULL,NULL,,0,-1,NULL,NULL,NULL,NULL,12/01/2020 12:30:13,NULL,NULL,0,0
82396,12/01/2020 12:30:13,19,HR/EN/1555,11/30/2020 16:04:02,,NULL,in,NULL,NULL,0,15,NULL,NULL,,0,-1,NULL,NULL,NULL,NULL,12/01/2020 12:30:13,NULL,NULL,0,0
82395,12/01/2020 12:30:13,19,HR/EN/1555,11/30/2020 16:03:59,,NULL,in,NULL,NULL,0,15,NULL,NULL,,0,-1,NULL,NULL,NULL,NULL,12/01/2020 12:30:13,NULL,NULL,0,0
82394,12/01/2020 12:30:13,19,HR/EN/1030,11/30/2020 16:03:53,,NULL,in,NULL,NULL,0,15,NULL,NULL,,0,-1,NULL,NULL,NULL,NULL,12/01/2020 12:30:13,NULL,NULL,0,0
82393,12/01/2020 12:30:13,19,HR/EN/1030,11/30/2020 16:03:50,,NULL,in,NULL,NULL,0,15,NULL,NULL,,0,-1,NULL,NULL,NULL,NULL,12/01/2020 12:30:13,NULL,NULL,0,0
82392,12/01/2020 12:30:13,19,HR/EN/1627,11/30/2020 16:03:44,,NULL,in,NULL,NULL,0,15,NULL,NULL,,0,-1,NULL,NULL,NULL,NULL,12/01/2020 12:30:13,NULL,NULL,0,0
17696,12/01/2020 10:48:50,32,HR/EN/0739,11/30/2020 16:03:44,,NULL,in,NULL,NULL,0,15,NULL,NULL,,0,-1,NULL,NULL,NULL,NULL,12/01/2020 10:48:50,NULL,NULL,0,0
32381,12/01/2020 11:09:18,22,HR/EN/1122,11/30/2020 16:03:44,,NULL,in,NULL,NULL,0,15,NULL,NULL,,0,-1,NULL,NULL,NULL,NULL,12/01/2020 11:09:18,NULL,NULL,0,0
32380,12/01/2020 11:09:18,22,HR/EN/1122,11/30/2020 16:03:42,,NULL,in,NULL,NULL,0,15,NULL,NULL,,0,-1,NULL,NULL,NULL,NULL,12/01/2020 11:09:18,NULL,NULL,0,0
17695,12/01/2020 10:48:50,32,HR/EN/0739,11/30/2020 16:03:41,,NULL,in,NULL,NULL,0,15,NULL,NULL,,0,-1,NULL,NULL,NULL,NULL,12/01/2020 10:48:50,NULL,NULL,0,0
36985,12/01/2020 11:19:46,25,HR/EN/1599,11/30/2020 16:03:41,,NULL,in,NULL,NULL,0,15,NULL,NULL,,0,-1,NULL,NULL,NULL,NULL,12/01/2020 11:19:46,NULL,NULL,0,0
82391,12/01/2020 12:30:13,19,HR/EN/1627,11/30/2020 16:03:41,,NULL,in,NULL,NULL,0,15,NULL,NULL,,0,-1,NULL,NULL,NULL,NULL,12/01/2020 12:30:13,NULL,NULL,0,0
29410,12/01/2020 11:05:50,21,HR/EN/1437,11/30/2020 16:03:41,,NULL,in,NULL,NULL,0,15,NULL,NULL,,0,-1,NULL,NULL,NULL,NULL,12/01/2020 11:05:50,NULL,NULL,0,0
32379,12/01/2020 11:09:18,22,HR/EN/1122,11/30/2020 16:03:40,,NULL,in,NULL,NULL,0,15,NULL,NULL,,0,-1,NULL,NULL,NULL,NULL,12/01/2020 11:09:18,NULL,NULL,0,0
17694,12/01/2020 10:48:50,32,HR/EN/0739,11/30/2020 16:03:36,,NULL,in,NULL,NULL,0,15,NULL,NULL,,0,-1,NULL,NULL,NULL,NULL,12/01/2020 10:48:50,NULL,NULL,0,0
82390,12/01/2020 12:30:13,19,HR/EN/0067,11/30/2020 16:03:33,,NULL,in,NULL,NULL,0,15,NULL,NULL,,0,-1,NULL,NULL,NULL,NULL,12/01/2020 12:30:13,NULL,NULL,0,0
82389,12/01/2020 12:30:13,19,HR/EN/0067,11/30/2020 16:03:30,,NULL,in,NULL,NULL,0,15,NULL,NULL,,0,-1,NULL,NULL,NULL,NULL,12/01/2020 12:30:13,NULL,NULL,0,0
23375,12/01/2020 10:57:02,28,HR/EN/1682,11/30/2020 16:03:28,,NULL,in,NULL,NULL,0,15,NULL,NULL,,0,-1,NULL,NULL,NULL,NULL,12/01/2020 10:57:02,NULL,NULL,0,0
82388,12/01/2020 12:30:09,19,HR/EN/0067,11/30/2020 16:03:27,,NULL,in,NULL,NULL,0,15,NULL,NULL,,0,-1,NULL,NULL,NULL,NULL,12/01/2020 12:30:09,NULL,NULL,0,0
23374,12/01/2020 10:57:02,28,HR/EN/1682,11/30/2020 16:03:25,,NULL,in,NULL,NULL,0,15,NULL,NULL,,0,-1,NULL,NULL,NULL,NULL,12/01/2020 10:57:02,NULL,NULL,0,0
29409,12/01/2020 11:05:50,21,HR/EN/1437,11/30/2020 16:03:23,,NULL,in,NULL,NULL,0,15,NULL,NULL,,0,-1,NULL,NULL,NULL,NULL,12/01/2020 11:05:50,NULL,NULL,0,0
82387,12/01/2020 12:30:09,19,HR/EN/1743,11/30/2020 16:03:22,,NULL,in,NULL,NULL,0,15,NULL,NULL,,0,-1,NULL,NULL,NULL,NULL,12/01/2020 12:30:09,NULL,NULL,0,0
29408,12/01/2020 11:05:50,21,HR/EN/1437,11/30/2020 16:03:21,,NULL,in,NULL,NULL,0,15,NULL,NULL,,0,-1,NULL,NULL,NULL,NULL,12/01/2020 11:05:50,NULL,NULL,0,0
82386,12/01/2020 12:30:09,19,HR/EN/1743,11/30/2020 16:03:19,,NULL,in,NULL,NULL,0,15,NULL,NULL,,0,-1,NULL,NULL,NULL,NULL,12/01/2020 12:30:09,NULL,NULL,0,0
82385,12/01/2020 12:30:09,19,HR/EN/1739,11/30/2020 16:03:13,,NULL,in,NULL,NULL,0,15,NULL,NULL,,0,-1,NULL,NULL,NULL,NULL,12/01/2020 12:30:09,NULL,NULL,0,0
82384,12/01/2020 12:30:09,19,HR/EN/1739,11/30/2020 16:03:10,,NULL,in,NULL,NULL,0,15,NULL,NULL,,0,-1,NULL,NULL,NULL,NULL,12/01/2020 12:30:09,NULL,NULL,0,0
18531,12/01/2020 10:50:15,31,HR/EN/1509,11/30/2020 16:03:10,,NULL,in,NULL,NULL,0,15,NULL,NULL,,0,-1,NULL,NULL,NULL,NULL,12/01/2020 10:50:15,NULL,NULL,0,0
18530,12/01/2020 10:50:15,31,HR/EN/1509,11/30/2020 16:03:06,,NULL,in,NULL,NULL,0,15,NULL,NULL,,0,-1,NULL,NULL,NULL,NULL,12/01/2020 10:50:15,NULL,NULL,0,0
43765,12/01/2020 11:26:57,23,HR/EN/0165,11/30/2020 16:03:06,,NULL,in,NULL,NULL,0,15,NULL,NULL,,0,-1,NULL,NULL,NULL,NULL,12/01/2020 11:26:57,NULL,NULL,0,0
43764,12/01/2020 11:26:57,23,HR/EN/0165,11/30/2020 16:03:03,,NULL,in,NULL,NULL,0,15,NULL,NULL,,0,-1,NULL,NULL,NULL,NULL,12/01/2020 11:26:57,NULL,NULL,0,0
82383,12/01/2020 12:30:09,19,HR/EN/0139,11/30/2020 16:03:02,,NULL,in,NULL,NULL,0,15,NULL,NULL,,0,-1,NULL,NULL,NULL,NULL,12/01/2020 12:30:09,NULL,NULL,0,0
17769,12/01/2020 10:49:06,27,HR/EN/0641,11/30/2020 16:03:00,,NULL,in,NULL,NULL,0,15,NULL,NULL,,0,-1,NULL,NULL,NULL,NULL,12/01/2020 10:49:06,NULL,NULL,0,0
82382,12/01/2020 12:30:09,19,HR/EN/0139,11/30/2020 16:02:59,,NULL,in,NULL,NULL,0,15,NULL,NULL,,0,-1,NULL,NULL,NULL,NULL,12/01/2020 12:30:09,NULL,NULL,0,0
17768,12/01/2020 10:49:06,27,HR/EN/0641,11/30/2020 16:02:58,,NULL,in,NULL,NULL,0,15,NULL,NULL,,0,-1,NULL,NULL,NULL,NULL,12/01/2020 10:49:06,NULL,NULL,0,0
17767,12/01/2020 10:49:06,27,HR/EN/0641,11/30/2020 16:02:56,,NULL,in,NULL,NULL,0,15,NULL,NULL,,0,-1,NULL,NULL,NULL,NULL,12/01/2020 10:49:06,NULL,NULL,0,0
82381,12/01/2020 12:30:09,19,HR/EN/0654,11/30/2020 16:02:52,,NULL,in,NULL,NULL,0,15,NULL,NULL,,0,-1,NULL,NULL,NULL,NULL,12/01/2020 12:30:09,NULL,NULL,0,0
82380,12/01/2020 12:30:09,19,HR/EN/0654,11/30/2020 16:02:49,,NULL,in,NULL,NULL,0,15,NULL,NULL,,0,-1,NULL,NULL,NULL,NULL,12/01/2020 12:30:09,NULL,NULL,0,0
17766,12/01/2020 10:49:06,27,HR/EN/1730,11/30/2020 16:02:46,,NULL,in,NULL,NULL,0,15,NULL,NULL,,0,-1,NULL,NULL,NULL,NULL,12/01/2020 10:49:06,NULL,NULL,0,0
82379,12/01/2020 12:30:09,19,HR/EN/1340,11/30/2020 16:02:43,,NULL,in,NULL,NULL,0,15,NULL,NULL,,0,-1,NULL,NULL,NULL,NULL,12/01/2020 12:30:09,NULL,NULL,0,0
32378,12/01/2020 11:09:18,22,HR/EN/1588,11/30/2020 16:02:42,,NULL,in,NULL,NULL,0,15,NULL,NULL,,0,-1,NULL,NULL,NULL,NULL,12/01/2020 11:09:18,NULL,NULL,0,0
17765,12/01/2020 10:49:06,27,HR/EN/1730,11/30/2020 16:02:41,,NULL,in,NULL,NULL,0,15,NULL,NULL,,0,-1,NULL,NULL,NULL,NULL,12/01/2020 10:49:06,NULL,NULL,0,0
32377,12/01/2020 11:09:18,22,HR/EN/1588,11/30/2020 16:02:40,,NULL,in,NULL,NULL,0,15,NULL,NULL,,0,-1,NULL,NULL,NULL,NULL,12/01/2020 11:09:18,NULL,NULL,0,0
36984,12/01/2020 11:19:46,25,HR/EN/1243,11/30/2020 16:02:39,,NULL,in,NULL,NULL,0,15,NULL,NULL,,0,-1,NULL,NULL,NULL,NULL,12/01/2020 11:19:46,NULL,NULL,0,0
32376,12/01/2020 11:09:18,22,HR/EN/1588,11/30/2020 16:02:38,,NULL,in,NULL,NULL,0,15,NULL,NULL,,0,-1,NULL,NULL,NULL,NULL,12/01/2020 11:09:18,NULL,NULL,0,0
36983,12/01/2020 11:19:46,25,HR/EN/1243,11/30/2020 16:02:37,,NULL,in,NULL,NULL,0,15,NULL,NULL,,0,-1,NULL,NULL,NULL,NULL,12/01/2020 11:19:46,NULL,NULL,0,0
82378,12/01/2020 12:30:09,19,HR/EN/1340,11/30/2020 16:02:37,,NULL,in,NULL,NULL,0,15,NULL,NULL,,0,-1,NULL,NULL,NULL,NULL,12/01/2020 12:30:09,NULL,NULL,0,0
32375,12/01/2020 11:09:18,22,HR/EN/1588,11/30/2020 16:02:35,,NULL,in,NULL,NULL,0,15,NULL,NULL,,0,-1,NULL,NULL,NULL,NULL,12/01/2020 11:09:18,NULL,NULL,0,0
36982,12/01/2020 11:19:46,25,HR/EN/1243,11/30/2020 16:02:34,,NULL,in,NULL,NULL,0,15,NULL,NULL,,0,-1,NULL,NULL,NULL,NULL,12/01/2020 11:19:46,NULL,NULL,0,0
31459,12/01/2020 11:07:37,36,HR/EN/1711,11/30/2020 16:02:27,,NULL,in,NULL,NULL,0,15,NULL,NULL,,0,-1,NULL,NULL,NULL,NULL,12/01/2020 11:07:37,NULL,NULL,0,0
31458,12/01/2020 11:07:37,36,HR/EN/1711,11/30/2020 16:02:25,,NULL,in,NULL,NULL,0,15,NULL,NULL,,0,-1,NULL,NULL,NULL,NULL,12/01/2020 11:07:37,NULL,NULL,0,0
82377,12/01/2020 12:30:09,19,HR/EN/0135,11/30/2020 16:02:24,,NULL,in,NULL,NULL,0,15,NULL,NULL,,0,-1,NULL,NULL,NULL,NULL,12/01/2020 12:30:09,NULL,NULL,0,0
36981,12/01/2020 11:19:46,25,HR/EN/1245,11/30/2020 16:02:23,,NULL,in,NULL,NULL,0,15,NULL,NULL,,0,-1,NULL,NULL,NULL,NULL,12/01/2020 11:19:46,NULL,NULL,0,0
36980,12/01/2020 11:19:46,25,HR/EN/1245,11/30/2020 16:02:21,,NULL,in,NULL,NULL,0,15,NULL,NULL,,0,-1,NULL,NULL,NULL,NULL,12/01/2020 11:19:46,NULL,NULL,0,0
36979,12/01/2020 11:19:46,25,HR/EN/1245,11/30/2020 16:02:19,,NULL,in,NULL,NULL,0,15,NULL,NULL,,0,-1,NULL,NULL,NULL,NULL,12/01/2020 11:19:46,NULL,NULL,0,0
82376,12/01/2020 12:30:09,19,HR/EN/0135,11/30/2020 16:02:17,,NULL,in,NULL,NULL,0,15,NULL,NULL,,0,-1,NULL,NULL,NULL,NULL,12/01/2020 12:30:09,NULL,NULL,0,0
29407,12/01/2020 11:05:50,21,HR/EN/1717,11/30/2020 16:02:16,,NULL,in,NULL,NULL,0,15,NULL,NULL,,0,-1,NULL,NULL,NULL,NULL,12/01/2020 11:05:50,NULL,NULL,0,0
29406,12/01/2020 11:05:50,21,HR/EN/1717,11/30/2020 16:02:13,,NULL,in,NULL,NULL,0,15,NULL,NULL,,0,-1,NULL,NULL,NULL,NULL,12/01/2020 11:05:50,NULL,NULL,0,0
82375,12/01/2020 12:30:09,19,HR/EN/0784,11/30/2020 16:02:13,,NULL,in,NULL,NULL,0,15,NULL,NULL,,0,-1,NULL,NULL,NULL,NULL,12/01/2020 12:30:09,NULL,NULL,0,0
29405,12/01/2020 11:05:50,21,HR/EN/1717,11/30/2020 16:02:11,,NULL,in,NULL,NULL,0,15,NULL,NULL,,0,-1,NULL,NULL,NULL,NULL,12/01/2020 11:05:50,NULL,NULL,0,0
32374,12/01/2020 11:09:18,22,HR/EN/1696,11/30/2020 16:02:10,,NULL,in,NULL,NULL,0,15,NULL,NULL,,0,-1,NULL,NULL,NULL,NULL,12/01/2020 11:09:18,NULL,NULL,0,0
82374,12/01/2020 12:30:09,19,HR/EN/0784,11/30/2020 16:02:09,,NULL,in,NULL,NULL,0,15,NULL,NULL,,0,-1,NULL,NULL,NULL,NULL,12/01/2020 12:30:09,NULL,NULL,0,0
43763,12/01/2020 11:26:57,23,HR/EN/0978,11/30/2020 16:02:09,,NULL,in,NULL,NULL,0,15,NULL,NULL,,0,-1,NULL,NULL,NULL,NULL,12/01/2020 11:26:57,NULL,NULL,0,0
43762,12/01/2020 11:26:57,23,HR/EN/0978,11/30/2020 16:02:06,,NULL,in,NULL,NULL,0,15,NULL,NULL,,0,-1,NULL,NULL,NULL,NULL,12/01/2020 11:26:57,NULL,NULL,0,0
32373,12/01/2020 11:09:18,22,HR/EN/1696,11/30/2020 16:02:06,,NULL,in,NULL,NULL,0,15,NULL,NULL,,0,-1,NULL,NULL,NULL,NULL,12/01/2020 11:09:18,NULL,NULL,0,0
43761,12/01/2020 11:26:57,23,HR/EN/0978,11/30/2020 16:02:04,,NULL,in,NULL,NULL,0,15,NULL,NULL,,0,-1,NULL,NULL,NULL,NULL,12/01/2020 11:26:57,NULL,NULL,0,0
36978,12/01/2020 11:19:46,25,HR/EN/1727,11/30/2020 16:02:03,,NULL,in,NULL,NULL,0,15,NULL,NULL,,0,-1,NULL,NULL,NULL,NULL,12/01/2020 11:19:46,NULL,NULL,0,0
82373,12/01/2020 12:30:09,19,HR/EN/0584,11/30/2020 16:02:00,,NULL,in,NULL,NULL,0,15,NULL,NULL,,0,-1,NULL,NULL,NULL,NULL,12/01/2020 12:30:09,NULL,NULL,0,0
32372,12/01/2020 11:09:18,22,HR/EN/1613,11/30/2020 16:01:58,,NULL,in,NULL,NULL,0,15,NULL,NULL,,0,-1,NULL,NULL,NULL,NULL,12/01/2020 11:09:18,NULL,NULL,0,0
82372,12/01/2020 12:30:09,19,HR/EN/0584,11/30/2020 16:01:57,,NULL,in,NULL,NULL,0,15,NULL,NULL,,0,-1,NULL,NULL,NULL,NULL,12/01/2020 12:30:09,NULL,NULL,0,0
32371,12/01/2020 11:09:18,22,HR/EN/1613,11/30/2020 16:01:55,,NULL,in,NULL,NULL,0,15,NULL,NULL,,0,-1,NULL,NULL,NULL,NULL,12/01/2020 11:09:18,NULL,NULL,0,0
20570,12/01/2020 10:52:11,30,HR/EN/0827,11/30/2020 16:01:55,,NULL,out,NULL,NULL,4,15,NULL,NULL,,0,-1,NULL,NULL,NULL,NULL,12/01/2020 10:52:11,NULL,NULL,0,0
20569,12/01/2020 10:52:11,30,HR/EN/0827,11/30/2020 16:01:53,,NULL,out,NULL,NULL,4,15,NULL,NULL,,0,-1,NULL,NULL,NULL,NULL,12/01/2020 10:52:11,NULL,NULL,0,0
36977,12/01/2020 11:19:46,25,HR/EN/1727,11/30/2020 16:01:53,,NULL,in,NULL,NULL,0,15,NULL,NULL,,0,-1,NULL,NULL,NULL,NULL,12/01/2020 11:19:46,NULL,NULL,0,0
20568,12/01/2020 10:52:11,30,HR/EN/0827,11/30/2020 16:01:50,,NULL,out,NULL,NULL,4,15,NULL,NULL,,0,-1,NULL,NULL,NULL,NULL,12/01/2020 10:52:11,NULL,NULL,0,0
20567,12/01/2020 10:52:11,30,HR/EN/0827,11/30/2020 16:01:48,,NULL,out,NULL,NULL,4,15,NULL,NULL,,0,-1,NULL,NULL,NULL,NULL,12/01/2020 10:52:11,NULL,NULL,0,0
82371,12/01/2020 12:30:09,19,HR/EN/1361,11/30/2020 16:01:46,,NULL,in,NULL,NULL,0,15,NULL,NULL,,0,-1,NULL,NULL,NULL,NULL,12/01/2020 12:30:09,NULL,NULL,0,0
18529,12/01/2020 10:50:15,31,HR/EN/0612,11/30/2020 16:01:46,,NULL,in,NULL,NULL,0,15,NULL,NULL,,0,-1,NULL,NULL,NULL,NULL,12/01/2020 10:50:15,NULL,NULL,0,0
18528,12/01/2020 10:50:15,31,HR/EN/0612,11/30/2020 16:01:43,,NULL,in,NULL,NULL,0,15,NULL,NULL,,0,-1,NULL,NULL,NULL,NULL,12/01/2020 10:50:15,NULL,NULL,0,0
82370,12/01/2020 12:30:09,19,HR/EN/1361,11/30/2020 16:01:43,,NULL,in,NULL,NULL,0,15,NULL,NULL,,0,-1,NULL,NULL,NULL,NULL,12/01/2020 12:30:09,NULL,NULL,0,0
36976,12/01/2020 11:19:46,25,HR/EN/1231,11/30/2020 16:01:42,,NULL,in,NULL,NULL,0,15,NULL,NULL,,0,-1,NULL,NULL,NULL,NULL,12/01/2020 11:19:46,NULL,NULL,0,0
18527,12/01/2020 10:50:15,31,HR/EN/0612,11/30/2020 16:01:41,,NULL,in,NULL,NULL,0,15,NULL,NULL,,0,-1,NULL,NULL,NULL,NULL,12/01/2020 10:50:15,NULL,NULL,0,0
36975,12/01/2020 11:19:46,25,HR/EN/1231,11/30/2020 16:01:40,,NULL,in,NULL,NULL,0,15,NULL,NULL,,0,-1,NULL,NULL,NULL,NULL,12/01/2020 11:19:46,NULL,NULL,0,0
36974,12/01/2020 11:19:46,25,HR/EN/1231,11/30/2020 16:01:38,,NULL,in,NULL,NULL,0,15,NULL,NULL,,0,-1,NULL,NULL,NULL,NULL,12/01/2020 11:19:46,NULL,NULL,0,0
82369,12/01/2020 12:30:09,19,HR/EN/1150,11/30/2020 16:01:38,,NULL,in,NULL,NULL,0,15,NULL,NULL,,0,-1,NULL,NULL,NULL,NULL,12/01/2020 12:30:09,NULL,NULL,0,0
17693,12/01/2020 10:48:50,32,HR/EN/1703,11/30/2020 16:01:34,,NULL,in,NULL,NULL,0,15,NULL,NULL,,0,-1,NULL,NULL,NULL,NULL,12/01/2020 10:48:50,NULL,NULL,0,0
82368,12/01/2020 12:30:09,19,HR/EN/1150,11/30/2020 16:01:33,,NULL,in,NULL,NULL,0,15,NULL,NULL,,0,-1,NULL,NULL,NULL,NULL,12/01/2020 12:30:09,NULL,NULL,0,0
17692,12/01/2020 10:48:50,32,HR/EN/1703,11/30/2020 16:01:32,,NULL,in,NULL,NULL,0,15,NULL,NULL,,0,-1,NULL,NULL,NULL,NULL,12/01/2020 10:48:50,NULL,NULL,0,0
18526,12/01/2020 10:50:15,31,HR/EN/1612,11/30/2020 16:01:32,,NULL,in,NULL,NULL,0,15,NULL,NULL,,0,-1,NULL,NULL,NULL,NULL,12/01/2020 10:50:15,NULL,NULL,0,0
17764,12/01/2020 10:49:06,27,HR/EN/1634,11/30/2020 16:01:31,,NULL,in,NULL,NULL,0,15,NULL,NULL,,0,-1,NULL,NULL,NULL,NULL,12/01/2020 10:49:06,NULL,NULL,0,0
20566,12/01/2020 10:52:11,30,HR/EN/1432,11/30/2020 16:01:31,,NULL,out,NULL,NULL,4,15,NULL,NULL,,0,-1,NULL,NULL,NULL,NULL,12/01/2020 10:52:11,NULL,NULL,0,0
18525,12/01/2020 10:50:15,31,HR/EN/1612,11/30/2020 16:01:30,,NULL,in,NULL,NULL,0,15,NULL,NULL,,0,-1,NULL,NULL,NULL,NULL,12/01/2020 10:50:15,NULL,NULL,0,0
17691,12/01/2020 10:48:50,32,HR/EN/1703,11/30/2020 16:01:30,,NULL,in,NULL,NULL,0,15,NULL,NULL,,0,-1,NULL,NULL,NULL,NULL,12/01/2020 10:48:50,NULL,NULL,0,0
31457,12/01/2020 11:07:37,36,HR/EN/1593,11/30/2020 16:01:29,,NULL,in,NULL,NULL,0,15,NULL,NULL,,0,-1,NULL,NULL,NULL,NULL,12/01/2020 11:07:37,NULL,NULL,0,0
17763,12/01/2020 10:49:06,27,HR/EN/1634,11/30/2020 16:01:29,,NULL,in,NULL,NULL,0,15,NULL,NULL,,0,-1,NULL,NULL,NULL,NULL,12/01/2020 10:49:06,NULL,NULL,0,0
20565,12/01/2020 10:52:11,30,HR/EN/1432,11/30/2020 16:01:28,,NULL,out,NULL,NULL,4,15,NULL,NULL,,0,-1,NULL,NULL,NULL,NULL,12/01/2020 10:52:11,NULL,NULL,0,0
31456,12/01/2020 11:07:37,36,HR/EN/1593,11/30/2020 16:01:27,,NULL,in,NULL,NULL,0,15,NULL,NULL,,0,-1,NULL,NULL,NULL,NULL,12/01/2020 11:07:37,NULL,NULL,0,0
17690,12/01/2020 10:48:50,32,HR/EN/1703,11/30/2020 16:01:27,,NULL,in,NULL,NULL,0,15,NULL,NULL,,0,-1,NULL,NULL,NULL,NULL,12/01/2020 10:48:50,NULL,NULL,0,0
18524,12/01/2020 10:50:15,31,HR/EN/1612,11/30/2020 16:01:27,,NULL,in,NULL,NULL,0,15,NULL,NULL,,0,-1,NULL,NULL,NULL,NULL,12/01/2020 10:50:15,NULL,NULL,0,0
20564,12/01/2020 10:52:11,30,HR/EN/1432,11/30/2020 16:01:26,,NULL,out,NULL,NULL,4,15,NULL,NULL,,0,-1,NULL,NULL,NULL,NULL,12/01/2020 10:52:11,NULL,NULL,0,0
82367,12/01/2020 12:30:09,19,HR/EN/1360,11/30/2020 16:01:25,,NULL,in,NULL,NULL,0,15,NULL,NULL,,0,-1,NULL,NULL,NULL,NULL,12/01/2020 12:30:09,NULL,NULL,0,0
82366,12/01/2020 12:30:09,19,HR/EN/1360,11/30/2020 16:01:22,,NULL,in,NULL,NULL,0,15,NULL,NULL,,0,-1,NULL,NULL,NULL,NULL,12/01/2020 12:30:09,NULL,NULL,0,0
20563,12/01/2020 10:52:11,30,HR/EN/0503,11/30/2020 16:01:20,,NULL,out,NULL,NULL,4,15,NULL,NULL,,0,-1,NULL,NULL,NULL,NULL,12/01/2020 10:52:11,NULL,NULL,0,0
31455,12/01/2020 11:07:37,36,HR/EN/1593,11/30/2020 16:01:19,,NULL,in,NULL,NULL,0,15,NULL,NULL,,0,-1,NULL,NULL,NULL,NULL,12/01/2020 11:07:37,NULL,NULL,0,0
20562,12/01/2020 10:52:11,30,HR/EN/0503,11/30/2020 16:01:18,,NULL,out,NULL,NULL,4,15,NULL,NULL,,0,-1,NULL,NULL,NULL,NULL,12/01/2020 10:52:11,NULL,NULL,0,0
17689,12/01/2020 10:48:50,32,HR/EN/1709,11/30/2020 16:01:17,,NULL,in,NULL,NULL,0,15,NULL,NULL,,0,-1,NULL,NULL,NULL,NULL,12/01/2020 10:48:50,NULL,NULL,0,0
43760,12/01/2020 11:26:57,23,HR/EN/0233,11/30/2020 16:01:17,,NULL,in,NULL,NULL,0,15,NULL,NULL,,0,-1,NULL,NULL,NULL,NULL,12/01/2020 11:26:57,NULL,NULL,0,0
31454,12/01/2020 11:07:37,36,HR/EN/1593,11/30/2020 16:01:16,,NULL,in,NULL,NULL,0,15,NULL,NULL,,0,-1,NULL,NULL,NULL,NULL,12/01/2020 11:07:37,NULL,NULL,0,0
17688,12/01/2020 10:48:50,32,HR/EN/1709,11/30/2020 16:01:15,,NULL,in,NULL,NULL,0,15,NULL,NULL,,0,-1,NULL,NULL,NULL,NULL,12/01/2020 10:48:50,NULL,NULL,0,0
20561,12/01/2020 10:52:11,30,HR/EN/0503,11/30/2020 16:01:15,,NULL,out,NULL,NULL,4,15,NULL,NULL,,0,-1,NULL,NULL,NULL,NULL,12/01/2020 10:52:11,NULL,NULL,0,0
82365,12/01/2020 12:30:09,19,HR/EN/1547,11/30/2020 16:01:14,,NULL,in,NULL,NULL,0,15,NULL,NULL,,0,-1,NULL,NULL,NULL,NULL,12/01/2020 12:30:09,NULL,NULL,0,0
20560,12/01/2020 10:52:11,30,HR/EN/0503,11/30/2020 16:01:13,,NULL,out,NULL,NULL,4,15,NULL,NULL,,0,-1,NULL,NULL,NULL,NULL,12/01/2020 10:52:11,NULL,NULL,0,0
36973,12/01/2020 11:19:46,25,HR/EN/0077,11/30/2020 16:01:12,,NULL,in,NULL,NULL,0,15,NULL,NULL,,0,-1,NULL,NULL,NULL,NULL,12/01/2020 11:19:46,NULL,NULL,0,0
17687,12/01/2020 10:48:50,32,HR/EN/1709,11/30/2020 16:01:12,,NULL,in,NULL,NULL,0,15,NULL,NULL,,0,-1,NULL,NULL,NULL,NULL,12/01/2020 10:48:50,NULL,NULL,0,0
31453,12/01/2020 11:07:37,36,HR/EN/1593,11/30/2020 16:01:11,,NULL,in,NULL,NULL,0,15,NULL,NULL,,0,-1,NULL,NULL,NULL,NULL,12/01/2020 11:07:37,NULL,NULL,0,0
36972,12/01/2020 11:19:46,25,HR/EN/0077,11/30/2020 16:01:10,,NULL,in,NULL,NULL,0,15,NULL,NULL,,0,-1,NULL,NULL,NULL,NULL,12/01/2020 11:19:46,NULL,NULL,0,0
82364,12/01/2020 12:30:09,19,HR/EN/1547,11/30/2020 16:01:10,,NULL,in,NULL,NULL,0,15,NULL,NULL,,0,-1,NULL,NULL,NULL,NULL,12/01/2020 12:30:09,NULL,NULL,0,0
43759,12/01/2020 11:26:57,23,HR/EN/1710,11/30/2020 16:01:09,,NULL,in,NULL,NULL,0,15,NULL,NULL,,0,-1,NULL,NULL,NULL,NULL,12/01/2020 11:26:57,NULL,NULL,0,0
20559,12/01/2020 10:52:11,30,HR/EN/0239,11/30/2020 16:01:08,,NULL,out,NULL,NULL,4,15,NULL,NULL,,0,-1,NULL,NULL,NULL,NULL,12/01/2020 10:52:11,NULL,NULL,0,0
17686,12/01/2020 10:48:50,32,HR/EN/1699,11/30/2020 16:01:07,,NULL,in,NULL,NULL,0,15,NULL,NULL,,0,-1,NULL,NULL,NULL,NULL,12/01/2020 10:48:50,NULL,NULL,0,0
43758,12/01/2020 11:26:57,23,HR/EN/1710,11/30/2020 16:01:06,,NULL,in,NULL,NULL,0,15,NULL,NULL,,0,-1,NULL,NULL,NULL,NULL,12/01/2020 11:26:57,NULL,NULL,0,0
82363,12/01/2020 12:30:09,19,HR/EN/0447,11/30/2020 16:01:05,,NULL,in,NULL,NULL,0,15,NULL,NULL,,0,-1,NULL,NULL,NULL,NULL,12/01/2020 12:30:09,NULL,NULL,0,0
20558,12/01/2020 10:52:11,30,HR/EN/0239,11/30/2020 16:01:05,,NULL,out,NULL,NULL,4,15,NULL,NULL,,0,-1,NULL,NULL,NULL,NULL,12/01/2020 10:52:11,NULL,NULL,0,0
17685,12/01/2020 10:48:50,32,HR/EN/1699,11/30/2020 16:01:05,,NULL,in,NULL,NULL,0,15,NULL,NULL,,0,-1,NULL,NULL,NULL,NULL,12/01/2020 10:48:50,NULL,NULL,0,0
43757,12/01/2020 11:26:57,23,HR/EN/1710,11/30/2020 16:01:04,,NULL,in,NULL,NULL,0,15,NULL,NULL,,0,-1,NULL,NULL,NULL,NULL,12/01/2020 11:26:57,NULL,NULL,0,0
82362,12/01/2020 12:30:09,19,HR/EN/0447,11/30/2020 16:01:02,,NULL,in,NULL,NULL,0,15,NULL,NULL,,0,-1,NULL,NULL,NULL,NULL,12/01/2020 12:30:09,NULL,NULL,0,0
31452,12/01/2020 11:07:37,36,HR/EN/1254,11/30/2020 16:01:01,,NULL,in,NULL,NULL,0,15,NULL,NULL,,0,-1,NULL,NULL,NULL,NULL,12/01/2020 11:07:37,NULL,NULL,0,0
31451,12/01/2020 11:07:37,36,HR/EN/1254,11/30/2020 16:00:59,,NULL,in,NULL,NULL,0,15,NULL,NULL,,0,-1,NULL,NULL,NULL,NULL,12/01/2020 11:07:37,NULL,NULL,0,0
43756,12/01/2020 11:26:57,23,HR/EN/0701,11/30/2020 16:00:57,,NULL,in,NULL,NULL,0,15,NULL,NULL,,0,-1,NULL,NULL,NULL,NULL,12/01/2020 11:26:57,NULL,NULL,0,0
82361,12/01/2020 12:30:09,19,HR/EN/1342,11/30/2020 16:00:56,,NULL,in,NULL,NULL,0,15,NULL,NULL,,0,-1,NULL,NULL,NULL,NULL,12/01/2020 12:30:09,NULL,NULL,0,0
43755,12/01/2020 11:26:57,23,HR/EN/0701,11/30/2020 16:00:54,,NULL,in,NULL,NULL,0,15,NULL,NULL,,0,-1,NULL,NULL,NULL,NULL,12/01/2020 11:26:57,NULL,NULL,0,0
82360,12/01/2020 12:30:09,19,HR/EN/1342,11/30/2020 16:00:53,,NULL,in,NULL,NULL,0,15,NULL,NULL,,0,-1,NULL,NULL,NULL,NULL,12/01/2020 12:30:09,NULL,NULL,0,0
31450,12/01/2020 11:07:37,36,HR/EN/1254,11/30/2020 16:00:52,,NULL,in,NULL,NULL,0,15,NULL,NULL,,0,-1,NULL,NULL,NULL,NULL,12/01/2020 11:07:37,NULL,NULL,0,0
43754,12/01/2020 11:26:57,23,HR/EN/0701,11/30/2020 16:00:52,,NULL,in,NULL,NULL,0,15,NULL,NULL,,0,-1,NULL,NULL,NULL,NULL,12/01/2020 11:26:57,NULL,NULL,0,0
82359,12/01/2020 12:30:09,19,HR/EN/1502,11/30/2020 16:00:47,,NULL,in,NULL,NULL,0,15,NULL,NULL,,0,-1,NULL,NULL,NULL,NULL,12/01/2020 12:30:09,NULL,NULL,0,0
82358,12/01/2020 12:30:09,19,HR/EN/1502,11/30/2020 16:00:44,,NULL,in,NULL,NULL,0,15,NULL,NULL,,0,-1,NULL,NULL,NULL,NULL,12/01/2020 12:30:09,NULL,NULL,0,0
43753,12/01/2020 11:26:57,23,HR/EN/0802,11/30/2020 16:00:44,,NULL,in,NULL,NULL,0,15,NULL,NULL,,0,-1,NULL,NULL,NULL,NULL,12/01/2020 11:26:57,NULL,NULL,0,0
43752,12/01/2020 11:26:57,23,HR/EN/0802,11/30/2020 16:00:42,,NULL,in,NULL,NULL,0,15,NULL,NULL,,0,-1,NULL,NULL,NULL,NULL,12/01/2020 11:26:57,NULL,NULL,0,0
82357,12/01/2020 12:30:09,19,HR/EN/1623,11/30/2020 16:00:40,,NULL,in,NULL,NULL,0,15,NULL,NULL,,0,-1,NULL,NULL,NULL,NULL,12/01/2020 12:30:09,NULL,NULL,0,0
31449,12/01/2020 11:07:37,36,HR/EN/0035,11/30/2020 16:00:40,,NULL,in,NULL,NULL,0,15,NULL,NULL,,0,-1,NULL,NULL,NULL,NULL,12/01/2020 11:07:37,NULL,NULL,0,0
31448,12/01/2020 11:07:37,36,HR/EN/0035,11/30/2020 16:00:38,,NULL,in,NULL,NULL,0,15,NULL,NULL,,0,-1,NULL,NULL,NULL,NULL,12/01/2020 11:07:37,NULL,NULL,0,0
82356,12/01/2020 12:30:09,19,HR/EN/1623,11/30/2020 16:00:36,,NULL,in,NULL,NULL,0,15,NULL,NULL,,0,-1,NULL,NULL,NULL,NULL,12/01/2020 12:30:09,NULL,NULL,0,0
43751,12/01/2020 11:26:57,23,HR/EN/1274,11/30/2020 16:00:35,,NULL,in,NULL,NULL,0,15,NULL,NULL,,0,-1,NULL,NULL,NULL,NULL,12/01/2020 11:26:57,NULL,NULL,0,0
31447,12/01/2020 11:07:37,36,HR/EN/0035,11/30/2020 16:00:35,,NULL,in,NULL,NULL,0,15,NULL,NULL,,0,-1,NULL,NULL,NULL,NULL,12/01/2020 11:07:37,NULL,NULL,0,0
31446,12/01/2020 11:07:37,36,HR/EN/0035,11/30/2020 16:00:33,,NULL,in,NULL,NULL,0,15,NULL,NULL,,0,-1,NULL,NULL,NULL,NULL,12/01/2020 11:07:37,NULL,NULL,0,0
43750,12/01/2020 11:26:57,23,HR/EN/1274,11/30/2020 16:00:33,,NULL,in,NULL,NULL,0,15,NULL,NULL,,0,-1,NULL,NULL,NULL,NULL,12/01/2020 11:26:57,NULL,NULL,0,0
31445,12/01/2020 11:07:37,36,HR/EN/0035,11/30/2020 16:00:31,,NULL,in,NULL,NULL,0,15,NULL,NULL,,0,-1,NULL,NULL,NULL,NULL,12/01/2020 11:07:37,NULL,NULL,0,0
82355,12/01/2020 12:30:09,19,HR/EN/0368,11/30/2020 16:00:30,,NULL,in,NULL,NULL,0,15,NULL,NULL,,0,-1,NULL,NULL,NULL,NULL,12/01/2020 12:30:09,NULL,NULL,0,0
43749,12/01/2020 11:26:57,23,HR/EN/0233,11/30/2020 16:00:28,,NULL,in,NULL,NULL,0,15,NULL,NULL,,0,-1,NULL,NULL,NULL,NULL,12/01/2020 11:26:57,NULL,NULL,0,0
82354,12/01/2020 12:30:09,19,HR/EN/0368,11/30/2020 16:00:27,,NULL,in,NULL,NULL,0,15,NULL,NULL,,0,-1,NULL,NULL,NULL,NULL,12/01/2020 12:30:09,NULL,NULL,0,0
43748,12/01/2020 11:26:54,23,HR/EN/0233,11/30/2020 16:00:26,,NULL,in,NULL,NULL,0,15,NULL,NULL,,0,-1,NULL,NULL,NULL,NULL,12/01/2020 11:26:54,NULL,NULL,0,0
31444,12/01/2020 11:07:37,36,HR/EN/0065,11/30/2020 16:00:26,,NULL,in,NULL,NULL,0,15,NULL,NULL,,0,-1,NULL,NULL,NULL,NULL,12/01/2020 11:07:37,NULL,NULL,0,0
31443,12/01/2020 11:07:37,36,HR/EN/0065,11/30/2020 16:00:24,,NULL,in,NULL,NULL,0,15,NULL,NULL,,0,-1,NULL,NULL,NULL,NULL,12/01/2020 11:07:37,NULL,NULL,0,0
43747,12/01/2020 11:26:54,23,HR/EN/1713,11/30/2020 16:00:24,,NULL,in,NULL,NULL,0,15,NULL,NULL,,0,-1,NULL,NULL,NULL,NULL,12/01/2020 11:26:54,NULL,NULL,0,0
43746,12/01/2020 11:26:54,23,HR/EN/1713,11/30/2020 16:00:22,,NULL,in,NULL,NULL,0,15,NULL,NULL,,0,-1,NULL,NULL,NULL,NULL,12/01/2020 11:26:54,NULL,NULL,0,0
31442,12/01/2020 11:07:37,36,HR/EN/0065,11/30/2020 16:00:21,,NULL,in,NULL,NULL,0,15,NULL,NULL,,0,-1,NULL,NULL,NULL,NULL,12/01/2020 11:07:37,NULL,NULL,0,0
31441,12/01/2020 11:07:37,36,HR/EN/0065,11/30/2020 16:00:19,,NULL,in,NULL,NULL,0,15,NULL,NULL,,0,-1,NULL,NULL,NULL,NULL,12/01/2020 11:07:37,NULL,NULL,0,0
82353,12/01/2020 12:30:09,19,HR/EN/1670,11/30/2020 16:00:19,,NULL,in,NULL,NULL,0,15,NULL,NULL,,0,-1,NULL,NULL,NULL,NULL,12/01/2020 12:30:09,NULL,NULL,0,0
31440,12/01/2020 11:07:37,36,HR/EN/0065,11/30/2020 16:00:17,,NULL,in,NULL,NULL,0,15,NULL,NULL,,0,-1,NULL,NULL,NULL,NULL,12/01/2020 11:07:37,NULL,NULL,0,0
43745,12/01/2020 11:26:54,23,HR/EN/1713,11/30/2020 16:00:17,,NULL,in,NULL,NULL,0,15,NULL,NULL,,0,-1,NULL,NULL,NULL,NULL,12/01/2020 11:26:54,NULL,NULL,0,0
82352,12/01/2020 12:30:09,19,HR/EN/1670,11/30/2020 16:00:16,,NULL,in,NULL,NULL,0,15,NULL,NULL,,0,-1,NULL,NULL,NULL,NULL,12/01/2020 12:30:09,NULL,NULL,0,0
31439,12/01/2020 11:07:37,36,HR/EN/0065,11/30/2020 16:00:15,,NULL,in,NULL,NULL,0,15,NULL,NULL,,0,-1,NULL,NULL,NULL,NULL,12/01/2020 11:07:37,NULL,NULL,0,0
43744,12/01/2020 11:26:54,23,HR/EN/0058,11/30/2020 16:00:09,,NULL,in,NULL,NULL,0,15,NULL,NULL,,0,-1,NULL,NULL,NULL,NULL,12/01/2020 11:26:54,NULL,NULL,0,0
43743,12/01/2020 11:26:54,23,HR/EN/0058,11/30/2020 16:00:07,,NULL,in,NULL,NULL,0,15,NULL,NULL,,0,-1,NULL,NULL,NULL,NULL,12/01/2020 11:26:54,NULL,NULL,0,0
82351,12/01/2020 12:30:09,19,HR/EN/1609,11/30/2020 16:00:07,,NULL,in,NULL,NULL,0,15,NULL,NULL,,0,-1,NULL,NULL,NULL,NULL,12/01/2020 12:30:09,NULL,NULL,0,0
43742,12/01/2020 11:26:54,23,HR/EN/0058,11/30/2020 16:00:05,,NULL,in,NULL,NULL,0,15,NULL,NULL,,0,-1,NULL,NULL,NULL,NULL,12/01/2020 11:26:54,NULL,NULL,0,0
82350,12/01/2020 12:30:09,19,HR/EN/1609,11/30/2020 16:00:03,,NULL,in,NULL,NULL,0,15,NULL,NULL,,0,-1,NULL,NULL,NULL,NULL,12/01/2020 12:30:09,NULL,NULL,0,0
82349,12/01/2020 12:30:09,19,HR/EN/1746,11/30/2020 15:23:34,,NULL,in,NULL,NULL,0,15,NULL,NULL,,0,-1,NULL,NULL,NULL,NULL,12/01/2020 12:30:09,NULL,NULL,0,0
82348,12/01/2020 12:30:09,19,HR/EN/1746,11/30/2020 15:23:31,,NULL,in,NULL,NULL,0,15,NULL,NULL,,0,-1,NULL,NULL,NULL,NULL,12/01/2020 12:30:09,NULL,NULL,0,0
82347,12/01/2020 12:30:05,19,HR/EN/1523,11/30/2020 15:06:08,,NULL,in,NULL,NULL,0,15,NULL,NULL,,0,-1,NULL,NULL,NULL,NULL,12/01/2020 12:30:05,NULL,NULL,0,0
22254,12/01/2020 10:54:03,33,HR/EN/1737,11/30/2020 13:32:00,,NULL,in,NULL,NULL,0,15,NULL,NULL,,0,-1,NULL,NULL,NULL,NULL,12/01/2020 10:54:03,NULL,NULL,0,0
22253,12/01/2020 10:54:03,33,HR/EN/1083,11/30/2020 13:29:57,,NULL,in,NULL,NULL,0,15,NULL,NULL,,0,-1,NULL,NULL,NULL,NULL,12/01/2020 10:54:03,NULL,NULL,0,0
22252,12/01/2020 10:54:03,33,HR/EN/0554,11/30/2020 13:29:37,,NULL,in,NULL,NULL,0,15,NULL,NULL,,0,-1,NULL,NULL,NULL,NULL,12/01/2020 10:54:03,NULL,NULL,0,0
22251,12/01/2020 10:54:03,33,HR/EN/1677,11/30/2020 13:29:33,,NULL,in,NULL,NULL,0,15,NULL,NULL,,0,-1,NULL,NULL,NULL,NULL,12/01/2020 10:54:03,NULL,NULL,0,0
22250,12/01/2020 10:54:03,33,HR/EN/0554,11/30/2020 13:29:18,,NULL,in,NULL,NULL,0,15,NULL,NULL,,0,-1,NULL,NULL,NULL,NULL,12/01/2020 10:54:03,NULL,NULL,0,0
22249,12/01/2020 10:54:03,33,HR/EN/1247,11/30/2020 13:29:03,,NULL,in,NULL,NULL,0,15,NULL,NULL,,0,-1,NULL,NULL,NULL,NULL,12/01/2020 10:54:03,NULL,NULL,0,0
22248,12/01/2020 10:54:03,33,HR/EN/0124,11/30/2020 13:28:52,,NULL,in,NULL,NULL,0,15,NULL,NULL,,0,-1,NULL,NULL,NULL,NULL,12/01/2020 10:54:03,NULL,NULL,0,0
22247,12/01/2020 10:54:03,33,HR/EN/0124,11/30/2020 13:28:50,,NULL,in,NULL,NULL,0,15,NULL,NULL,,0,-1,NULL,NULL,NULL,NULL,12/01/2020 10:54:03,NULL,NULL,0,0
22246,12/01/2020 10:54:03,33,HR/EN/0081,11/30/2020 13:28:41,,NULL,in,NULL,NULL,0,15,NULL,NULL,,0,-1,NULL,NULL,NULL,NULL,12/01/2020 10:54:03,NULL,NULL,0,0
22245,12/01/2020 10:54:03,33,HR/EN/0034,11/30/2020 13:28:34,,NULL,in,NULL,NULL,0,15,NULL,NULL,,0,-1,NULL,NULL,NULL,NULL,12/01/2020 10:54:03,NULL,NULL,0,0
22244,12/01/2020 10:54:03,33,HR/EN/0034,11/30/2020 13:28:32,,NULL,in,NULL,NULL,0,15,NULL,NULL,,0,-1,NULL,NULL,NULL,NULL,12/01/2020 10:54:03,NULL,NULL,0,0
22243,12/01/2020 10:54:03,33,HR/EN/0799,11/30/2020 13:28:27,,NULL,in,NULL,NULL,0,15,NULL,NULL,,0,-1,NULL,NULL,NULL,NULL,12/01/2020 10:54:03,NULL,NULL,0,0
22242,12/01/2020 10:54:03,33,HR/EN/0799,11/30/2020 13:28:25,,NULL,in,NULL,NULL,0,15,NULL,NULL,,0,-1,NULL,NULL,NULL,NULL,12/01/2020 10:54:03,NULL,NULL,0,0
22241,12/01/2020 10:54:03,33,HR/EN/1587,11/30/2020 13:27:09,,NULL,in,NULL,NULL,0,15,NULL,NULL,,0,-1,NULL,NULL,NULL,NULL,12/01/2020 10:54:03,NULL,NULL,0,0
22240,12/01/2020 10:54:03,33,HR/EN/0022,11/30/2020 13:25:01,,NULL,in,NULL,NULL,0,15,NULL,NULL,,0,-1,NULL,NULL,NULL,NULL,12/01/2020 10:54:03,NULL,NULL,0,0
22239,12/01/2020 10:54:02,33,HR/EN/1254,11/30/2020 13:24:26,,NULL,in,NULL,NULL,0,15,NULL,NULL,,0,-1,NULL,NULL,NULL,NULL,12/01/2020 10:54:02,NULL,NULL,0,0
82346,12/01/2020 12:30:05,19,HR/EN/1746,11/30/2020 13:23:56,,NULL,in,NULL,NULL,0,15,NULL,NULL,,0,-1,NULL,NULL,NULL,NULL,12/01/2020 12:30:05,NULL,NULL,0,0
22238,12/01/2020 10:54:02,33,HR/EN/0033,11/30/2020 13:23:55,,NULL,in,NULL,NULL,0,15,NULL,NULL,,0,-1,NULL,NULL,NULL,NULL,12/01/2020 10:54:02,NULL,NULL,0,0
82345,12/01/2020 12:30:05,19,HR/EN/1746,11/30/2020 13:23:53,,NULL,in,NULL,NULL,0,15,NULL,NULL,,0,-1,NULL,NULL,NULL,NULL,12/01/2020 12:30:05,NULL,NULL,0,0
22237,12/01/2020 10:54:02,33,HR/EN/0131,11/30/2020 13:23:46,,NULL,in,NULL,NULL,0,15,NULL,NULL,,0,-1,NULL,NULL,NULL,NULL,12/01/2020 10:54:02,NULL,NULL,0,0
22236,12/01/2020 10:54:02,33,HR/EN/0131,11/30/2020 13:23:44,,NULL,in,NULL,NULL,0,15,NULL,NULL,,0,-1,NULL,NULL,NULL,NULL,12/01/2020 10:54:02,NULL,NULL,0,0
22235,12/01/2020 10:54:02,33,HR/EN/0402,11/30/2020 13:23:15,,NULL,in,NULL,NULL,0,15,NULL,NULL,,0,-1,NULL,NULL,NULL,NULL,12/01/2020 10:54:02,NULL,NULL,0,0
22234,12/01/2020 10:54:02,33,HR/EN/0402,11/30/2020 13:23:13,,NULL,in,NULL,NULL,0,15,NULL,NULL,,0,-1,NULL,NULL,NULL,NULL,12/01/2020 10:54:02,NULL,NULL,0,0
22233,12/01/2020 10:54:02,33,1688,11/30/2020 13:22:15,,NULL,in,NULL,NULL,0,15,NULL,NULL,,0,-1,NULL,NULL,NULL,NULL,12/01/2020 10:54:02,NULL,NULL,0,0
22232,12/01/2020 10:54:02,33,HR/EN/0641,11/30/2020 13:21:51,,NULL,in,NULL,NULL,0,15,NULL,NULL,,0,-1,NULL,NULL,NULL,NULL,12/01/2020 10:54:02,NULL,NULL,0,0
22231,12/01/2020 10:54:02,33,HR/EN/0123,11/30/2020 13:21:45,,NULL,in,NULL,NULL,0,15,NULL,NULL,,0,-1,NULL,NULL,NULL,NULL,12/01/2020 10:54:02,NULL,NULL,0,0
22230,12/01/2020 10:54:02,33,HR/EN/0123,11/30/2020 13:21:43,,NULL,in,NULL,NULL,0,15,NULL,NULL,,0,-1,NULL,NULL,NULL,NULL,12/01/2020 10:54:02,NULL,NULL,0,0
22229,12/01/2020 10:54:02,33,HR/EN/0039,11/30/2020 13:19:34,,NULL,in,NULL,NULL,0,15,NULL,NULL,,0,-1,NULL,NULL,NULL,NULL,12/01/2020 10:54:02,NULL,NULL,0,0
22228,12/01/2020 10:54:02,33,HR/EN/0039,11/30/2020 13:19:32,,NULL,in,NULL,NULL,0,15,NULL,NULL,,0,-1,NULL,NULL,NULL,NULL,12/01/2020 10:54:02,NULL,NULL,0,0
22227,12/01/2020 10:54:02,33,HR/EN/0039,11/30/2020 13:19:29,,NULL,in,NULL,NULL,0,15,NULL,NULL,,0,-1,NULL,NULL,NULL,NULL,12/01/2020 10:54:02,NULL,NULL,0,0
22226,12/01/2020 10:54:02,33,HR/EN/1681,11/30/2020 13:17:40,,NULL,in,NULL,NULL,0,15,NULL,NULL,,0,-1,NULL,NULL,NULL,NULL,12/01/2020 10:54:02,NULL,NULL,0,0
22225,12/01/2020 10:54:02,33,HR/EN/1601,11/30/2020 13:13:15,,NULL,in,NULL,NULL,0,15,NULL,NULL,,0,-1,NULL,NULL,NULL,NULL,12/01/2020 10:54:02,NULL,NULL,0,0
22224,12/01/2020 10:54:02,33,HR/EN/1598,11/30/2020 13:12:49,,NULL,in,NULL,NULL,0,15,NULL,NULL,,0,-1,NULL,NULL,NULL,NULL,12/01/2020 10:54:02,NULL,NULL,0,0
22223,12/01/2020 10:54:02,33,HR/EN/1598,11/30/2020 13:12:47,,NULL,in,NULL,NULL,0,15,NULL,NULL,,0,-1,NULL,NULL,NULL,NULL,12/01/2020 10:54:02,NULL,NULL,0,0
22222,12/01/2020 10:54:02,33,HR/EN/0080,11/30/2020 13:11:40,,NULL,in,NULL,NULL,0,15,NULL,NULL,,0,-1,NULL,NULL,NULL,NULL,12/01/2020 10:54:02,NULL,NULL,0,0
22221,12/01/2020 10:54:02,33,HR/EN/0080,11/30/2020 13:11:38,,NULL,in,NULL,NULL,0,15,NULL,NULL,,0,-1,NULL,NULL,NULL,NULL,12/01/2020 10:54:02,NULL,NULL,0,0
22220,12/01/2020 10:54:02,33,HR/EN/0464,11/30/2020 13:11:33,,NULL,in,NULL,NULL,0,15,NULL,NULL,,0,-1,NULL,NULL,NULL,NULL,12/01/2020 10:54:02,NULL,NULL,0,0
22219,12/01/2020 10:54:02,33,HR/EN/0464,11/30/2020 13:11:31,,NULL,in,NULL,NULL,0,15,NULL,NULL,,0,-1,NULL,NULL,NULL,NULL,12/01/2020 10:54:02,NULL,NULL,0,0
22218,12/01/2020 10:54:02,33,HR/EN/0977,11/30/2020 13:05:48,,NULL,in,NULL,NULL,0,15,NULL,NULL,,0,-1,NULL,NULL,NULL,NULL,12/01/2020 10:54:02,NULL,NULL,0,0
22217,12/01/2020 10:53:59,33,HR/EN/0977,11/30/2020 13:05:45,,NULL,in,NULL,NULL,0,15,NULL,NULL,,0,-1,NULL,NULL,NULL,NULL,12/01/2020 10:53:59,NULL,NULL,0,0
22216,12/01/2020 10:53:59,33,HR/EN/1253,11/30/2020 13:05:26,,NULL,in,NULL,NULL,0,15,NULL,NULL,,0,-1,NULL,NULL,NULL,NULL,12/01/2020 10:53:59,NULL,NULL,0,0
22215,12/01/2020 10:53:59,33,HR/EN/1253,11/30/2020 13:05:24,,NULL,in,NULL,NULL,0,15,NULL,NULL,,0,-1,NULL,NULL,NULL,NULL,12/01/2020 10:53:59,NULL,NULL,0,0
22214,12/01/2020 10:53:59,33,HR/EN/1597,11/30/2020 13:05:14,,NULL,in,NULL,NULL,0,15,NULL,NULL,,0,-1,NULL,NULL,NULL,NULL,12/01/2020 10:53:59,NULL,NULL,0,0
22213,12/01/2020 10:53:59,33,HR/EN/1597,11/30/2020 13:05:12,,NULL,in,NULL,NULL,0,15,NULL,NULL,,0,-1,NULL,NULL,NULL,NULL,12/01/2020 10:53:59,NULL,NULL,0,0
22212,12/01/2020 10:53:59,33,HR/EN/1535,11/30/2020 13:05:08,,NULL,in,NULL,NULL,0,15,NULL,NULL,,0,-1,NULL,NULL,NULL,NULL,12/01/2020 10:53:59,NULL,NULL,0,0
22211,12/01/2020 10:53:59,33,HR/EN/1254,11/30/2020 13:04:25,,NULL,in,NULL,NULL,0,15,NULL,NULL,,0,-1,NULL,NULL,NULL,NULL,12/01/2020 10:53:59,NULL,NULL,0,0
22210,12/01/2020 10:53:59,33,HR/EN/1241,11/30/2020 12:57:14,,NULL,in,NULL,NULL,0,15,NULL,NULL,,0,-1,NULL,NULL,NULL,NULL,12/01/2020 10:53:59,NULL,NULL,0,0
22209,12/01/2020 10:53:59,33,HR/EN/0464,11/30/2020 12:54:30,,NULL,in,NULL,NULL,0,15,NULL,NULL,,0,-1,NULL,NULL,NULL,NULL,12/01/2020 10:53:59,NULL,NULL,0,0
22208,12/01/2020 10:53:59,33,HR/EN/0977,11/30/2020 12:50:13,,NULL,in,NULL,NULL,0,15,NULL,NULL,,0,-1,NULL,NULL,NULL,NULL,12/01/2020 10:53:59,NULL,NULL,0,0
22207,12/01/2020 10:53:59,33,HR/EN/0977,11/30/2020 12:50:11,,NULL,in,NULL,NULL,0,15,NULL,NULL,,0,-1,NULL,NULL,NULL,NULL,12/01/2020 10:53:59,NULL,NULL,0,0
22206,12/01/2020 10:53:59,33,HR/EN/0402,11/30/2020 12:48:44,,NULL,in,NULL,NULL,0,15,NULL,NULL,,0,-1,NULL,NULL,NULL,NULL,12/01/2020 10:53:59,NULL,NULL,0,0
22205,12/01/2020 10:53:59,33,HR/EN/1247,11/30/2020 12:48:31,,NULL,in,NULL,NULL,0,15,NULL,NULL,,0,-1,NULL,NULL,NULL,NULL,12/01/2020 10:53:59,NULL,NULL,0,0
22204,12/01/2020 10:53:59,33,HR/EN/1247,11/30/2020 12:48:29,,NULL,in,NULL,NULL,0,15,NULL,NULL,,0,-1,NULL,NULL,NULL,NULL,12/01/2020 10:53:59,NULL,NULL,0,0
22203,12/01/2020 10:53:59,33,HR/EN/1681,11/30/2020 12:47:43,,NULL,in,NULL,NULL,0,15,NULL,NULL,,0,-1,NULL,NULL,NULL,NULL,12/01/2020 10:53:59,NULL,NULL,0,0
22202,12/01/2020 10:53:59,33,HR/EN/1598,11/30/2020 12:45:46,,NULL,in,NULL,NULL,0,15,NULL,NULL,,0,-1,NULL,NULL,NULL,NULL,12/01/2020 10:53:59,NULL,NULL,0,0
22201,12/01/2020 10:53:59,33,HR/EN/1598,11/30/2020 12:45:44,,NULL,in,NULL,NULL,0,15,NULL,NULL,,0,-1,NULL,NULL,NULL,NULL,12/01/2020 10:53:59,NULL,NULL,0,0
22200,12/01/2020 10:53:59,33,HR/EN/1597,11/30/2020 12:45:11,,NULL,in,NULL,NULL,0,15,NULL,NULL,,0,-1,NULL,NULL,NULL,NULL,12/01/2020 10:53:59,NULL,NULL,0,0
22199,12/01/2020 10:53:59,33,HR/EN/1597,11/30/2020 12:45:09,,NULL,in,NULL,NULL,0,15,NULL,NULL,,0,-1,NULL,NULL,NULL,NULL,12/01/2020 10:53:59,NULL,NULL,0,0
22198,12/01/2020 10:53:59,33,HR/EN/1253,11/30/2020 12:45:03,,NULL,in,NULL,NULL,0,15,NULL,NULL,,0,-1,NULL,NULL,NULL,NULL,12/01/2020 10:53:59,NULL,NULL,0,0
22197,12/01/2020 10:53:59,33,HR/EN/0080,11/30/2020 12:44:53,,NULL,in,NULL,NULL,0,15,NULL,NULL,,0,-1,NULL,NULL,NULL,NULL,12/01/2020 10:53:59,NULL,NULL,0,0
22196,12/01/2020 10:53:59,33,HR/EN/0554,11/30/2020 12:44:34,,NULL,in,NULL,NULL,0,15,NULL,NULL,,0,-1,NULL,NULL,NULL,NULL,12/01/2020 10:53:59,NULL,NULL,0,0
22195,12/01/2020 10:53:59,33,HR/EN/0554,11/30/2020 12:44:23,,NULL,in,NULL,NULL,0,15,NULL,NULL,,0,-1,NULL,NULL,NULL,NULL,12/01/2020 10:53:59,NULL,NULL,0,0
22194,12/01/2020 10:53:59,33,HR/EN/0022,11/30/2020 12:43:59,,NULL,in,NULL,NULL,0,15,NULL,NULL,,0,-1,NULL,NULL,NULL,NULL,12/01/2020 10:53:59,NULL,NULL,0,0
22193,12/01/2020 10:53:59,33,HR/EN/1587,11/30/2020 12:43:53,,NULL,in,NULL,NULL,0,15,NULL,NULL,,0,-1,NULL,NULL,NULL,NULL,12/01/2020 10:53:59,NULL,NULL,0,0
22192,12/01/2020 10:53:59,33,HR/EN/1535,11/30/2020 12:42:03,,NULL,in,NULL,NULL,0,15,NULL,NULL,,0,-1,NULL,NULL,NULL,NULL,12/01/2020 10:53:59,NULL,NULL,0,0
22191,12/01/2020 10:53:59,33,HR/EN/1601,11/30/2020 12:41:48,,NULL,in,NULL,NULL,0,15,NULL,NULL,,0,-1,NULL,NULL,NULL,NULL,12/01/2020 10:53:59,NULL,NULL,0,0
22190,12/01/2020 10:53:59,33,HR/EN/1241,11/30/2020 12:41:42,,NULL,in,NULL,NULL,0,15,NULL,NULL,,0,-1,NULL,NULL,NULL,NULL,12/01/2020 10:53:59,NULL,NULL,0,0
22189,12/01/2020 10:53:59,33,1688,11/30/2020 12:41:36,,NULL,in,NULL,NULL,0,15,NULL,NULL,,0,-1,NULL,NULL,NULL,NULL,12/01/2020 10:53:59,NULL,NULL,0,0
22188,12/01/2020 10:53:59,33,HR/EN/0039,11/30/2020 12:41:24,,NULL,in,NULL,NULL,0,15,NULL,NULL,,0,-1,NULL,NULL,NULL,NULL,12/01/2020 10:53:59,NULL,NULL,0,0
22187,12/01/2020 10:53:59,33,HR/EN/0039,11/30/2020 12:41:21,,NULL,in,NULL,NULL,0,15,NULL,NULL,,0,-1,NULL,NULL,NULL,NULL,12/01/2020 10:53:59,NULL,NULL,0,0
22186,12/01/2020 10:53:59,33,HR/EN/1737,11/30/2020 12:41:14,,NULL,in,NULL,NULL,0,15,NULL,NULL,,0,-1,NULL,NULL,NULL,NULL,12/01/2020 10:53:59,NULL,NULL,0,0
22185,12/01/2020 10:53:59,33,HR/EN/0641,11/30/2020 12:41:10,,NULL,in,NULL,NULL,0,15,NULL,NULL,,0,-1,NULL,NULL,NULL,NULL,12/01/2020 10:53:59,NULL,NULL,0,0
22184,12/01/2020 10:53:59,33,HR/EN/0799,11/30/2020 12:41:03,,NULL,in,NULL,NULL,0,15,NULL,NULL,,0,-1,NULL,NULL,NULL,NULL,12/01/2020 10:53:59,NULL,NULL,0,0
22183,12/01/2020 10:53:59,33,HR/EN/1667,11/30/2020 12:40:50,,NULL,in,NULL,NULL,0,15,NULL,NULL,,0,-1,NULL,NULL,NULL,NULL,12/01/2020 10:53:59,NULL,NULL,0,0
22182,12/01/2020 10:53:59,33,HR/EN/0034,11/30/2020 12:40:43,,NULL,in,NULL,NULL,0,15,NULL,NULL,,0,-1,NULL,NULL,NULL,NULL,12/01/2020 10:53:59,NULL,NULL,0,0
22181,12/01/2020 10:53:59,33,HR/EN/0034,11/30/2020 12:40:41,,NULL,in,NULL,NULL,0,15,NULL,NULL,,0,-1,NULL,NULL,NULL,NULL,12/01/2020 10:53:59,NULL,NULL,0,0
22180,12/01/2020 10:53:59,33,HR/EN/0081,11/30/2020 12:40:32,,NULL,in,NULL,NULL,0,15,NULL,NULL,,0,-1,NULL,NULL,NULL,NULL,12/01/2020 10:53:59,NULL,NULL,0,0
22179,12/01/2020 10:53:59,33,HR/EN/1083,11/30/2020 12:40:26,,NULL,in,NULL,NULL,0,15,NULL,NULL,,0,-1,NULL,NULL,NULL,NULL,12/01/2020 10:53:59,NULL,NULL,0,0
22178,12/01/2020 10:53:59,33,HR/EN/0131,11/30/2020 12:40:22,,NULL,in,NULL,NULL,0,15,NULL,NULL,,0,-1,NULL,NULL,NULL,NULL,12/01/2020 10:53:59,NULL,NULL,0,0
22177,12/01/2020 10:53:59,33,HR/EN/0131,11/30/2020 12:40:20,,NULL,in,NULL,NULL,0,15,NULL,NULL,,0,-1,NULL,NULL,NULL,NULL,12/01/2020 10:53:59,NULL,NULL,0,0
22176,12/01/2020 10:53:59,33,HR/EN/0124,11/30/2020 12:40:15,,NULL,in,NULL,NULL,0,15,NULL,NULL,,0,-1,NULL,NULL,NULL,NULL,12/01/2020 10:53:59,NULL,NULL,0,0
22175,12/01/2020 10:53:55,33,HR/EN/0033,11/30/2020 12:40:10,,NULL,in,NULL,NULL,0,15,NULL,NULL,,0,-1,NULL,NULL,NULL,NULL,12/01/2020 10:53:55,NULL,NULL,0,0
22174,12/01/2020 10:53:55,33,HR/EN/0123,11/30/2020 12:40:05,,NULL,in,NULL,NULL,0,15,NULL,NULL,,0,-1,NULL,NULL,NULL,NULL,12/01/2020 10:53:55,NULL,NULL,0,0
22173,12/01/2020 10:53:55,33,HR/EN/0123,11/30/2020 12:40:03,,NULL,in,NULL,NULL,0,15,NULL,NULL,,0,-1,NULL,NULL,NULL,NULL,12/01/2020 10:53:55,NULL,NULL,0,0
82344,12/01/2020 12:30:05,19,HR/EN/1687,11/30/2020 11:49:24,,NULL,in,NULL,NULL,0,15,NULL,NULL,,0,-1,NULL,NULL,NULL,NULL,12/01/2020 12:30:05,NULL,NULL,0,0
82343,12/01/2020 12:30:05,19,HR/EN/1687,11/30/2020 11:49:20,,NULL,in,NULL,NULL,0,15,NULL,NULL,,0,-1,NULL,NULL,NULL,NULL,12/01/2020 12:30:05,NULL,NULL,0,0
82342,12/01/2020 12:30:05,19,HR/EN/1581,11/30/2020 11:48:04,,NULL,in,NULL,NULL,0,15,NULL,NULL,,0,-1,NULL,NULL,NULL,NULL,12/01/2020 12:30:05,NULL,NULL,0,0
31438,12/01/2020 11:07:37,36,HR/EN/0013,11/30/2020 11:22:05,,NULL,in,NULL,NULL,0,15,NULL,NULL,,0,-1,NULL,NULL,NULL,NULL,12/01/2020 11:07:37,NULL,NULL,0,0
31437,12/01/2020 11:07:37,36,HR/EN/0013,11/30/2020 11:22:03,,NULL,in,NULL,NULL,0,15,NULL,NULL,,0,-1,NULL,NULL,NULL,NULL,12/01/2020 11:07:37,NULL,NULL,0,0
31436,12/01/2020 11:07:37,36,HR/EN/0013,11/30/2020 11:22:01,,NULL,in,NULL,NULL,0,15,NULL,NULL,,0,-1,NULL,NULL,NULL,NULL,12/01/2020 11:07:37,NULL,NULL,0,0
31435,12/01/2020 11:07:37,36,HR/EN/0013,11/30/2020 11:21:59,,NULL,in,NULL,NULL,0,15,NULL,NULL,,0,-1,NULL,NULL,NULL,NULL,12/01/2020 11:07:37,NULL,NULL,0,0
31434,12/01/2020 11:07:37,36,HR/EN/0013,11/30/2020 11:21:56,,NULL,in,NULL,NULL,0,15,NULL,NULL,,0,-1,NULL,NULL,NULL,NULL,12/01/2020 11:07:37,NULL,NULL,0,0
82341,12/01/2020 12:30:05,19,7004,11/30/2020 10:22:21,,NULL,in,NULL,NULL,0,15,NULL,NULL,,0,-1,NULL,NULL,NULL,NULL,12/01/2020 12:30:05,NULL,NULL,0,0
82340,12/01/2020 12:30:05,19,7004,11/30/2020 10:22:16,,NULL,in,NULL,NULL,0,15,NULL,NULL,,0,-1,NULL,NULL,NULL,NULL,12/01/2020 12:30:05,NULL,NULL,0,0
82339,12/01/2020 12:30:05,19,HR/EN/1134,11/30/2020 10:03:20,,NULL,in,NULL,NULL,0,15,NULL,NULL,,0,-1,NULL,NULL,NULL,NULL,12/01/2020 12:30:05,NULL,NULL,0,0
16122,12/01/2020 10:18:21,40,HR/EN/1756,11/30/2020 10:02:26,,NULL,in,NULL,NULL,0,15,NULL,NULL,,0,-1,NULL,NULL,NULL,NULL,12/01/2020 10:18:21,NULL,NULL,0,0
16121,12/01/2020 10:18:21,40,HR/EN/1756,11/30/2020 10:02:19,,NULL,in,NULL,NULL,0,15,NULL,NULL,,0,-1,NULL,NULL,NULL,NULL,12/01/2020 10:18:21,NULL,NULL,0,0
82338,12/01/2020 12:30:05,19,HR/EN/1582,11/30/2020 09:50:40,,NULL,in,NULL,NULL,0,15,NULL,NULL,,0,-1,NULL,NULL,NULL,NULL,12/01/2020 12:30:05,NULL,NULL,0,0
16120,12/01/2020 10:18:21,40,HR/EN/1750,11/30/2020 09:44:22,,NULL,in,NULL,NULL,0,15,NULL,NULL,,0,-1,NULL,NULL,NULL,NULL,12/01/2020 10:18:21,NULL,NULL,0,0
16119,12/01/2020 10:18:21,40,HR/EN/1750,11/30/2020 09:44:20,,NULL,in,NULL,NULL,0,15,NULL,NULL,,0,-1,NULL,NULL,NULL,NULL,12/01/2020 10:18:21,NULL,NULL,0,0
82337,12/01/2020 12:30:05,19,HR/EN/0078,11/30/2020 09:42:05,,NULL,in,NULL,NULL,0,15,NULL,NULL,,0,-1,NULL,NULL,NULL,NULL,12/01/2020 12:30:05,NULL,NULL,0,0
82336,12/01/2020 12:30:05,19,HR/EN/0999,11/30/2020 09:29:21,,NULL,in,NULL,NULL,0,15,NULL,NULL,,0,-1,NULL,NULL,NULL,NULL,12/01/2020 12:30:05,NULL,NULL,0,0
82335,12/01/2020 12:30:05,19,HR/EN/0999,11/30/2020 09:29:18,,NULL,in,NULL,NULL,0,15,NULL,NULL,,0,-1,NULL,NULL,NULL,NULL,12/01/2020 12:30:05,NULL,NULL,0,0
16571,12/01/2020 10:46:01,37,HR/EN/0089,11/30/2020 09:12:05,,NULL,out,NULL,NULL,4,15,NULL,NULL,,0,-1,NULL,NULL,NULL,NULL,12/01/2020 10:46:01,NULL,NULL,0,0
16570,12/01/2020 10:46:01,37,HR/EN/0089,11/30/2020 09:12:03,,NULL,out,NULL,NULL,4,15,NULL,NULL,,0,-1,NULL,NULL,NULL,NULL,12/01/2020 10:46:01,NULL,NULL,0,0
82334,12/01/2020 12:30:05,19,HR/EN/1721,11/30/2020 09:10:14,,NULL,in,NULL,NULL,0,15,NULL,NULL,,0,-1,NULL,NULL,NULL,NULL,12/01/2020 12:30:05,NULL,NULL,0,0
82333,12/01/2020 12:30:05,19,HR/EN/0131,11/30/2020 08:58:58,,NULL,in,NULL,NULL,0,15,NULL,NULL,,0,-1,NULL,NULL,NULL,NULL,12/01/2020 12:30:05,NULL,NULL,0,0
82332,12/01/2020 12:30:05,19,HR/EN/0131,11/30/2020 08:58:55,,NULL,in,NULL,NULL,0,15,NULL,NULL,,0,-1,NULL,NULL,NULL,NULL,12/01/2020 12:30:05,NULL,NULL,0,0
82331,12/01/2020 12:30:05,19,HR/EN/1414,11/30/2020 08:57:43,,NULL,in,NULL,NULL,0,15,NULL,NULL,,0,-1,NULL,NULL,NULL,NULL,12/01/2020 12:30:05,NULL,NULL,0,0
82330,12/01/2020 12:30:05,19,HR/EN/1414,11/30/2020 08:57:40,,NULL,in,NULL,NULL,0,15,NULL,NULL,,0,-1,NULL,NULL,NULL,NULL,12/01/2020 12:30:05,NULL,NULL,0,0
82329,12/01/2020 12:30:05,19,HR/EN/1677,11/30/2020 08:57:35,,NULL,in,NULL,NULL,0,15,NULL,NULL,,0,-1,NULL,NULL,NULL,NULL,12/01/2020 12:30:05,NULL,NULL,0,0
82328,12/01/2020 12:30:05,19,HR/EN/1677,11/30/2020 08:57:31,,NULL,in,NULL,NULL,0,15,NULL,NULL,,0,-1,NULL,NULL,NULL,NULL,12/01/2020 12:30:05,NULL,NULL,0,0
82327,12/01/2020 12:30:05,19,HR/EN/0033,11/30/2020 08:56:03,,NULL,in,NULL,NULL,0,15,NULL,NULL,,0,-1,NULL,NULL,NULL,NULL,12/01/2020 12:30:05,NULL,NULL,0,0
82326,12/01/2020 12:30:05,19,HR/EN/0033,11/30/2020 08:55:59,,NULL,in,NULL,NULL,0,15,NULL,NULL,,0,-1,NULL,NULL,NULL,NULL,12/01/2020 12:30:05,NULL,NULL,0,0
82325,12/01/2020 12:30:05,19,HR/EN/1522,11/30/2020 08:55:33,,NULL,in,NULL,NULL,0,15,NULL,NULL,,0,-1,NULL,NULL,NULL,NULL,12/01/2020 12:30:05,NULL,NULL,0,0
82324,12/01/2020 12:30:05,19,HR/EN/1546,11/30/2020 08:47:41,,NULL,in,NULL,NULL,0,15,NULL,NULL,,0,-1,NULL,NULL,NULL,NULL,12/01/2020 12:30:05,NULL,NULL,0,0
82323,12/01/2020 12:30:05,19,HR/EN/1546,11/30/2020 08:47:37,,NULL,in,NULL,NULL,0,15,NULL,NULL,,0,-1,NULL,NULL,NULL,NULL,12/01/2020 12:30:05,NULL,NULL,0,0
82322,12/01/2020 12:30:05,19,7000,11/30/2020 08:46:52,,NULL,in,NULL,NULL,0,15,NULL,NULL,,0,-1,NULL,NULL,NULL,NULL,12/01/2020 12:30:05,NULL,NULL,0,0
82321,12/01/2020 12:30:05,19,HR/EN/1754,11/30/2020 08:45:50,,NULL,in,NULL,NULL,0,15,NULL,NULL,,0,-1,NULL,NULL,NULL,NULL,12/01/2020 12:30:05,NULL,NULL,0,0
82320,12/01/2020 12:30:05,19,HR/EN/1754,11/30/2020 08:45:46,,NULL,in,NULL,NULL,0,15,NULL,NULL,,0,-1,NULL,NULL,NULL,NULL,12/01/2020 12:30:05,NULL,NULL,0,0
82319,12/01/2020 12:30:05,19,HR/EN/0130,11/30/2020 08:45:32,,NULL,in,NULL,NULL,0,15,NULL,NULL,,0,-1,NULL,NULL,NULL,NULL,12/01/2020 12:30:05,NULL,NULL,0,0
82318,12/01/2020 12:30:05,19,HR/EN/0130,11/30/2020 08:45:28,,NULL,in,NULL,NULL,0,15,NULL,NULL,,0,-1,NULL,NULL,NULL,NULL,12/01/2020 12:30:05,NULL,NULL,0,0
82317,12/01/2020 12:30:05,19,HR/EN/1662,11/30/2020 08:45:02,,NULL,in,NULL,NULL,0,15,NULL,NULL,,0,-1,NULL,NULL,NULL,NULL,12/01/2020 12:30:05,NULL,NULL,0,0
82316,12/01/2020 12:30:05,19,HR/EN/1662,11/30/2020 08:44:53,,NULL,in,NULL,NULL,0,15,NULL,NULL,,0,-1,NULL,NULL,NULL,NULL,12/01/2020 12:30:05,NULL,NULL,0,0
82315,12/01/2020 12:30:05,19,HR/EN/1523,11/30/2020 08:43:49,,NULL,in,NULL,NULL,0,15,NULL,NULL,,0,-1,NULL,NULL,NULL,NULL,12/01/2020 12:30:05,NULL,NULL,0,0
82314,12/01/2020 12:30:05,19,HR/EN/0245,11/30/2020 08:42:37,,NULL,in,NULL,NULL,0,15,NULL,NULL,,0,-1,NULL,NULL,NULL,NULL,12/01/2020 12:30:05,NULL,NULL,0,0
82313,12/01/2020 12:30:05,19,HR/EN/0245,11/30/2020 08:42:33,,NULL,in,NULL,NULL,0,15,NULL,NULL,,0,-1,NULL,NULL,NULL,NULL,12/01/2020 12:30:05,NULL,NULL,0,0
82312,12/01/2020 12:30:05,19,HR/EN/1397,11/30/2020 08:39:36,,NULL,in,NULL,NULL,0,15,NULL,NULL,,0,-1,NULL,NULL,NULL,NULL,12/01/2020 12:30:05,NULL,NULL,0,0
82311,12/01/2020 12:30:01,19,HR/EN/1397,11/30/2020 08:39:32,,NULL,in,NULL,NULL,0,15,NULL,NULL,,0,-1,NULL,NULL,NULL,NULL,12/01/2020 12:30:01,NULL,NULL,0,0
16569,12/01/2020 10:46:01,37,HR/EN/1135,11/30/2020 08:35:43,,NULL,out,NULL,NULL,4,15,NULL,NULL,,0,-1,NULL,NULL,NULL,NULL,12/01/2020 10:46:01,NULL,NULL,0,0
16568,12/01/2020 10:46:01,37,HR/EN/1135,11/30/2020 08:35:39,,NULL,out,NULL,NULL,4,15,NULL,NULL,,0,-1,NULL,NULL,NULL,NULL,12/01/2020 10:46:01,NULL,NULL,0,0
82310,12/01/2020 12:30:01,19,HR/EN/1552,11/30/2020 08:22:07,,NULL,in,NULL,NULL,0,15,NULL,NULL,,0,-1,NULL,NULL,NULL,NULL,12/01/2020 12:30:01,NULL,NULL,0,0
82309,12/01/2020 12:30:01,19,HR/EN/1161,11/30/2020 08:17:38,,NULL,in,NULL,NULL,0,15,NULL,NULL,,0,-1,NULL,NULL,NULL,NULL,12/01/2020 12:30:01,NULL,NULL,0,0
82308,12/01/2020 12:30:01,19,HR/EN/1161,11/30/2020 08:17:34,,NULL,in,NULL,NULL,0,15,NULL,NULL,,0,-1,NULL,NULL,NULL,NULL,12/01/2020 12:30:01,NULL,NULL,0,0
82307,12/01/2020 12:30:01,19,HR/EN/1161,11/30/2020 08:17:31,,NULL,in,NULL,NULL,0,15,NULL,NULL,,0,-1,NULL,NULL,NULL,NULL,12/01/2020 12:30:01,NULL,NULL,0,0
82306,12/01/2020 12:30:01,19,7001,11/30/2020 08:14:30,,NULL,in,NULL,NULL,0,15,NULL,NULL,,0,-1,NULL,NULL,NULL,NULL,12/01/2020 12:30:01,NULL,NULL,0,0
21952,12/01/2020 10:53:35,38,HR/EN/1691,11/30/2020 08:06:43,,NULL,in,NULL,NULL,0,15,NULL,NULL,,0,-1,NULL,NULL,NULL,NULL,12/01/2020 10:53:35,NULL,NULL,0,0
21951,12/01/2020 10:53:34,38,HR/EN/1691,11/30/2020 08:06:41,,NULL,in,NULL,NULL,0,15,NULL,NULL,,0,-1,NULL,NULL,NULL,NULL,12/01/2020 10:53:34,NULL,NULL,0,0
21950,12/01/2020 10:53:34,38,HR/EN/1691,11/30/2020 08:06:38,,NULL,in,NULL,NULL,0,15,NULL,NULL,,0,-1,NULL,NULL,NULL,NULL,12/01/2020 10:53:34,NULL,NULL,0,0
36971,12/01/2020 11:19:46,25,HR/EN/1732,11/30/2020 08:06:33,,NULL,in,NULL,NULL,0,15,NULL,NULL,,0,-1,NULL,NULL,NULL,NULL,12/01/2020 11:19:46,NULL,NULL,0,0
36970,12/01/2020 11:19:46,25,HR/EN/1732,11/30/2020 08:06:22,,NULL,in,NULL,NULL,0,15,NULL,NULL,,0,-1,NULL,NULL,NULL,NULL,12/01/2020 11:19:46,NULL,NULL,0,0
20557,12/01/2020 10:52:11,30,HR/EN/0239,11/30/2020 08:05:04,,NULL,out,NULL,NULL,4,15,NULL,NULL,,0,-1,NULL,NULL,NULL,NULL,12/01/2020 10:52:11,NULL,NULL,0,0
20556,12/01/2020 10:52:11,30,HR/EN/0239,11/30/2020 08:04:59,,NULL,out,NULL,NULL,4,15,NULL,NULL,,0,-1,NULL,NULL,NULL,NULL,12/01/2020 10:52:11,NULL,NULL,0,0
82305,12/01/2020 12:30:01,19,PUC84,11/30/2020 08:04:10,,NULL,in,NULL,NULL,0,15,NULL,NULL,,0,-1,NULL,NULL,NULL,NULL,12/01/2020 12:30:01,NULL,NULL,0,0
21949,12/01/2020 10:53:34,38,HR/EN/1381,11/30/2020 08:03:58,,NULL,in,NULL,NULL,0,15,NULL,NULL,,0,-1,NULL,NULL,NULL,NULL,12/01/2020 10:53:34,NULL,NULL,0,0
21948,12/01/2020 10:53:34,38,HR/EN/1381,11/30/2020 08:03:53,,NULL,in,NULL,NULL,0,15,NULL,NULL,,0,-1,NULL,NULL,NULL,NULL,12/01/2020 10:53:34,NULL,NULL,0,0
31433,12/01/2020 11:07:37,36,HR/EN/1663,11/30/2020 08:03:40,,NULL,in,NULL,NULL,0,15,NULL,NULL,,0,-1,NULL,NULL,NULL,NULL,12/01/2020 11:07:37,NULL,NULL,0,0
31432,12/01/2020 11:07:37,36,HR/EN/1663,11/30/2020 08:03:38,,NULL,in,NULL,NULL,0,15,NULL,NULL,,0,-1,NULL,NULL,NULL,NULL,12/01/2020 11:07:37,NULL,NULL,0,0
31431,12/01/2020 11:07:37,36,HR/EN/1663,11/30/2020 08:03:36,,NULL,in,NULL,NULL,0,15,NULL,NULL,,0,-1,NULL,NULL,NULL,NULL,12/01/2020 11:07:37,NULL,NULL,0,0
31430,12/01/2020 11:07:37,36,HR/EN/1663,11/30/2020 08:03:33,,NULL,in,NULL,NULL,0,15,NULL,NULL,,0,-1,NULL,NULL,NULL,NULL,12/01/2020 11:07:37,NULL,NULL,0,0
30541,12/01/2020 11:06:44,24,HR/EN/1012,11/30/2020 08:03:25,,NULL,in,NULL,NULL,0,15,NULL,NULL,,0,-1,NULL,NULL,NULL,NULL,12/01/2020 11:06:44,NULL,NULL,0,0
21947,12/01/2020 10:53:34,38,HR/EN/1381,11/30/2020 08:03:24,,NULL,in,NULL,NULL,0,15,NULL,NULL,,0,-1,NULL,NULL,NULL,NULL,12/01/2020 10:53:34,NULL,NULL,0,0
82304,12/01/2020 12:30:01,19,HR/EN/1587,11/30/2020 08:03:24,,NULL,in,NULL,NULL,0,15,NULL,NULL,,0,-1,NULL,NULL,NULL,NULL,12/01/2020 12:30:01,NULL,NULL,0,0
30540,12/01/2020 11:06:44,24,HR/EN/1012,11/30/2020 08:03:23,,NULL,in,NULL,NULL,0,15,NULL,NULL,,0,-1,NULL,NULL,NULL,NULL,12/01/2020 11:06:44,NULL,NULL,0,0
29404,12/01/2020 11:05:50,21,HR/EN/1726,11/30/2020 08:03:07,,NULL,in,NULL,NULL,0,15,NULL,NULL,,0,-1,NULL,NULL,NULL,NULL,12/01/2020 11:05:50,NULL,NULL,0,0
29403,12/01/2020 11:05:50,21,HR/EN/1726,11/30/2020 08:03:03,,NULL,in,NULL,NULL,0,15,NULL,NULL,,0,-1,NULL,NULL,NULL,NULL,12/01/2020 11:05:50,NULL,NULL,0,0
82686,12/01/2020 16:49:36,14,41,11/30/2020 08:03:02,,NULL,out,NULL,NULL,1,0,NULL,NULL,0,0,-1,NULL,NULL,NULL,NULL,12/01/2020 16:49:36,NULL,NULL,0,0
82303,12/01/2020 12:30:01,19,HR/EN/1444,11/30/2020 08:03:02,,NULL,in,NULL,NULL,0,15,NULL,NULL,,0,-1,NULL,NULL,NULL,NULL,12/01/2020 12:30:01,NULL,NULL,0,0
29402,12/01/2020 11:05:50,21,HR/EN/1726,11/30/2020 08:03:01,,NULL,in,NULL,NULL,0,15,NULL,NULL,,0,-1,NULL,NULL,NULL,NULL,12/01/2020 11:05:50,NULL,NULL,0,0
82685,12/01/2020 16:49:36,14,41,11/30/2020 08:03:00,,NULL,out,NULL,NULL,1,0,NULL,NULL,0,0,-1,NULL,NULL,NULL,NULL,12/01/2020 16:49:36,NULL,NULL,0,0
29401,12/01/2020 11:05:50,21,HR/EN/1726,11/30/2020 08:02:59,,NULL,in,NULL,NULL,0,15,NULL,NULL,,0,-1,NULL,NULL,NULL,NULL,12/01/2020 11:05:50,NULL,NULL,0,0
82302,12/01/2020 12:30:01,19,HR/EN/1444,11/30/2020 08:02:59,,NULL,in,NULL,NULL,0,15,NULL,NULL,,0,-1,NULL,NULL,NULL,NULL,12/01/2020 12:30:01,NULL,NULL,0,0
43741,12/01/2020 11:26:54,23,HR/EN/0978,11/30/2020 08:02:56,,NULL,in,NULL,NULL,0,15,NULL,NULL,,0,-1,NULL,NULL,NULL,NULL,12/01/2020 11:26:54,NULL,NULL,0,0
43740,12/01/2020 11:26:54,23,HR/EN/0978,11/30/2020 08:02:54,,NULL,in,NULL,NULL,0,15,NULL,NULL,,0,-1,NULL,NULL,NULL,NULL,12/01/2020 11:26:54,NULL,NULL,0,0
43739,12/01/2020 11:26:54,23,HR/EN/0978,11/30/2020 08:02:51,,NULL,in,NULL,NULL,0,15,NULL,NULL,,0,-1,NULL,NULL,NULL,NULL,12/01/2020 11:26:54,NULL,NULL,0,0
29400,12/01/2020 11:05:50,21,HR/EN/0402,11/30/2020 08:02:41,,NULL,in,NULL,NULL,0,15,NULL,NULL,,0,-1,NULL,NULL,NULL,NULL,12/01/2020 11:05:50,NULL,NULL,0,0
29399,12/01/2020 11:05:50,21,HR/EN/0402,11/30/2020 08:02:39,,NULL,in,NULL,NULL,0,15,NULL,NULL,,0,-1,NULL,NULL,NULL,NULL,12/01/2020 11:05:50,NULL,NULL,0,0
29398,12/01/2020 11:05:50,21,HR/EN/0402,11/30/2020 08:02:36,,NULL,in,NULL,NULL,0,15,NULL,NULL,,0,-1,NULL,NULL,NULL,NULL,12/01/2020 11:05:50,NULL,NULL,0,0
32370,12/01/2020 11:09:18,22,HR/EN/1247,11/30/2020 08:02:05,,NULL,in,NULL,NULL,0,15,NULL,NULL,,0,-1,NULL,NULL,NULL,NULL,12/01/2020 11:09:18,NULL,NULL,0,0
30454,12/01/2020 11:06:41,24,HR/EN/1685,11/30/2020 08:02:03,,NULL,in,NULL,NULL,0,15,NULL,NULL,,0,-1,NULL,NULL,NULL,NULL,12/01/2020 11:06:41,NULL,NULL,0,0
30453,12/01/2020 11:06:40,24,HR/EN/1685,11/30/2020 08:02:01,,NULL,in,NULL,NULL,0,15,NULL,NULL,,0,-1,NULL,NULL,NULL,NULL,12/01/2020 11:06:40,NULL,NULL,0,0
30452,12/01/2020 11:06:40,24,HR/EN/1685,11/30/2020 08:01:59,,NULL,in,NULL,NULL,0,15,NULL,NULL,,0,-1,NULL,NULL,NULL,NULL,12/01/2020 11:06:40,NULL,NULL,0,0
29397,12/01/2020 11:05:50,21,HR/EN/1437,11/30/2020 08:01:49,,NULL,in,NULL,NULL,0,15,NULL,NULL,,0,-1,NULL,NULL,NULL,NULL,12/01/2020 11:05:50,NULL,NULL,0,0
29396,12/01/2020 11:05:50,21,HR/EN/1437,11/30/2020 08:01:47,,NULL,in,NULL,NULL,0,15,NULL,NULL,,0,-1,NULL,NULL,NULL,NULL,12/01/2020 11:05:50,NULL,NULL,0,0
29395,12/01/2020 11:05:50,21,HR/EN/1437,11/30/2020 08:01:45,,NULL,in,NULL,NULL,0,15,NULL,NULL,,0,-1,NULL,NULL,NULL,NULL,12/01/2020 11:05:50,NULL,NULL,0,0
82301,12/01/2020 12:30:01,19,HR/EN/1218,11/30/2020 08:01:43,,NULL,in,NULL,NULL,0,15,NULL,NULL,,0,-1,NULL,NULL,NULL,NULL,12/01/2020 12:30:01,NULL,NULL,0,0
82300,12/01/2020 12:30:01,19,HR/EN/1218,11/30/2020 08:01:40,,NULL,in,NULL,NULL,0,15,NULL,NULL,,0,-1,NULL,NULL,NULL,NULL,12/01/2020 12:30:01,NULL,NULL,0,0
82299,12/01/2020 12:30:01,19,HR/EN/0534,11/30/2020 08:01:29,,NULL,in,NULL,NULL,0,15,NULL,NULL,,0,-1,NULL,NULL,NULL,NULL,12/01/2020 12:30:01,NULL,NULL,0,0
82298,12/01/2020 12:30:01,19,HR/EN/0534,11/30/2020 08:01:26,,NULL,in,NULL,NULL,0,15,NULL,NULL,,0,-1,NULL,NULL,NULL,NULL,12/01/2020 12:30:01,NULL,NULL,0,0
29394,12/01/2020 11:05:50,21,HR/EN/0977,11/30/2020 08:00:34,,NULL,in,NULL,NULL,0,15,NULL,NULL,,0,-1,NULL,NULL,NULL,NULL,12/01/2020 11:05:50,NULL,NULL,0,0
29393,12/01/2020 11:05:50,21,HR/EN/0977,11/30/2020 08:00:32,,NULL,in,NULL,NULL,0,15,NULL,NULL,,0,-1,NULL,NULL,NULL,NULL,12/01/2020 11:05:50,NULL,NULL,0,0
29392,12/01/2020 11:05:50,21,HR/EN/0977,11/30/2020 08:00:30,,NULL,in,NULL,NULL,0,15,NULL,NULL,,0,-1,NULL,NULL,NULL,NULL,12/01/2020 11:05:50,NULL,NULL,0,0
29391,12/01/2020 11:05:50,21,HR/EN/1480,11/30/2020 08:00:23,,NULL,in,NULL,NULL,0,15,NULL,NULL,,0,-1,NULL,NULL,NULL,NULL,12/01/2020 11:05:50,NULL,NULL,0,0
32369,12/01/2020 11:09:18,22,HR/EN/1014,11/30/2020 08:00:20,,NULL,in,NULL,NULL,0,15,NULL,NULL,,0,-1,NULL,NULL,NULL,NULL,12/01/2020 11:09:18,NULL,NULL,0,0
32368,12/01/2020 11:09:18,22,HR/EN/1014,11/30/2020 08:00:17,,NULL,in,NULL,NULL,0,15,NULL,NULL,,0,-1,NULL,NULL,NULL,NULL,12/01/2020 11:09:18,NULL,NULL,0,0
29390,12/01/2020 11:05:50,21,HR/EN/1480,11/30/2020 08:00:17,,NULL,in,NULL,NULL,0,15,NULL,NULL,,0,-1,NULL,NULL,NULL,NULL,12/01/2020 11:05:50,NULL,NULL,0,0
32367,12/01/2020 11:09:18,22,HR/EN/1014,11/30/2020 08:00:15,,NULL,in,NULL,NULL,0,15,NULL,NULL,,0,-1,NULL,NULL,NULL,NULL,12/01/2020 11:09:18,NULL,NULL,0,0
43738,12/01/2020 11:26:54,23,HR/EN/0197,11/30/2020 08:00:01,,NULL,in,NULL,NULL,0,15,NULL,NULL,,0,-1,NULL,NULL,NULL,NULL,12/01/2020 11:26:54,NULL,NULL,0,0
43737,12/01/2020 11:26:54,23,HR/EN/0197,11/30/2020 07:59:59,,NULL,in,NULL,NULL,0,15,NULL,NULL,,0,-1,NULL,NULL,NULL,NULL,12/01/2020 11:26:54,NULL,NULL,0,0
29389,12/01/2020 11:05:50,21,HR/EN/0977,11/30/2020 07:59:57,,NULL,in,NULL,NULL,0,15,NULL,NULL,,0,-1,NULL,NULL,NULL,NULL,12/01/2020 11:05:50,NULL,NULL,0,0
29261,12/01/2020 11:05:47,21,HR/EN/0977,11/30/2020 07:59:55,,NULL,in,NULL,NULL,0,15,NULL,NULL,,0,-1,NULL,NULL,NULL,NULL,12/01/2020 11:05:47,NULL,NULL,0,0
29260,12/01/2020 11:05:47,21,HR/EN/0977,11/30/2020 07:59:53,,NULL,in,NULL,NULL,0,15,NULL,NULL,,0,-1,NULL,NULL,NULL,NULL,12/01/2020 11:05:47,NULL,NULL,0,0
43736,12/01/2020 11:26:54,23,HR/EN/0197,11/30/2020 07:59:52,,NULL,in,NULL,NULL,0,15,NULL,NULL,,0,-1,NULL,NULL,NULL,NULL,12/01/2020 11:26:54,NULL,NULL,0,0
29259,12/01/2020 11:05:47,21,HR/EN/0977,11/30/2020 07:59:47,,NULL,in,NULL,NULL,0,15,NULL,NULL,,0,-1,NULL,NULL,NULL,NULL,12/01/2020 11:05:47,NULL,NULL,0,0
29258,12/01/2020 11:05:47,21,HR/EN/0977,11/30/2020 07:59:45,,NULL,in,NULL,NULL,0,15,NULL,NULL,,0,-1,NULL,NULL,NULL,NULL,12/01/2020 11:05:47,NULL,NULL,0,0
29257,12/01/2020 11:05:47,21,HR/EN/0977,11/30/2020 07:59:42,,NULL,in,NULL,NULL,0,15,NULL,NULL,,0,-1,NULL,NULL,NULL,NULL,12/01/2020 11:05:47,NULL,NULL,0,0
43735,12/01/2020 11:26:54,23,HR/EN/0614,11/30/2020 07:59:42,,NULL,in,NULL,NULL,0,15,NULL,NULL,,0,-1,NULL,NULL,NULL,NULL,12/01/2020 11:26:54,NULL,NULL,0,0
43734,12/01/2020 11:26:54,23,HR/EN/0614,11/30/2020 07:59:40,,NULL,in,NULL,NULL,0,15,NULL,NULL,,0,-1,NULL,NULL,NULL,NULL,12/01/2020 11:26:54,NULL,NULL,0,0
29256,12/01/2020 11:05:47,21,HR/EN/0977,11/30/2020 07:59:40,,NULL,in,NULL,NULL,0,15,NULL,NULL,,0,-1,NULL,NULL,NULL,NULL,12/01/2020 11:05:47,NULL,NULL,0,0
82297,12/01/2020 12:30:01,19,HR/EN/1215,11/30/2020 07:59:39,,NULL,in,NULL,NULL,0,15,NULL,NULL,,0,-1,NULL,NULL,NULL,NULL,12/01/2020 12:30:01,NULL,NULL,0,0
32366,12/01/2020 11:09:18,22,HR/EN/0280,11/30/2020 07:59:30,,NULL,in,NULL,NULL,0,15,NULL,NULL,,0,-1,NULL,NULL,NULL,NULL,12/01/2020 11:09:18,NULL,NULL,0,0
32365,12/01/2020 11:09:18,22,HR/EN/0280,11/30/2020 07:59:28,,NULL,in,NULL,NULL,0,15,NULL,NULL,,0,-1,NULL,NULL,NULL,NULL,12/01/2020 11:09:18,NULL,NULL,0,0
36969,12/01/2020 11:19:46,25,HR/EN/1727,11/30/2020 07:59:28,,NULL,in,NULL,NULL,0,15,NULL,NULL,,0,-1,NULL,NULL,NULL,NULL,12/01/2020 11:19:46,NULL,NULL,0,0
32364,12/01/2020 11:09:18,22,HR/EN/0280,11/30/2020 07:59:26,,NULL,in,NULL,NULL,0,15,NULL,NULL,,0,-1,NULL,NULL,NULL,NULL,12/01/2020 11:09:18,NULL,NULL,0,0
30451,12/01/2020 11:06:40,24,HR/EN/1731,11/30/2020 07:59:25,,NULL,in,NULL,NULL,0,15,NULL,NULL,,0,-1,NULL,NULL,NULL,NULL,12/01/2020 11:06:40,NULL,NULL,0,0
30450,12/01/2020 11:06:40,24,HR/EN/1731,11/30/2020 07:59:23,,NULL,in,NULL,NULL,0,15,NULL,NULL,,0,-1,NULL,NULL,NULL,NULL,12/01/2020 11:06:40,NULL,NULL,0,0
32363,12/01/2020 11:09:18,22,HR/EN/0280,11/30/2020 07:59:23,,NULL,in,NULL,NULL,0,15,NULL,NULL,,0,-1,NULL,NULL,NULL,NULL,12/01/2020 11:09:18,NULL,NULL,0,0
30449,12/01/2020 11:06:40,24,HR/EN/0323,11/30/2020 07:59:17,,NULL,in,NULL,NULL,0,15,NULL,NULL,,0,-1,NULL,NULL,NULL,NULL,12/01/2020 11:06:40,NULL,NULL,0,0
30448,12/01/2020 11:06:40,24,HR/EN/0323,11/30/2020 07:59:13,,NULL,in,NULL,NULL,0,15,NULL,NULL,,0,-1,NULL,NULL,NULL,NULL,12/01/2020 11:06:40,NULL,NULL,0,0
17684,12/01/2020 10:48:50,32,HR/EN/1699,11/30/2020 07:59:12,,NULL,in,NULL,NULL,0,15,NULL,NULL,,0,-1,NULL,NULL,NULL,NULL,12/01/2020 10:48:50,NULL,NULL,0,0
17683,12/01/2020 10:48:50,32,HR/EN/1699,11/30/2020 07:59:10,,NULL,in,NULL,NULL,0,15,NULL,NULL,,0,-1,NULL,NULL,NULL,NULL,12/01/2020 10:48:50,NULL,NULL,0,0
17682,12/01/2020 10:48:50,32,HR/EN/1709,11/30/2020 07:59:06,,NULL,in,NULL,NULL,0,15,NULL,NULL,,0,-1,NULL,NULL,NULL,NULL,12/01/2020 10:48:50,NULL,NULL,0,0
17681,12/01/2020 10:48:50,32,HR/EN/1709,11/30/2020 07:59:04,,NULL,in,NULL,NULL,0,15,NULL,NULL,,0,-1,NULL,NULL,NULL,NULL,12/01/2020 10:48:50,NULL,NULL,0,0
36968,12/01/2020 11:19:46,25,HR/EN/1727,11/30/2020 07:59:03,,NULL,in,NULL,NULL,0,15,NULL,NULL,,0,-1,NULL,NULL,NULL,NULL,12/01/2020 11:19:46,NULL,NULL,0,0
32362,12/01/2020 11:09:18,22,HR/EN/0056,11/30/2020 07:59:00,,NULL,in,NULL,NULL,0,15,NULL,NULL,,0,-1,NULL,NULL,NULL,NULL,12/01/2020 11:09:18,NULL,NULL,0,0
32361,12/01/2020 11:09:18,22,HR/EN/0056,11/30/2020 07:58:57,,NULL,in,NULL,NULL,0,15,NULL,NULL,,0,-1,NULL,NULL,NULL,NULL,12/01/2020 11:09:18,NULL,NULL,0,0
32360,12/01/2020 11:09:18,22,HR/EN/0056,11/30/2020 07:58:55,,NULL,in,NULL,NULL,0,15,NULL,NULL,,0,-1,NULL,NULL,NULL,NULL,12/01/2020 11:09:18,NULL,NULL,0,0
31429,12/01/2020 11:07:37,36,HR/EN/1115,11/30/2020 07:58:54,,NULL,in,NULL,NULL,0,15,NULL,NULL,,0,-1,NULL,NULL,NULL,NULL,12/01/2020 11:07:37,NULL,NULL,0,0
82296,12/01/2020 12:30:01,19,PUC63,11/30/2020 07:58:51,,NULL,in,NULL,NULL,0,15,NULL,NULL,,0,-1,NULL,NULL,NULL,NULL,12/01/2020 12:30:01,NULL,NULL,0,0
36967,12/01/2020 11:19:46,25,HR/EN/1282,11/30/2020 07:58:49,,NULL,in,NULL,NULL,0,15,NULL,NULL,,0,-1,NULL,NULL,NULL,NULL,12/01/2020 11:19:46,NULL,NULL,0,0
32359,12/01/2020 11:09:18,22,HR/EN/1122,11/30/2020 07:58:48,,NULL,in,NULL,NULL,0,15,NULL,NULL,,0,-1,NULL,NULL,NULL,NULL,12/01/2020 11:09:18,NULL,NULL,0,0
36966,12/01/2020 11:19:46,25,HR/EN/1282,11/30/2020 07:58:47,,NULL,in,NULL,NULL,0,15,NULL,NULL,,0,-1,NULL,NULL,NULL,NULL,12/01/2020 11:19:46,NULL,NULL,0,0
82295,12/01/2020 12:30:01,19,PUC63,11/30/2020 07:58:47,,NULL,in,NULL,NULL,0,15,NULL,NULL,,0,-1,NULL,NULL,NULL,NULL,12/01/2020 12:30:01,NULL,NULL,0,0
32358,12/01/2020 11:09:14,22,HR/EN/1122,11/30/2020 07:58:46,,NULL,in,NULL,NULL,0,15,NULL,NULL,,0,-1,NULL,NULL,NULL,NULL,12/01/2020 11:09:14,NULL,NULL,0,0
23373,12/01/2020 10:57:02,28,HR/EN/1682,11/30/2020 07:58:33,,NULL,in,NULL,NULL,0,15,NULL,NULL,,0,-1,NULL,NULL,NULL,NULL,12/01/2020 10:57:02,NULL,NULL,0,0
31385,12/01/2020 11:07:33,36,HR/EN/1115,11/30/2020 07:58:32,,NULL,in,NULL,NULL,0,15,NULL,NULL,,0,-1,NULL,NULL,NULL,NULL,12/01/2020 11:07:33,NULL,NULL,0,0
23372,12/01/2020 10:57:02,28,HR/EN/1682,11/30/2020 07:58:30,,NULL,in,NULL,NULL,0,15,NULL,NULL,,0,-1,NULL,NULL,NULL,NULL,12/01/2020 10:57:02,NULL,NULL,0,0
31384,12/01/2020 11:07:33,36,HR/EN/1115,11/30/2020 07:58:29,,NULL,in,NULL,NULL,0,15,NULL,NULL,,0,-1,NULL,NULL,NULL,NULL,12/01/2020 11:07:33,NULL,NULL,0,0
23371,12/01/2020 10:57:02,28,HR/EN/1682,11/30/2020 07:58:28,,NULL,in,NULL,NULL,0,15,NULL,NULL,,0,-1,NULL,NULL,NULL,NULL,12/01/2020 10:57:02,NULL,NULL,0,0
18523,12/01/2020 10:50:15,31,HR/EN/0612,11/30/2020 07:58:27,,NULL,in,NULL,NULL,0,15,NULL,NULL,,0,-1,NULL,NULL,NULL,NULL,12/01/2020 10:50:15,NULL,NULL,0,0
32357,12/01/2020 11:09:14,22,HR/EN/1601,11/30/2020 07:58:26,,NULL,in,NULL,NULL,0,15,NULL,NULL,,0,-1,NULL,NULL,NULL,NULL,12/01/2020 11:09:14,NULL,NULL,0,0
18522,12/01/2020 10:50:15,31,HR/EN/0612,11/30/2020 07:58:25,,NULL,in,NULL,NULL,0,15,NULL,NULL,,0,-1,NULL,NULL,NULL,NULL,12/01/2020 10:50:15,NULL,NULL,0,0
82294,12/01/2020 12:30:01,19,HR/EN/0157,11/30/2020 07:58:24,,NULL,in,NULL,NULL,0,15,NULL,NULL,,0,-1,NULL,NULL,NULL,NULL,12/01/2020 12:30:01,NULL,NULL,0,0
32356,12/01/2020 11:09:14,22,HR/EN/1601,11/30/2020 07:58:23,,NULL,in,NULL,NULL,0,15,NULL,NULL,,0,-1,NULL,NULL,NULL,NULL,12/01/2020 11:09:14,NULL,NULL,0,0
32355,12/01/2020 11:09:14,22,HR/EN/1601,11/30/2020 07:58:20,,NULL,in,NULL,NULL,0,15,NULL,NULL,,0,-1,NULL,NULL,NULL,NULL,12/01/2020 11:09:14,NULL,NULL,0,0
30447,12/01/2020 11:06:40,24,HR/EN/1753,11/30/2020 07:58:16,,NULL,in,NULL,NULL,0,15,NULL,NULL,,0,-1,NULL,NULL,NULL,NULL,12/01/2020 11:06:40,NULL,NULL,0,0
30446,12/01/2020 11:06:40,24,HR/EN/1753,11/30/2020 07:58:14,,NULL,in,NULL,NULL,0,15,NULL,NULL,,0,-1,NULL,NULL,NULL,NULL,12/01/2020 11:06:40,NULL,NULL,0,0
21864,12/01/2020 10:53:27,38,HR/EN/0105,11/30/2020 07:58:14,,NULL,in,NULL,NULL,0,15,NULL,NULL,,0,-1,NULL,NULL,NULL,NULL,12/01/2020 10:53:27,NULL,NULL,0,0
21863,12/01/2020 10:53:27,38,HR/EN/0105,11/30/2020 07:58:10,,NULL,in,NULL,NULL,0,15,NULL,NULL,,0,-1,NULL,NULL,NULL,NULL,12/01/2020 10:53:27,NULL,NULL,0,0
21862,12/01/2020 10:53:27,38,HR/EN/0105,11/30/2020 07:58:04,,NULL,in,NULL,NULL,0,15,NULL,NULL,,0,-1,NULL,NULL,NULL,NULL,12/01/2020 10:53:27,NULL,NULL,0,0
36965,12/01/2020 11:19:46,25,HR/EN/1598,11/30/2020 07:58:01,,NULL,in,NULL,NULL,0,15,NULL,NULL,,0,-1,NULL,NULL,NULL,NULL,12/01/2020 11:19:46,NULL,NULL,0,0
36964,12/01/2020 11:19:46,25,HR/EN/1598,11/30/2020 07:57:57,,NULL,in,NULL,NULL,0,15,NULL,NULL,,0,-1,NULL,NULL,NULL,NULL,12/01/2020 11:19:46,NULL,NULL,0,0
30445,12/01/2020 11:06:40,24,HR/EN/1058,11/30/2020 07:57:57,,NULL,in,NULL,NULL,0,15,NULL,NULL,,0,-1,NULL,NULL,NULL,NULL,12/01/2020 11:06:40,NULL,NULL,0,0
30444,12/01/2020 11:06:40,24,HR/EN/1058,11/30/2020 07:57:55,,NULL,in,NULL,NULL,0,15,NULL,NULL,,0,-1,NULL,NULL,NULL,NULL,12/01/2020 11:06:40,NULL,NULL,0,0
36963,12/01/2020 11:19:46,25,HR/EN/1598,11/30/2020 07:57:55,,NULL,in,NULL,NULL,0,15,NULL,NULL,,0,-1,NULL,NULL,NULL,NULL,12/01/2020 11:19:46,NULL,NULL,0,0
21861,12/01/2020 10:53:27,38,HR/EN/0105,11/30/2020 07:57:54,,NULL,in,NULL,NULL,0,15,NULL,NULL,,0,-1,NULL,NULL,NULL,NULL,12/01/2020 10:53:27,NULL,NULL,0,0
82293,12/01/2020 12:30:01,19,HR/EN/1147,11/30/2020 07:57:52,,NULL,in,NULL,NULL,0,15,NULL,NULL,,0,-1,NULL,NULL,NULL,NULL,12/01/2020 12:30:01,NULL,NULL,0,0
82292,12/01/2020 12:30:01,19,HR/EN/1147,11/30/2020 07:57:46,,NULL,in,NULL,NULL,0,15,NULL,NULL,,0,-1,NULL,NULL,NULL,NULL,12/01/2020 12:30:01,NULL,NULL,0,0
36962,12/01/2020 11:19:46,25,HR/EN/1293,11/30/2020 07:57:45,,NULL,in,NULL,NULL,0,15,NULL,NULL,,0,-1,NULL,NULL,NULL,NULL,12/01/2020 11:19:46,NULL,NULL,0,0
36961,12/01/2020 11:19:46,25,HR/EN/1293,11/30/2020 07:57:43,,NULL,in,NULL,NULL,0,15,NULL,NULL,,0,-1,NULL,NULL,NULL,NULL,12/01/2020 11:19:46,NULL,NULL,0,0
36960,12/01/2020 11:19:46,25,HR/EN/1293,11/30/2020 07:57:41,,NULL,in,NULL,NULL,0,15,NULL,NULL,,0,-1,NULL,NULL,NULL,NULL,12/01/2020 11:19:46,NULL,NULL,0,0
17762,12/01/2020 10:49:06,27,HR/EN/1634,11/30/2020 07:57:36,,NULL,in,NULL,NULL,0,15,NULL,NULL,,0,-1,NULL,NULL,NULL,NULL,12/01/2020 10:49:06,NULL,NULL,0,0
17680,12/01/2020 10:48:50,32,HR/EN/0739,11/30/2020 07:57:31,,NULL,in,NULL,NULL,0,15,NULL,NULL,,0,-1,NULL,NULL,NULL,NULL,12/01/2020 10:48:50,NULL,NULL,0,0
17761,12/01/2020 10:49:06,27,HR/EN/1634,11/30/2020 07:57:30,,NULL,in,NULL,NULL,0,15,NULL,NULL,,0,-1,NULL,NULL,NULL,NULL,12/01/2020 10:49:06,NULL,NULL,0,0
17595,12/01/2020 10:48:47,32,HR/EN/0739,11/30/2020 07:57:29,,NULL,in,NULL,NULL,0,15,NULL,NULL,,0,-1,NULL,NULL,NULL,NULL,12/01/2020 10:48:47,NULL,NULL,0,0
32354,12/01/2020 11:09:14,22,HR/EN/0581,11/30/2020 07:57:14,,NULL,in,NULL,NULL,0,15,NULL,NULL,,0,-1,NULL,NULL,NULL,NULL,12/01/2020 11:09:14,NULL,NULL,0,0
29255,12/01/2020 11:05:47,21,HR/EN/1647,11/30/2020 07:57:13,,NULL,in,NULL,NULL,0,15,NULL,NULL,,0,-1,NULL,NULL,NULL,NULL,12/01/2020 11:05:47,NULL,NULL,0,0
29254,12/01/2020 11:05:47,21,HR/EN/1647,11/30/2020 07:57:11,,NULL,in,NULL,NULL,0,15,NULL,NULL,,0,-1,NULL,NULL,NULL,NULL,12/01/2020 11:05:47,NULL,NULL,0,0
29253,12/01/2020 11:05:47,21,HR/EN/1647,11/30/2020 07:57:09,,NULL,in,NULL,NULL,0,15,NULL,NULL,,0,-1,NULL,NULL,NULL,NULL,12/01/2020 11:05:47,NULL,NULL,0,0
29252,12/01/2020 11:05:47,21,HR/EN/1647,11/30/2020 07:57:07,,NULL,in,NULL,NULL,0,15,NULL,NULL,,0,-1,NULL,NULL,NULL,NULL,12/01/2020 11:05:47,NULL,NULL,0,0
30443,12/01/2020 11:06:40,24,HR/EN/1510,11/30/2020 07:57:06,,NULL,in,NULL,NULL,0,15,NULL,NULL,,0,-1,NULL,NULL,NULL,NULL,12/01/2020 11:06:40,NULL,NULL,0,0
32353,12/01/2020 11:09:14,22,HR/EN/0581,11/30/2020 07:57:03,,NULL,in,NULL,NULL,0,15,NULL,NULL,,0,-1,NULL,NULL,NULL,NULL,12/01/2020 11:09:14,NULL,NULL,0,0
17594,12/01/2020 10:48:47,32,HR/EN/0232,11/30/2020 07:57:03,,NULL,in,NULL,NULL,0,15,NULL,NULL,,0,-1,NULL,NULL,NULL,NULL,12/01/2020 10:48:47,NULL,NULL,0,0
17593,12/01/2020 10:48:47,32,HR/EN/0232,11/30/2020 07:57:00,,NULL,in,NULL,NULL,0,15,NULL,NULL,,0,-1,NULL,NULL,NULL,NULL,12/01/2020 10:48:47,NULL,NULL,0,0
32352,12/01/2020 11:09:14,22,HR/EN/0581,11/30/2020 07:56:58,,NULL,in,NULL,NULL,0,15,NULL,NULL,,0,-1,NULL,NULL,NULL,NULL,12/01/2020 11:09:14,NULL,NULL,0,0
29251,12/01/2020 11:05:47,21,HR/EN/1723,11/30/2020 07:56:47,,NULL,in,NULL,NULL,0,15,NULL,NULL,,0,-1,NULL,NULL,NULL,NULL,12/01/2020 11:05:47,NULL,NULL,0,0
32351,12/01/2020 11:09:14,22,HR/EN/1696,11/30/2020 07:56:47,,NULL,in,NULL,NULL,0,15,NULL,NULL,,0,-1,NULL,NULL,NULL,NULL,12/01/2020 11:09:14,NULL,NULL,0,0
32350,12/01/2020 11:09:14,22,HR/EN/1696,11/30/2020 07:56:45,,NULL,in,NULL,NULL,0,15,NULL,NULL,,0,-1,NULL,NULL,NULL,NULL,12/01/2020 11:09:14,NULL,NULL,0,0
29250,12/01/2020 11:05:47,21,HR/EN/1723,11/30/2020 07:56:45,,NULL,in,NULL,NULL,0,15,NULL,NULL,,0,-1,NULL,NULL,NULL,NULL,12/01/2020 11:05:47,NULL,NULL,0,0
29249,12/01/2020 11:05:47,21,HR/EN/1723,11/30/2020 07:56:43,,NULL,in,NULL,NULL,0,15,NULL,NULL,,0,-1,NULL,NULL,NULL,NULL,12/01/2020 11:05:47,NULL,NULL,0,0
82291,12/01/2020 12:30:01,19,PUC69,11/30/2020 07:56:35,,NULL,in,NULL,NULL,0,15,NULL,NULL,,0,-1,NULL,NULL,NULL,NULL,12/01/2020 12:30:01,NULL,NULL,0,0
82290,12/01/2020 12:30:01,19,PUC69,11/30/2020 07:56:31,,NULL,in,NULL,NULL,0,15,NULL,NULL,,0,-1,NULL,NULL,NULL,NULL,12/01/2020 12:30:01,NULL,NULL,0,0
32349,12/01/2020 11:09:14,22,HR/EN/1216,11/30/2020 07:56:30,,NULL,in,NULL,NULL,0,15,NULL,NULL,,0,-1,NULL,NULL,NULL,NULL,12/01/2020 11:09:14,NULL,NULL,0,0
32348,12/01/2020 11:09:14,22,HR/EN/1216,11/30/2020 07:56:27,,NULL,in,NULL,NULL,0,15,NULL,NULL,,0,-1,NULL,NULL,NULL,NULL,12/01/2020 11:09:14,NULL,NULL,0,0
31383,12/01/2020 11:07:33,36,HR/EN/1720,11/30/2020 07:56:21,,NULL,in,NULL,NULL,0,15,NULL,NULL,,0,-1,NULL,NULL,NULL,NULL,12/01/2020 11:07:33,NULL,NULL,0,0
31382,12/01/2020 11:07:33,36,HR/EN/1720,11/30/2020 07:56:18,,NULL,in,NULL,NULL,0,15,NULL,NULL,,0,-1,NULL,NULL,NULL,NULL,12/01/2020 11:07:33,NULL,NULL,0,0
43733,12/01/2020 11:26:54,23,HR/EN/1718,11/30/2020 07:56:17,,NULL,in,NULL,NULL,0,15,NULL,NULL,,0,-1,NULL,NULL,NULL,NULL,12/01/2020 11:26:54,NULL,NULL,0,0
43732,12/01/2020 11:26:54,23,HR/EN/1718,11/30/2020 07:56:15,,NULL,in,NULL,NULL,0,15,NULL,NULL,,0,-1,NULL,NULL,NULL,NULL,12/01/2020 11:26:54,NULL,NULL,0,0
31381,12/01/2020 11:07:33,36,HR/EN/1720,11/30/2020 07:56:14,,NULL,in,NULL,NULL,0,15,NULL,NULL,,0,-1,NULL,NULL,NULL,NULL,12/01/2020 11:07:33,NULL,NULL,0,0
43731,12/01/2020 11:26:53,23,HR/EN/1718,11/30/2020 07:56:12,,NULL,in,NULL,NULL,0,15,NULL,NULL,,0,-1,NULL,NULL,NULL,NULL,12/01/2020 11:26:53,NULL,NULL,0,0
32347,12/01/2020 11:09:14,22,HR/EN/0002,11/30/2020 07:55:50,,NULL,in,NULL,NULL,0,15,NULL,NULL,,0,-1,NULL,NULL,NULL,NULL,12/01/2020 11:09:14,NULL,NULL,0,0
30442,12/01/2020 11:06:40,24,HR/EN/1514,11/30/2020 07:55:49,,NULL,in,NULL,NULL,0,15,NULL,NULL,,0,-1,NULL,NULL,NULL,NULL,12/01/2020 11:06:40,NULL,NULL,0,0
30441,12/01/2020 11:06:40,24,HR/EN/1514,11/30/2020 07:55:47,,NULL,in,NULL,NULL,0,15,NULL,NULL,,0,-1,NULL,NULL,NULL,NULL,12/01/2020 11:06:40,NULL,NULL,0,0
32346,12/01/2020 11:09:14,22,HR/EN/0002,11/30/2020 07:55:47,,NULL,in,NULL,NULL,0,15,NULL,NULL,,0,-1,NULL,NULL,NULL,NULL,12/01/2020 11:09:14,NULL,NULL,0,0
32345,12/01/2020 11:09:14,22,HR/EN/0002,11/30/2020 07:55:45,,NULL,in,NULL,NULL,0,15,NULL,NULL,,0,-1,NULL,NULL,NULL,NULL,12/01/2020 11:09:14,NULL,NULL,0,0
31380,12/01/2020 11:07:33,36,HR/EN/1736,11/30/2020 07:55:42,,NULL,in,NULL,NULL,0,15,NULL,NULL,,0,-1,NULL,NULL,NULL,NULL,12/01/2020 11:07:33,NULL,NULL,0,0
17592,12/01/2020 10:48:47,32,HR/EN/1703,11/30/2020 07:55:41,,NULL,in,NULL,NULL,0,15,NULL,NULL,,0,-1,NULL,NULL,NULL,NULL,12/01/2020 10:48:47,NULL,NULL,0,0
31379,12/01/2020 11:07:33,36,HR/EN/1736,11/30/2020 07:55:40,,NULL,in,NULL,NULL,0,15,NULL,NULL,,0,-1,NULL,NULL,NULL,NULL,12/01/2020 11:07:33,NULL,NULL,0,0
17591,12/01/2020 10:48:47,32,HR/EN/1703,11/30/2020 07:55:39,,NULL,in,NULL,NULL,0,15,NULL,NULL,,0,-1,NULL,NULL,NULL,NULL,12/01/2020 10:48:47,NULL,NULL,0,0
82289,12/01/2020 12:30:01,19,PUC65,11/30/2020 07:55:39,,NULL,in,NULL,NULL,0,15,NULL,NULL,,0,-1,NULL,NULL,NULL,NULL,12/01/2020 12:30:01,NULL,NULL,0,0
31378,12/01/2020 11:07:33,36,HR/EN/1736,11/30/2020 07:55:38,,NULL,in,NULL,NULL,0,15,NULL,NULL,,0,-1,NULL,NULL,NULL,NULL,12/01/2020 11:07:33,NULL,NULL,0,0
32344,12/01/2020 11:09:14,22,HR/EN/1613,11/30/2020 07:55:37,,NULL,in,NULL,NULL,0,15,NULL,NULL,,0,-1,NULL,NULL,NULL,NULL,12/01/2020 11:09:14,NULL,NULL,0,0
17590,12/01/2020 10:48:47,32,HR/EN/1703,11/30/2020 07:55:36,,NULL,in,NULL,NULL,0,15,NULL,NULL,,0,-1,NULL,NULL,NULL,NULL,12/01/2020 10:48:47,NULL,NULL,0,0
17589,12/01/2020 10:48:47,32,HR/EN/1703,11/30/2020 07:55:34,,NULL,in,NULL,NULL,0,15,NULL,NULL,,0,-1,NULL,NULL,NULL,NULL,12/01/2020 10:48:47,NULL,NULL,0,0
32343,12/01/2020 11:09:14,22,HR/EN/1613,11/30/2020 07:55:34,,NULL,in,NULL,NULL,0,15,NULL,NULL,,0,-1,NULL,NULL,NULL,NULL,12/01/2020 11:09:14,NULL,NULL,0,0
31377,12/01/2020 11:07:33,36,HR/EN/1736,11/30/2020 07:55:33,,NULL,in,NULL,NULL,0,15,NULL,NULL,,0,-1,NULL,NULL,NULL,NULL,12/01/2020 11:07:33,NULL,NULL,0,0
32342,12/01/2020 11:09:14,22,HR/EN/1613,11/30/2020 07:55:32,,NULL,in,NULL,NULL,0,15,NULL,NULL,,0,-1,NULL,NULL,NULL,NULL,12/01/2020 11:09:14,NULL,NULL,0,0
82288,12/01/2020 12:30:01,19,PUC65,11/30/2020 07:55:29,,NULL,in,NULL,NULL,0,15,NULL,NULL,,0,-1,NULL,NULL,NULL,NULL,12/01/2020 12:30:01,NULL,NULL,0,0
31376,12/01/2020 11:07:33,36,HR/EN/0510,11/30/2020 07:55:24,,NULL,in,NULL,NULL,0,15,NULL,NULL,,0,-1,NULL,NULL,NULL,NULL,12/01/2020 11:07:33,NULL,NULL,0,0
31375,12/01/2020 11:07:33,36,HR/EN/0510,11/30/2020 07:55:15,,NULL,in,NULL,NULL,0,15,NULL,NULL,,0,-1,NULL,NULL,NULL,NULL,12/01/2020 11:07:33,NULL,NULL,0,0
31374,12/01/2020 11:07:33,36,HR/EN/0510,11/30/2020 07:55:12,,NULL,in,NULL,NULL,0,15,NULL,NULL,,0,-1,NULL,NULL,NULL,NULL,12/01/2020 11:07:33,NULL,NULL,0,0
31373,12/01/2020 11:07:33,36,HR/EN/0510,11/30/2020 07:55:10,,NULL,in,NULL,NULL,0,15,NULL,NULL,,0,-1,NULL,NULL,NULL,NULL,12/01/2020 11:07:33,NULL,NULL,0,0
82287,12/01/2020 12:30:01,19,HR/EN/1592,11/30/2020 07:55:08,,NULL,in,NULL,NULL,0,15,NULL,NULL,,0,-1,NULL,NULL,NULL,NULL,12/01/2020 12:30:01,NULL,NULL,0,0
82286,12/01/2020 12:30:01,19,HR/EN/1592,11/30/2020 07:55:05,,NULL,in,NULL,NULL,0,15,NULL,NULL,,0,-1,NULL,NULL,NULL,NULL,12/01/2020 12:30:01,NULL,NULL,0,0
20555,12/01/2020 10:52:11,30,HR/EN/1432,11/30/2020 07:54:57,,NULL,out,NULL,NULL,4,15,NULL,NULL,,0,-1,NULL,NULL,NULL,NULL,12/01/2020 10:52:11,NULL,NULL,0,0
31372,12/01/2020 11:07:33,36,HR/EN/0510,11/30/2020 07:54:52,,NULL,in,NULL,NULL,0,15,NULL,NULL,,0,-1,NULL,NULL,NULL,NULL,12/01/2020 11:07:33,NULL,NULL,0,0
20470,12/01/2020 10:52:08,30,HR/EN/1432,11/30/2020 07:54:48,,NULL,out,NULL,NULL,4,15,NULL,NULL,,0,-1,NULL,NULL,NULL,NULL,12/01/2020 10:52:08,NULL,NULL,0,0
20469,12/01/2020 10:52:08,30,HR/EN/1432,11/30/2020 07:54:46,,NULL,out,NULL,NULL,4,15,NULL,NULL,,0,-1,NULL,NULL,NULL,NULL,12/01/2020 10:52:08,NULL,NULL,0,0
30440,12/01/2020 11:06:40,24,HR/EN/1241,11/30/2020 07:54:44,,NULL,in,NULL,NULL,0,15,NULL,NULL,,0,-1,NULL,NULL,NULL,NULL,12/01/2020 11:06:40,NULL,NULL,0,0
43730,12/01/2020 11:26:53,23,HR/EN/0616,11/30/2020 07:54:42,,NULL,in,NULL,NULL,0,15,NULL,NULL,,0,-1,NULL,NULL,NULL,NULL,12/01/2020 11:26:53,NULL,NULL,0,0
43729,12/01/2020 11:26:53,23,HR/EN/0616,11/30/2020 07:54:40,,NULL,in,NULL,NULL,0,15,NULL,NULL,,0,-1,NULL,NULL,NULL,NULL,12/01/2020 11:26:53,NULL,NULL,0,0
20468,12/01/2020 10:52:08,30,1679,11/30/2020 07:54:36,,NULL,out,NULL,NULL,4,15,NULL,NULL,,0,-1,NULL,NULL,NULL,NULL,12/01/2020 10:52:08,NULL,NULL,0,0
20467,12/01/2020 10:52:08,30,1679,11/30/2020 07:54:33,,NULL,out,NULL,NULL,4,15,NULL,NULL,,0,-1,NULL,NULL,NULL,NULL,12/01/2020 10:52:08,NULL,NULL,0,0
20466,12/01/2020 10:52:08,30,1679,11/30/2020 07:54:31,,NULL,out,NULL,NULL,4,15,NULL,NULL,,0,-1,NULL,NULL,NULL,NULL,12/01/2020 10:52:08,NULL,NULL,0,0
36959,12/01/2020 11:19:46,25,HR/EN/1253,11/30/2020 07:54:31,,NULL,in,NULL,NULL,0,15,NULL,NULL,,0,-1,NULL,NULL,NULL,NULL,12/01/2020 11:19:46,NULL,NULL,0,0
18521,12/01/2020 10:50:15,31,HR/EN/1509,11/30/2020 07:54:29,,NULL,in,NULL,NULL,0,15,NULL,NULL,,0,-1,NULL,NULL,NULL,NULL,12/01/2020 10:50:15,NULL,NULL,0,0
36958,12/01/2020 11:19:46,25,HR/EN/1253,11/30/2020 07:54:28,,NULL,in,NULL,NULL,0,15,NULL,NULL,,0,-1,NULL,NULL,NULL,NULL,12/01/2020 11:19:46,NULL,NULL,0,0
18520,12/01/2020 10:50:15,31,HR/EN/1509,11/30/2020 07:54:26,,NULL,in,NULL,NULL,0,15,NULL,NULL,,0,-1,NULL,NULL,NULL,NULL,12/01/2020 10:50:15,NULL,NULL,0,0
43728,12/01/2020 11:26:53,23,HR/EN/0616,11/30/2020 07:54:24,,NULL,in,NULL,NULL,0,15,NULL,NULL,,0,-1,NULL,NULL,NULL,NULL,12/01/2020 11:26:53,NULL,NULL,0,0
18519,12/01/2020 10:50:15,31,HR/EN/1509,11/30/2020 07:54:23,,NULL,in,NULL,NULL,0,15,NULL,NULL,,0,-1,NULL,NULL,NULL,NULL,12/01/2020 10:50:15,NULL,NULL,0,0
